{
"type": "FeatureCollection",
"name": "geo_46_地域密着型介護老人福祉施設入所者生活介護",
"crs": { "type": "name", "properties": { "name": "urn:ogc:def:crs:OGC:1.3:CRS84" } },
"features": [
{ "type": "Feature", "properties": { "内容": "地域密着型特別養護老人ホーム下田苑【地域密着型介護老人福祉施設入所者生活介護】鹿児島県鹿児島市下田町３５３番地", "url": "https://www.kaigokensaku.mhlw.go.jp/46/index.php?action_kouhyou_detail_004_kani=true&JigyosyoCd=4690101201-00&ServiceCd=540&Type=search", "url2": "http://www.shimodaen.jp" }, "geometry": { "type": "Point", "coordinates": [ 130.550836299999986, 31.6399438 ] } },
{ "type": "Feature", "properties": { "内容": "小規模特別養護老人ホーム　寿康園【地域密着型介護老人福祉施設入所者生活介護】鹿児島県鹿児島市本名町2196-1", "url": "https://www.kaigokensaku.mhlw.go.jp/46/index.php?action_kouhyou_detail_004_kani=true&JigyosyoCd=4690100823-00&ServiceCd=540&Type=search", "url2": "https://jukouen.jp/" }, "geometry": { "type": "Point", "coordinates": [ 130.5427436, 31.6886029 ] } },
{ "type": "Feature", "properties": { "内容": "特別養護老人ホームとそ清風園（カトレア）【地域密着型介護老人福祉施設入所者生活介護】鹿児島県鹿児島市田上台一丁目43番1号", "url": "https://www.kaigokensaku.mhlw.go.jp/46/index.php?action_kouhyou_detail_004_kani=true&JigyosyoCd=4690101136-00&ServiceCd=540&Type=search", "url2": "http://www.tososeifuen.com" }, "geometry": { "type": "Point", "coordinates": [ 130.529651800000011, 31.5667146 ] } },
{ "type": "Feature", "properties": { "内容": "ケアガーデンてらやま（ユニット型）【地域密着型介護老人福祉施設入所者生活介護】鹿児島県鹿児島市吉野町１０８７７番地１８", "url": "https://www.kaigokensaku.mhlw.go.jp/46/index.php?action_kouhyou_detail_004_kani=true&JigyosyoCd=4690101144-00&ServiceCd=540&Type=search", "url2": "http://www.care-garden.or.jp" }, "geometry": { "type": "Point", "coordinates": [ 130.6030161, 31.6557373 ] } },
{ "type": "Feature", "properties": { "内容": "特別養護老人ホーム泰山荘（地域密着型）【地域密着型介護老人福祉施設入所者生活介護】鹿児島県鹿児島市皆与志町2261番地1", "url": "https://www.kaigokensaku.mhlw.go.jp/46/index.php?action_kouhyou_detail_004_kani=true&JigyosyoCd=4690101128-00&ServiceCd=540&Type=search", "url2": "https://taizansou.jp" }, "geometry": { "type": "Point", "coordinates": [ 130.5291985, 31.6656241 ] } },
{ "type": "Feature", "properties": { "内容": "特別養護老人ホーム　びわやまの里【地域密着型介護老人福祉施設入所者生活介護】喜入町６９８７番地", "url": "https://www.kaigokensaku.mhlw.go.jp/46/index.php?action_kouhyou_detail_004_kani=true&JigyosyoCd=4690100757-00&ServiceCd=540&Type=search", "url2": "http://www.shofukai-kagoshima.com/" }, "geometry": { "type": "Point", "coordinates": [ 130.540989099999933, 31.3741986 ] } },
{ "type": "Feature", "properties": { "内容": "地域密着型特別養護老人ホーム城山苑【地域密着型介護老人福祉施設入所者生活介護】鹿児島県鹿児島市長田町32-1", "url": "https://www.kaigokensaku.mhlw.go.jp/46/index.php?action_kouhyou_detail_004_kani=true&JigyosyoCd=4690101110-00&ServiceCd=540&Type=search", "url2": "http://www.shiroyamakai.com/" }, "geometry": { "type": "Point", "coordinates": [ 130.548982799999976, 31.6010305 ] } },
{ "type": "Feature", "properties": { "内容": "地域密着型特別養護老人ホーム　ピースフル立神【地域密着型介護老人福祉施設入所者生活介護】鹿児島県枕崎市火之神町７３３番地", "url": "https://www.kaigokensaku.mhlw.go.jp/46/index.php?action_kouhyou_detail_004_kani=true&JigyosyoCd=4690400066-00&ServiceCd=540&Type=search", "url2": "https://koseifukushikai.ko-seikai.jp/" }, "geometry": { "type": "Point", "coordinates": [ 130.277554356730661, 31.253423599210027 ] } },
{ "type": "Feature", "properties": { "内容": "特別養護老人ホーム　満青【地域密着型介護老人福祉施設入所者生活介護】鹿児島県阿久根市脇本９０９０番地２３", "url": "https://www.kaigokensaku.mhlw.go.jp/46/index.php?action_kouhyou_detail_004_kani=true&JigyosyoCd=4690600046-00&ServiceCd=540&Type=search", "url2": null }, "geometry": { "type": "Point", "coordinates": [ 130.186528287896749, 32.084165080728994 ] } },
{ "type": "Feature", "properties": { "内容": "特別養護老人ホーム　あかり【地域密着型介護老人福祉施設入所者生活介護】鹿児島県阿久根市山下8375-1", "url": "https://www.kaigokensaku.mhlw.go.jp/46/index.php?action_kouhyou_detail_004_kani=true&JigyosyoCd=4690600053-00&ServiceCd=540&Type=search", "url2": "http://kenjyoukai.or.jp" }, "geometry": { "type": "Point", "coordinates": [ 130.210289381723015, 32.022399207319459 ] } },
{ "type": "Feature", "properties": { "内容": "特別養護老人ホーム出水の里【地域密着型介護老人福祉施設入所者生活介護】鹿児島県出水市境町1822", "url": "https://www.kaigokensaku.mhlw.go.jp/46/index.php?action_kouhyou_detail_004_kani=true&JigyosyoCd=4690800117-00&ServiceCd=540&Type=search", "url2": "http://www.izumi-kouseikai.or.jp" }, "geometry": { "type": "Point", "coordinates": [ 130.359837337434328, 32.16636983287583 ] } },
{ "type": "Feature", "properties": { "内容": "特別養護老人ホーム　徳光苑アネックス【地域密着型介護老人福祉施設入所者生活介護】鹿児島県指宿市山川岡児ヶ水1212番地1", "url": "https://www.kaigokensaku.mhlw.go.jp/46/index.php?action_kouhyou_detail_004_kani=true&JigyosyoCd=4691000097-00&ServiceCd=540&Type=search", "url2": "http://www.tokkoen.or.jp" }, "geometry": { "type": "Point", "coordinates": [ 130.575657, 31.1731151 ] } },
{ "type": "Feature", "properties": { "内容": "特別養護老人ホームあいおいの郷【地域密着型介護老人福祉施設入所者生活介護】鹿児島県指宿市十二町88-15", "url": "https://www.kaigokensaku.mhlw.go.jp/46/index.php?action_kouhyou_detail_004_kani=true&JigyosyoCd=4691000154-00&ServiceCd=540&Type=search", "url2": "http://aioinosato.com" }, "geometry": { "type": "Point", "coordinates": [ 130.635206399999987, 31.2451654 ] } },
{ "type": "Feature", "properties": { "内容": "地域密着型特別養護老人ホーム　サンピアよつ葉【地域密着型介護老人福祉施設入所者生活介護】鹿児島県指宿市東方10235番地1", "url": "https://www.kaigokensaku.mhlw.go.jp/46/index.php?action_kouhyou_detail_004_kani=true&JigyosyoCd=4691000147-00&ServiceCd=540&Type=search", "url2": "https://www.ibusuki-carenet.or.jp/" }, "geometry": { "type": "Point", "coordinates": [ 130.653002104473899, 31.253037484668479 ] } },
{ "type": "Feature", "properties": { "内容": "特別養護老人ホーム　現和苑【地域密着型介護老人福祉施設入所者生活介護】鹿児島県西之表市現和５９４４－２１", "url": "https://www.kaigokensaku.mhlw.go.jp/46/index.php?action_kouhyou_detail_004_kani=true&JigyosyoCd=4691300034-00&ServiceCd=540&Type=search", "url2": "https://yurisa.jp/" }, "geometry": { "type": "Point", "coordinates": [ 131.064529099999959, 30.6944619 ] } },
{ "type": "Feature", "properties": { "内容": "ユニット型特別養護老人ホームのぞみ園【地域密着型介護老人福祉施設入所者生活介護】鹿児島県薩摩川内市祁答院町藺牟田2153番地1", "url": "https://www.kaigokensaku.mhlw.go.jp/46/index.php?action_kouhyou_detail_004_kani=true&JigyosyoCd=4691500146-00&ServiceCd=540&Type=search", "url2": "http://tokuyou-nozomien-1974.jp" }, "geometry": { "type": "Point", "coordinates": [ 130.484694900000022, 31.8094071 ] } },
{ "type": "Feature", "properties": { "内容": "地域密着型特別養護老人ホーム福和園【地域密着型介護老人福祉施設入所者生活介護】鹿児島県薩摩川内市御陵下町２９番５０号", "url": "https://www.kaigokensaku.mhlw.go.jp/46/index.php?action_kouhyou_detail_004_kani=true&JigyosyoCd=4691500112-00&ServiceCd=540&Type=search", "url2": null }, "geometry": { "type": "Point", "coordinates": [ 130.291839399999958, 31.8351287 ] } },
{ "type": "Feature", "properties": { "内容": "地域密着型特別養護老人ホーム　おおむら園【地域密着型介護老人福祉施設入所者生活介護】薩摩川内市祁答院町上手500番地7", "url": "https://www.kaigokensaku.mhlw.go.jp/46/index.php?action_kouhyou_detail_004_kani=true&JigyosyoCd=4690200177-00&ServiceCd=540&Type=search", "url2": "http://www.mikurakai.or.jp" }, "geometry": { "type": "Point", "coordinates": [ 130.5138594, 31.8668962 ] } },
{ "type": "Feature", "properties": { "内容": "ユニット型　特別養護老人ホーム翠泉苑【地域密着型介護老人福祉施設入所者生活介護】鹿児島県薩摩川内市樋脇町市比野3200番地118", "url": "https://www.kaigokensaku.mhlw.go.jp/46/index.php?action_kouhyou_detail_004_kani=true&JigyosyoCd=4691500138-00&ServiceCd=540&Type=search", "url2": "http://ichihuku.jp/index.html" }, "geometry": { "type": "Point", "coordinates": [ 130.394963599999983, 31.7870434 ] } },
{ "type": "Feature", "properties": { "内容": "特別養護老人ホーム　永利【地域密着型介護老人福祉施設入所者生活介護】永利町2531番地", "url": "https://www.kaigokensaku.mhlw.go.jp/46/index.php?action_kouhyou_detail_004_kani=true&JigyosyoCd=4690200201-00&ServiceCd=540&Type=search", "url2": "http://tokuyou-nozomien-1974.jp/" }, "geometry": { "type": "Point", "coordinates": [ 130.346161, 31.8069883 ] } },
{ "type": "Feature", "properties": { "内容": "地域密着型介護老人福祉施設　はまかぜ園【地域密着型介護老人福祉施設入所者生活介護】鹿児島県薩摩川内市西方町3111番地", "url": "https://www.kaigokensaku.mhlw.go.jp/46/index.php?action_kouhyou_detail_004_kani=true&JigyosyoCd=4691500120-00&ServiceCd=540&Type=search", "url2": "http://www.hamakazeen.com" }, "geometry": { "type": "Point", "coordinates": [ 130.234554800000069, 31.9155673 ] } },
{ "type": "Feature", "properties": { "内容": "特別養護老人ホーム鹿島園【地域密着型介護老人福祉施設入所者生活介護】鹿児島県薩摩川内市鹿島町藺牟田1443番地1", "url": "https://www.kaigokensaku.mhlw.go.jp/46/index.php?action_kouhyou_detail_004_kani=true&JigyosyoCd=4691500260-00&ServiceCd=540&Type=search", "url2": null }, "geometry": { "type": "Point", "coordinates": [ 129.789395199999944, 31.777847 ] } },
{ "type": "Feature", "properties": { "内容": "喜楽奈家【地域密着型介護老人福祉施設入所者生活介護】鹿児島県日置市吹上町湯之浦2758", "url": "https://www.kaigokensaku.mhlw.go.jp/46/index.php?action_kouhyou_detail_004_kani=true&JigyosyoCd=4691500070-00&ServiceCd=540&Type=search", "url2": null }, "geometry": { "type": "Point", "coordinates": [ 130.371282699999938, 31.5047118 ] } },
{ "type": "Feature", "properties": { "内容": "特別養護老人ホーム　はるかぜの里【地域密着型介護老人福祉施設入所者生活介護】曽於市末吉町二之方３０７６番地２", "url": "https://www.kaigokensaku.mhlw.go.jp/46/index.php?action_kouhyou_detail_004_kani=true&JigyosyoCd=4691600094-00&ServiceCd=540&Type=search", "url2": "http://hakufu-kai.or.jp/" }, "geometry": { "type": "Point", "coordinates": [ 131.022562500000049, 31.654046 ] } },
{ "type": "Feature", "properties": { "内容": "地域密着型特別養護老人ホーム　高松すわの森【地域密着型介護老人福祉施設入所者生活介護】曽於市末吉町諏訪方6879番地1", "url": "https://www.kaigokensaku.mhlw.go.jp/46/index.php?action_kouhyou_detail_004_kani=true&JigyosyoCd=4691600102-00&ServiceCd=540&Type=search", "url2": "https://hakujyukai-kagoshima.jp/institution/" }, "geometry": { "type": "Point", "coordinates": [ 131.01768549999997, 31.6493186 ] } },
{ "type": "Feature", "properties": { "内容": "地域密着型介護老人福祉施設　末吉まごころ園【地域密着型介護老人福祉施設入所者生活介護】鹿児島県曽於市末吉町二之方5380番地1", "url": "https://www.kaigokensaku.mhlw.go.jp/46/index.php?action_kouhyou_detail_004_kani=true&JigyosyoCd=4691600029-00&ServiceCd=540&Type=search", "url2": "https://yattikukai.or.jp/" }, "geometry": { "type": "Point", "coordinates": [ 131.020392750926248, 31.640412569255798 ] } },
{ "type": "Feature", "properties": { "内容": "地域密着型特別養護老人ホーム　南之郷【地域密着型介護老人福祉施設入所者生活介護】鹿児島県曽於市末吉町南之郷8130番地１", "url": "https://www.kaigokensaku.mhlw.go.jp/46/index.php?action_kouhyou_detail_004_kani=true&JigyosyoCd=4691600136-00&ServiceCd=540&Type=search", "url2": "http：//minaminosato.kagoshima.jp/" }, "geometry": { "type": "Point", "coordinates": [ 131.0829698, 31.6171962 ] } },
{ "type": "Feature", "properties": { "内容": "地域密着型特別養護老人ホーム　そら【地域密着型介護老人福祉施設入所者生活介護】鹿児島県曽於市末吉町深川１７０５番地１", "url": "https://www.kaigokensaku.mhlw.go.jp/46/index.php?action_kouhyou_detail_004_kani=true&JigyosyoCd=4691600177-00&ServiceCd=540&Type=search", "url2": "http://www.megumikai.jp" }, "geometry": { "type": "Point", "coordinates": [ 131.004603065849295, 31.7112947159873 ] } },
{ "type": "Feature", "properties": { "内容": "小規模特別養護老人ホーム　日当山の家【地域密着型介護老人福祉施設入所者生活介護】鹿児島県霧島市隼人町松永1171番地", "url": "https://www.kaigokensaku.mhlw.go.jp/46/index.php?action_kouhyou_detail_004_kani=true&JigyosyoCd=4691200317-00&ServiceCd=540&Type=search", "url2": "hinatayamanoie@iaa.itkeeper.ne.jp" }, "geometry": { "type": "Point", "coordinates": [ 130.770681100000047, 31.7805479 ] } },
{ "type": "Feature", "properties": { "内容": "地域密着型特別養護老人ホーム　みどりの里【地域密着型介護老人福祉施設入所者生活介護】霧島市横川町中ノ5645番地1", "url": "https://www.kaigokensaku.mhlw.go.jp/46/index.php?action_kouhyou_detail_004_kani=true&JigyosyoCd=4691200283-00&ServiceCd=540&Type=search", "url2": "https://www.kibo-ryokufuen.com/" }, "geometry": { "type": "Point", "coordinates": [ 130.694870400000013, 31.8876161 ] } },
{ "type": "Feature", "properties": { "内容": "ユニット型地域密着型特別養護老人ホーム　ソ・ウェルこくぶちゅうおう【地域密着型介護老人福祉施設入所者生活介護】国分中央3-12-29", "url": "https://www.kaigokensaku.mhlw.go.jp/46/index.php?action_kouhyou_detail_004_kani=true&JigyosyoCd=4691200481-00&ServiceCd=540&Type=search", "url2": "http://www.misakikai.or.jp/sowel/" }, "geometry": { "type": "Point", "coordinates": [ 130.769010799999933, 31.7398101 ] } },
{ "type": "Feature", "properties": { "内容": "地域密着型特別養護老人ホーム吹上園ふもと【地域密着型介護老人福祉施設入所者生活介護】いちき串木野市麓２７７５番地１", "url": "https://www.kaigokensaku.mhlw.go.jp/46/index.php?action_kouhyou_detail_004_kani=true&JigyosyoCd=4690500055-00&ServiceCd=540&Type=search", "url2": "jiko-kai.or.jp" }, "geometry": { "type": "Point", "coordinates": [ 130.287410565776071, 31.725023445179673 ] } },
{ "type": "Feature", "properties": { "内容": "特別養護老人ホーム和顔施【地域密着型介護老人福祉施設入所者生活介護】金峰町浦之名1430", "url": "https://www.kaigokensaku.mhlw.go.jp/46/index.php?action_kouhyou_detail_004_kani=true&JigyosyoCd=4691100103-00&ServiceCd=540&Type=search", "url2": null }, "geometry": { "type": "Point", "coordinates": [ 130.366945791601552, 31.451650591567027 ] } },
{ "type": "Feature", "properties": { "内容": "地域密着型介護老人福祉施設ガレリア　ソル【地域密着型介護老人福祉施設入所者生活介護】鹿児島県南さつま市東本町８－１０", "url": "https://www.kaigokensaku.mhlw.go.jp/46/index.php?action_kouhyou_detail_004_kani=true&JigyosyoCd=4691100087-00&ServiceCd=540&Type=search", "url2": "http://www.nonohanakai.or.jp/" }, "geometry": { "type": "Point", "coordinates": [ 130.3242017, 31.4198144 ] } },
{ "type": "Feature", "properties": { "内容": "石垣の里（ユニット型）【地域密着型介護老人福祉施設入所者生活介護】鹿児島県南さつま市笠沙町片浦9878", "url": "https://www.kaigokensaku.mhlw.go.jp/46/index.php?action_kouhyou_detail_004_kani=true&JigyosyoCd=4691100129-00&ServiceCd=540&Type=search", "url2": "https://koujin-ayanokai.or.jp/" }, "geometry": { "type": "Point", "coordinates": [ 130.1688888, 31.4221221 ] } },
{ "type": "Feature", "properties": { "内容": "特別養護老人ホーム賀寿園（従来型）【地域密着型介護老人福祉施設入所者生活介護】鹿児島県志布志市志布志町安楽2903番地1", "url": "https://www.kaigokensaku.mhlw.go.jp/46/index.php?action_kouhyou_detail_004_kani=true&JigyosyoCd=4691700076-00&ServiceCd=540&Type=search", "url2": "http://www.ryuai.jp" }, "geometry": { "type": "Point", "coordinates": [ 131.087409100000059, 31.5013806 ] } },
{ "type": "Feature", "properties": { "内容": "ちらん敬和の郷【地域密着型介護老人福祉施設入所者生活介護】鹿児島県南九州市知覧町郡５９９８番地１", "url": "https://www.kaigokensaku.mhlw.go.jp/46/index.php?action_kouhyou_detail_004_kani=true&JigyosyoCd=4694300064-00&ServiceCd=540&Type=search", "url2": "http://kagoshima-keiwakai.jp/" }, "geometry": { "type": "Point", "coordinates": [ 130.4409617, 31.3773428 ] } },
{ "type": "Feature", "properties": { "内容": "特別養護老人ホーム　ビハーラ【地域密着型介護老人福祉施設入所者生活介護】鹿児島県南九州市頴娃町別府６６１６番地１", "url": "https://www.kaigokensaku.mhlw.go.jp/46/index.php?action_kouhyou_detail_004_kani=true&JigyosyoCd=4694300049-00&ServiceCd=540&Type=search", "url2": "https://ookawafukushikai.jp/" }, "geometry": { "type": "Point", "coordinates": [ 130.414658782803343, 31.256033457435723 ] } },
{ "type": "Feature", "properties": { "内容": "特別養護老人ホーム　ガーデンハウス桜ケ丘【地域密着型介護老人福祉施設入所者生活介護】鹿児島県伊佐市大口里1564番地39", "url": "https://www.kaigokensaku.mhlw.go.jp/46/index.php?action_kouhyou_detail_004_kani=true&JigyosyoCd=4694400047-00&ServiceCd=540&Type=search", "url2": "https://eiwakai.net/sakuragaoka/" }, "geometry": { "type": "Point", "coordinates": [ 130.611191974868802, 32.048648891448167 ] } },
{ "type": "Feature", "properties": { "内容": "地域密着型特別養護老人ホームさざんか園【地域密着型介護老人福祉施設入所者生活介護】鹿児島県姶良市船津1700-18", "url": "https://www.kaigokensaku.mhlw.go.jp/46/index.php?action_kouhyou_detail_004_kani=true&JigyosyoCd=4694500085-00&ServiceCd=540&Type=search", "url2": "http://kenshofukushikai.com/" }, "geometry": { "type": "Point", "coordinates": [ 130.603199278434772, 31.744588209559861 ] } },
{ "type": "Feature", "properties": { "内容": "地域密着型特別養護老人ホーム光陽の杜【地域密着型介護老人福祉施設入所者生活介護】鹿児島県姶良市西餅田３３０６－１地域密着型特別養護老人ホーム光陽の杜", "url": "https://www.kaigokensaku.mhlw.go.jp/46/index.php?action_kouhyou_detail_004_kani=true&JigyosyoCd=4694500093-00&ServiceCd=540&Type=search", "url2": "https://taiyounokaze.jp/info.php" }, "geometry": { "type": "Point", "coordinates": [ 130.621965213491848, 31.719133342361054 ] } },
{ "type": "Feature", "properties": { "内容": "特別養護老人ホーム　さざ波【地域密着型介護老人福祉施設入所者生活介護】出水郡長島町川床９６４番地１", "url": "https://www.kaigokensaku.mhlw.go.jp/46/index.php?action_kouhyou_detail_004_kani=true&JigyosyoCd=4695000010-00&ServiceCd=540&Type=search", "url2": "sazanami@seifuu.biz" }, "geometry": { "type": "Point", "coordinates": [ 130.1678541, 32.1487181 ] } },
{ "type": "Feature", "properties": { "内容": "ユニット型特別養護老人ホームグリーン光芳【地域密着型介護老人福祉施設入所者生活介護】鹿児島県姶良郡湧水町米永２３８７番地", "url": "https://www.kaigokensaku.mhlw.go.jp/46/index.php?action_kouhyou_detail_004_kani=true&JigyosyoCd=4695700023-00&ServiceCd=540&Type=search", "url2": "http://greenkouhouyusui.ec-net.jp/" }, "geometry": { "type": "Point", "coordinates": [ 130.721105800000032, 31.9252629 ] } },
{ "type": "Feature", "properties": { "内容": "小規模特別養護老人ホーム　長谷の里【地域密着型介護老人福祉施設入所者生活介護】鹿児島県熊毛郡南種子町中之上１７０２－４", "url": "https://www.kaigokensaku.mhlw.go.jp/46/index.php?action_kouhyou_detail_004_kani=true&JigyosyoCd=4698100049-00&ServiceCd=540&Type=search", "url2": null }, "geometry": { "type": "Point", "coordinates": [ 130.913335299999972, 30.4361034 ] } }
]
}
