{
"type": "FeatureCollection",
"name": "geo_46_大学",
"crs": { "type": "name", "properties": { "name": "urn:ogc:def:crs:EPSG::6668" } },
"features": [
{ "type": "Feature", "properties": { "P29_001": "46201", "P29_002": "F146110111620", "P29_003": "16007", "P29_004": "鹿児島大学", "P29_005": "鹿児島県鹿児島市郡元1-21-24", "P29_006": "1", "P29_007": "0", "P29_008": "01", "P29_009": "郡元キャンパス" }, "geometry": { "type": "Point", "coordinates": [ 130.544203101524374, 31.570053052087051 ] } },
{ "type": "Feature", "properties": { "P29_001": "46203", "P29_002": "F146110111639", "P29_003": "16007", "P29_004": "鹿屋体育大学", "P29_005": "鹿児島県鹿屋市白水町1", "P29_006": "1", "P29_007": "0", "P29_008": "00", "P29_009": null }, "geometry": { "type": "Point", "coordinates": [ 130.78853879887609, 31.395093452708917 ] } },
{ "type": "Feature", "properties": { "P29_001": "46201", "P29_002": "F146310111644", "P29_003": "16007", "P29_004": "鹿児島国際大学", "P29_005": "鹿児島県鹿児島市坂之上8-34-1", "P29_006": "4", "P29_007": "0", "P29_008": "00", "P29_009": null }, "geometry": { "type": "Point", "coordinates": [ 130.495491723457377, 31.495186855715474 ] } },
{ "type": "Feature", "properties": { "P29_001": "46218", "P29_002": "F146310111653", "P29_003": "16007", "P29_004": "第一工科大学", "P29_005": "鹿児島県霧島市国分中央1-10-2", "P29_006": "4", "P29_007": "0", "P29_008": "00", "P29_009": null }, "geometry": { "type": "Point", "coordinates": [ 130.76869235737297, 31.746646449989203 ] } },
{ "type": "Feature", "properties": { "P29_001": "46201", "P29_002": "F146310111662", "P29_003": "16007", "P29_004": "志學館大学", "P29_005": "鹿児島県鹿児島市紫原1-59-1", "P29_006": "4", "P29_007": "0", "P29_008": "00", "P29_009": null }, "geometry": { "type": "Point", "coordinates": [ 130.543949780844002, 31.558919810390041 ] } },
{ "type": "Feature", "properties": { "P29_001": "46215", "P29_002": "F146310111671", "P29_003": "16007", "P29_004": "鹿児島純心大学", "P29_005": "鹿児島県薩摩川内市天辰町2365", "P29_006": "4", "P29_007": "0", "P29_008": "00", "P29_009": null }, "geometry": { "type": "Point", "coordinates": [ 130.328143011433639, 31.826091167551329 ] } },
{ "type": "Feature", "properties": { "P29_001": "46201", "P29_002": "F146110111620", "P29_003": "16007", "P29_004": "鹿児島大学", "P29_005": "鹿児島県鹿児島市桜ヶ丘8-35-1", "P29_006": "1", "P29_007": "0", "P29_008": "02", "P29_009": "桜ヶ丘キャンパス" }, "geometry": { "type": "Point", "coordinates": [ 130.526121192586686, 31.547802882728689 ] } },
{ "type": "Feature", "properties": { "P29_001": "46201", "P29_002": "F146110111620", "P29_003": "16007", "P29_004": "鹿児島大学", "P29_005": "鹿児島県鹿児島市下荒田4-50-20", "P29_006": "1", "P29_007": "0", "P29_008": "03", "P29_009": "下荒田キャンパス" }, "geometry": { "type": "Point", "coordinates": [ 130.557064878399615, 31.567702708377695 ] } }
]
}
