{
"type": "FeatureCollection",
"name": "geo_46_短期入所療養介護（介護老人保健施設）",
"crs": { "type": "name", "properties": { "name": "urn:ogc:def:crs:OGC:1.3:CRS84" } },
"features": [
{ "type": "Feature", "properties": { "内容": "医療法人　仁風会　介護老人保健施設　西千石【短期入所療養介護（介護老人保健施設）】鹿児島市西千石町8番13号", "url": "https://www.kaigokensaku.mhlw.go.jp/46/index.php?action_kouhyou_detail_004_kani=true&JigyosyoCd=4650180112-00&ServiceCd=220&Type=search", "url2": "http://www.jinpuh.or.jp" }, "geometry": { "type": "Point", "coordinates": [ 130.5481221, 31.5883737 ] } },
{ "type": "Feature", "properties": { "内容": "介護老人保健施設　吉田ナーシングホーム【短期入所療養介護（介護老人保健施設）】本名町472番地", "url": "https://www.kaigokensaku.mhlw.go.jp/46/index.php?action_kouhyou_detail_004_kani=true&JigyosyoCd=4652180011-00&ServiceCd=220&Type=search", "url2": "https://nurshing.sekisaikai.jp/" }, "geometry": { "type": "Point", "coordinates": [ 130.546221, 31.6922444 ] } },
{ "type": "Feature", "properties": { "内容": "医療法人徳洲会　介護老人保健施設　光徳苑【短期入所療養介護（介護老人保健施設）】谷山中央2-4515", "url": "https://www.kaigokensaku.mhlw.go.jp/46/index.php?action_kouhyou_detail_004_kani=true&JigyosyoCd=4650180195-00&ServiceCd=220&Type=search", "url2": "https://www.tokushukai.or.jp" }, "geometry": { "type": "Point", "coordinates": [ 130.519151, 31.522802 ] } },
{ "type": "Feature", "properties": { "内容": "介護老人保健施設ナーシングホーム城山の森【短期入所療養介護（介護老人保健施設）】鹿児島県鹿児島市長田町223番地", "url": "https://www.kaigokensaku.mhlw.go.jp/46/index.php?action_kouhyou_detail_004_kani=true&JigyosyoCd=4650180153-00&ServiceCd=220&Type=search", "url2": "htt./www.shiroyamanomori.com/" }, "geometry": { "type": "Point", "coordinates": [ 130.556076699999949, 31.6040165 ] } },
{ "type": "Feature", "properties": { "内容": "介護老人保健施設　愛と結の街【短期入所療養介護（介護老人保健施設）】鹿児島市小原町8-3", "url": "https://www.kaigokensaku.mhlw.go.jp/46/index.php?action_kouhyou_detail_004_kani=true&JigyosyoCd=4650180070-00&ServiceCd=220&Type=search", "url2": "http://www.jiaikai.or.jp/aitoyui/" }, "geometry": { "type": "Point", "coordinates": [ 130.531036299999982, 31.5418619 ] } },
{ "type": "Feature", "properties": { "内容": "介護老人保健施設スイートケアなかよし【短期入所療養介護（介護老人保健施設）】鹿児島県鹿児島市下伊敷１丁目１番５号", "url": "https://www.kaigokensaku.mhlw.go.jp/46/index.php?action_kouhyou_detail_004_kani=true&JigyosyoCd=4650180021-00&ServiceCd=220&Type=search", "url2": "https://gyokusuikai.jp" }, "geometry": { "type": "Point", "coordinates": [ 130.53485, 31.60881 ] } },
{ "type": "Feature", "properties": { "内容": "介護老人保健施設ひまわり【短期入所療養介護（介護老人保健施設）】鹿児島市真砂本町３－８１", "url": "https://www.kaigokensaku.mhlw.go.jp/46/index.php?action_kouhyou_detail_004_kani=true&JigyosyoCd=4650180096-00&ServiceCd=220&Type=search", "url2": "https://ookatsu.jp/kanrenshisetu/himawari" }, "geometry": { "type": "Point", "coordinates": [ 130.549162, 31.5571077 ] } },
{ "type": "Feature", "properties": { "内容": "あさひ【短期入所療養介護（介護老人保健施設）】鹿児島市泉町8番2号", "url": "https://www.kaigokensaku.mhlw.go.jp/46/index.php?action_kouhyou_detail_004_kani=true&JigyosyoCd=4650180088-00&ServiceCd=220&Type=search", "url2": "http://www.tenyoukai.org/rouken/index.html" }, "geometry": { "type": "Point", "coordinates": [ 130.559285100000011, 31.5936956 ] } },
{ "type": "Feature", "properties": { "内容": "介護老人保健施設　さくらんぼ【短期入所療養介護（介護老人保健施設）】鹿児島市下田町1759番地", "url": "https://www.kaigokensaku.mhlw.go.jp/46/index.php?action_kouhyou_detail_004_kani=true&JigyosyoCd=4650180047-00&ServiceCd=220&Type=search", "url2": "http://www.kanyoukai.or.jp/sakuranbo/index.html" }, "geometry": { "type": "Point", "coordinates": [ 130.545236599999953, 31.6460182 ] } },
{ "type": "Feature", "properties": { "内容": "鴨池慈風苑【短期入所療養介護（介護老人保健施設）】鹿児島県鹿児島市東郡元町11番6号", "url": "https://www.kaigokensaku.mhlw.go.jp/46/index.php?action_kouhyou_detail_004_kani=true&JigyosyoCd=4650180062-00&ServiceCd=220&Type=search", "url2": "https://jifuen.jifukai.jp/" }, "geometry": { "type": "Point", "coordinates": [ 130.5497732, 31.554034 ] } },
{ "type": "Feature", "properties": { "内容": "まろにえ介護老人保健施設【短期入所療養介護（介護老人保健施設）】鹿児島市草牟田二丁目２６番４５号", "url": "https://www.kaigokensaku.mhlw.go.jp/46/index.php?action_kouhyou_detail_004_kani=true&JigyosyoCd=4650180120-00&ServiceCd=220&Type=search", "url2": "https://www.yonemorihp.jp/maronierouken/" }, "geometry": { "type": "Point", "coordinates": [ 130.538861, 31.6069824 ] } },
{ "type": "Feature", "properties": { "内容": "介護老人保健施設　ナーシングホーム田上苑【短期入所療養介護（介護老人保健施設）】西陵六丁目21番18号", "url": "https://www.kaigokensaku.mhlw.go.jp/46/index.php?action_kouhyou_detail_004_kani=true&JigyosyoCd=4650180138-00&ServiceCd=220&Type=search", "url2": "https://www.tagamien.com/" }, "geometry": { "type": "Point", "coordinates": [ 130.504184799999962, 31.5817406 ] } },
{ "type": "Feature", "properties": { "内容": "ユニット型介護老人保健施設　ナーシングホーム田上苑【短期入所療養介護（介護老人保健施設）】西陵六丁目21番18号", "url": "https://www.kaigokensaku.mhlw.go.jp/46/index.php?action_kouhyou_detail_004_kani=true&JigyosyoCd=4670109901-00&ServiceCd=220&Type=search", "url2": "https://www.tagamien.com/" }, "geometry": { "type": "Point", "coordinates": [ 130.5041845, 31.5818619 ] } },
{ "type": "Feature", "properties": { "内容": "介護老人保健施設フレンドホーム【短期入所療養介護（介護老人保健施設）】山田町450番地", "url": "https://www.kaigokensaku.mhlw.go.jp/46/index.php?action_kouhyou_detail_004_kani=true&JigyosyoCd=4650180054-00&ServiceCd=220&Type=search", "url2": "friend.thch.jp" }, "geometry": { "type": "Point", "coordinates": [ 130.5030586, 31.5641207 ] } },
{ "type": "Feature", "properties": { "内容": "ろうけん青空【短期入所療養介護（介護老人保健施設）】鹿児島市吉野町6040番地7", "url": "https://www.kaigokensaku.mhlw.go.jp/46/index.php?action_kouhyou_detail_004_kani=true&JigyosyoCd=4650180161-00&ServiceCd=220&Type=search", "url2": "http://www.meikikai.com/" }, "geometry": { "type": "Point", "coordinates": [ 130.591561700000057, 31.6507374 ] } },
{ "type": "Feature", "properties": { "内容": "サテライトろうけん青空【短期入所療養介護（介護老人保健施設）】吉野3丁目5番8号", "url": "https://www.kaigokensaku.mhlw.go.jp/46/index.php?action_kouhyou_detail_004_kani=true&JigyosyoCd=4650180187-00&ServiceCd=220&Type=search", "url2": "http://www.meikikai.com" }, "geometry": { "type": "Point", "coordinates": [ 130.570103633182555, 31.653947450115609 ] } },
{ "type": "Feature", "properties": { "内容": "老人保健施設　サンシャインきいれ【短期入所療養介護（介護老人保健施設）】鹿児島県鹿児島市喜入前之浜町7808-1", "url": "https://www.kaigokensaku.mhlw.go.jp/46/index.php?action_kouhyou_detail_004_kani=true&JigyosyoCd=4670113069-00&ServiceCd=220&Type=search", "url2": "https://kiire.jp/" }, "geometry": { "type": "Point", "coordinates": [ 130.5530421, 31.3508207 ] } },
{ "type": "Feature", "properties": { "内容": "介護老人保健施設　城山老健施設【短期入所療養介護（介護老人保健施設）】鹿児島市草牟田一丁目4番10号", "url": "https://www.kaigokensaku.mhlw.go.jp/46/index.php?action_kouhyou_detail_004_kani=true&JigyosyoCd=4650180013-00&ServiceCd=220&Type=search", "url2": "http://www.koseikai-uemura.jp" }, "geometry": { "type": "Point", "coordinates": [ 130.539263900000037, 31.6022634 ] } },
{ "type": "Feature", "properties": { "内容": "城西ナーシングホーム【短期入所療養介護（介護老人保健施設）】西田１丁目１６番地1", "url": "https://www.kaigokensaku.mhlw.go.jp/46/index.php?action_kouhyou_detail_004_kani=true&JigyosyoCd=4650180039-00&ServiceCd=220&Type=search", "url2": "http//www.jikeikai.net" }, "geometry": { "type": "Point", "coordinates": [ 130.543403, 31.5887818 ] } },
{ "type": "Feature", "properties": { "内容": "介護老人保健施設ヴィラかのや【短期入所療養介護（介護老人保健施設）】鹿児島県鹿屋市寿八丁目21－2", "url": "https://www.kaigokensaku.mhlw.go.jp/46/index.php?action_kouhyou_detail_004_kani=true&JigyosyoCd=4650380027-00&ServiceCd=220&Type=search", "url2": "http://www.koshinkai.or.jp" }, "geometry": { "type": "Point", "coordinates": [ 130.880299799999989, 31.3865256 ] } },
{ "type": "Feature", "properties": { "内容": "介護老人保健施設　ナーシングホームひだまり【短期入所療養介護（介護老人保健施設）】鹿児島県鹿屋市下祓川町1853", "url": "https://www.kaigokensaku.mhlw.go.jp/46/index.php?action_kouhyou_detail_004_kani=true&JigyosyoCd=4650380019-00&ServiceCd=220&Type=search", "url2": "http://ikeda-hp.com" }, "geometry": { "type": "Point", "coordinates": [ 130.851387499999987, 31.4140111 ] } },
{ "type": "Feature", "properties": { "内容": "介護老人保健施設　ナーシングホーム　ひだまり(ユニット型)【短期入所療養介護（介護老人保健施設）】鹿児島県鹿屋市下祓川町1853", "url": "https://www.kaigokensaku.mhlw.go.jp/46/index.php?action_kouhyou_detail_004_kani=true&JigyosyoCd=4650380043-00&ServiceCd=220&Type=search", "url2": "http://ikeda-hp.com" }, "geometry": { "type": "Point", "coordinates": [ 130.851387499999987, 31.4140111 ] } },
{ "type": "Feature", "properties": { "内容": "介護老人保健施設　ハーモニーガーデン【短期入所療養介護（介護老人保健施設）】鹿屋市寿4丁目1番43号", "url": "https://www.kaigokensaku.mhlw.go.jp/46/index.php?action_kouhyou_detail_004_kani=true&JigyosyoCd=4650380035-00&ServiceCd=220&Type=search", "url2": "http://wakeikai-g.or.jp" }, "geometry": { "type": "Point", "coordinates": [ 130.873519699999946, 31.3890474 ] } },
{ "type": "Feature", "properties": { "内容": "エスポワール立神【短期入所療養介護（介護老人保健施設）】鹿児島県枕崎市火之神町６３０番地", "url": "https://www.kaigokensaku.mhlw.go.jp/46/index.php?action_kouhyou_detail_004_kani=true&JigyosyoCd=4650480017-00&ServiceCd=220&Type=search", "url2": "http://www5.synapse.ne.jp/espotategami/" }, "geometry": { "type": "Point", "coordinates": [ 130.276817899999969, 31.2542208 ] } },
{ "type": "Feature", "properties": { "内容": "サザンケアセンター【短期入所療養介護（介護老人保健施設）】枕崎市緑町２３６番地", "url": "https://www.kaigokensaku.mhlw.go.jp/46/index.php?action_kouhyou_detail_004_kani=true&JigyosyoCd=4650480025-00&ServiceCd=220&Type=search", "url2": "http://southernregion.jp/" }, "geometry": { "type": "Point", "coordinates": [ 130.293268500000067, 31.2772663 ] } },
{ "type": "Feature", "properties": { "内容": "介護老人保健施設グリーンフォレストみかさ【短期入所療養介護（介護老人保健施設）】鹿児島県阿久根市脇本字柞木迫6313番地1", "url": "https://www.kaigokensaku.mhlw.go.jp/46/index.php?action_kouhyou_detail_004_kani=true&JigyosyoCd=4650680020-00&ServiceCd=220&Type=search", "url2": null }, "geometry": { "type": "Point", "coordinates": [ 130.177752100000021, 32.0901826 ] } },
{ "type": "Feature", "properties": { "内容": "介護老人保健施設　回生苑【短期入所療養介護（介護老人保健施設）】阿久根市赤瀬川551番地", "url": "https://www.kaigokensaku.mhlw.go.jp/46/index.php?action_kouhyou_detail_004_kani=true&JigyosyoCd=4650680012-00&ServiceCd=220&Type=search", "url2": "http://www.kouwa-kaiseien.co" }, "geometry": { "type": "Point", "coordinates": [ 130.20155879999993, 32.0262465 ] } },
{ "type": "Feature", "properties": { "内容": "介護老人保健施設　ラ・フォンテいずみ【短期入所療養介護（介護老人保健施設）】出水市五万石町２８１番地", "url": "https://www.kaigokensaku.mhlw.go.jp/46/index.php?action_kouhyou_detail_004_kani=true&JigyosyoCd=4650880026-00&ServiceCd=220&Type=search", "url2": null }, "geometry": { "type": "Point", "coordinates": [ 130.344215, 32.073693 ] } },
{ "type": "Feature", "properties": { "内容": "介護老人保健施設ヴァンベールみどりの風【短期入所療養介護（介護老人保健施設）】鹿児島県指宿市山川大山2056-4", "url": "https://www.kaigokensaku.mhlw.go.jp/46/index.php?action_kouhyou_detail_004_kani=true&JigyosyoCd=4652280027-00&ServiceCd=220&Type=search", "url2": "https://ventvert-1001.com" }, "geometry": { "type": "Point", "coordinates": [ 130.592072599999938, 31.2007765 ] } },
{ "type": "Feature", "properties": { "内容": "指宿やすらぎ園【短期入所療養介護（介護老人保健施設）】鹿児島県指宿市東方7531番地", "url": "https://www.kaigokensaku.mhlw.go.jp/46/index.php?action_kouhyou_detail_004_kani=true&JigyosyoCd=4651080022-00&ServiceCd=220&Type=search", "url2": "http://www.ibutake.com/" }, "geometry": { "type": "Point", "coordinates": [ 130.621918400000027, 31.2565891 ] } },
{ "type": "Feature", "properties": { "内容": "介護老人保健施設　指宿温泉菜の花苑【短期入所療養介護（介護老人保健施設）】鹿児島県指宿市十町418-1", "url": "https://www.kaigokensaku.mhlw.go.jp/46/index.php?action_kouhyou_detail_004_kani=true&JigyosyoCd=4651080014-00&ServiceCd=220&Type=search", "url2": null }, "geometry": { "type": "Point", "coordinates": [ 130.633622899999978, 31.253709 ] } },
{ "type": "Feature", "properties": { "内容": "介護老人保健施設わらび苑【短期入所療養介護（介護老人保健施設）】西之表市西之表２９８１－１", "url": "https://www.kaigokensaku.mhlw.go.jp/46/index.php?action_kouhyou_detail_004_kani=true&JigyosyoCd=4651380018-00&ServiceCd=220&Type=search", "url2": "warabien-care.jp" }, "geometry": { "type": "Point", "coordinates": [ 131.025852100000066, 30.7376235 ] } },
{ "type": "Feature", "properties": { "内容": "介護老人保健施設　絆【短期入所療養介護（介護老人保健施設）】田神3536番地1", "url": "https://www.kaigokensaku.mhlw.go.jp/46/index.php?action_kouhyou_detail_004_kani=true&JigyosyoCd=4651480024-00&ServiceCd=220&Type=search", "url2": "http://www.kouaikai.or.jp/" }, "geometry": { "type": "Point", "coordinates": [ 130.698536600000011, 31.4970003 ] } },
{ "type": "Feature", "properties": { "内容": "垂水市立介護老人保健施設コスモス苑【短期入所療養介護（介護老人保健施設）】鹿児島県垂水市錦江町1-140", "url": "https://www.kaigokensaku.mhlw.go.jp/46/index.php?action_kouhyou_detail_004_kani=true&JigyosyoCd=4651480016-00&ServiceCd=220&Type=search", "url2": "http://www.cosmos-en.jp/" }, "geometry": { "type": "Point", "coordinates": [ 130.693320968647726, 31.490754868969574 ] } },
{ "type": "Feature", "properties": { "内容": "介護老人保健施設　グラン・ベリテひわき【短期入所療養介護（介護老人保健施設）】鹿児島県薩摩川内市樋脇町市比野2995番地", "url": "https://www.kaigokensaku.mhlw.go.jp/46/index.php?action_kouhyou_detail_004_kani=true&JigyosyoCd=4652580038-00&ServiceCd=220&Type=search", "url2": "https://www.takushokai.com/" }, "geometry": { "type": "Point", "coordinates": [ 130.4023335, 31.7863976 ] } },
{ "type": "Feature", "properties": { "内容": "介護老人保健施設　グリーンライフ川内【短期入所療養介護（介護老人保健施設）】鹿児島県薩摩川内市宮内町磯田２６３３番", "url": "https://www.kaigokensaku.mhlw.go.jp/46/index.php?action_kouhyou_detail_004_kani=true&JigyosyoCd=4650280037-00&ServiceCd=220&Type=search", "url2": "http://enokai.jp/" }, "geometry": { "type": "Point", "coordinates": [ 130.291576, 31.830598 ] } },
{ "type": "Feature", "properties": { "内容": "介護老人保健施設　あじさい苑【短期入所療養介護（介護老人保健施設）】鹿児島県薩摩川内市横馬場町８番１１号", "url": "https://www.kaigokensaku.mhlw.go.jp/46/index.php?action_kouhyou_detail_004_kani=true&JigyosyoCd=4650280011-00&ServiceCd=220&Type=search", "url2": "http://ajisaien-kagoshima.com" }, "geometry": { "type": "Point", "coordinates": [ 130.310393800000043, 31.8172281 ] } },
{ "type": "Feature", "properties": { "内容": "介護老人保健施設グレースホーム【短期入所療養介護（介護老人保健施設）】東郷町斧渕８９２０", "url": "https://www.kaigokensaku.mhlw.go.jp/46/index.php?action_kouhyou_detail_004_kani=true&JigyosyoCd=4652580046-00&ServiceCd=220&Type=search", "url2": "http://www.kamimura-hp.com" }, "geometry": { "type": "Point", "coordinates": [ 130.3332031, 31.874797 ] } },
{ "type": "Feature", "properties": { "内容": "長生園ナーシングセンター【短期入所療養介護（介護老人保健施設）】鹿児島県薩摩川内市大小路町51番3号", "url": "https://www.kaigokensaku.mhlw.go.jp/46/index.php?action_kouhyou_detail_004_kani=true&JigyosyoCd=4650280029-00&ServiceCd=220&Type=search", "url2": "http://www.doujunkai.or.jp" }, "geometry": { "type": "Point", "coordinates": [ 130.303533099999981, 31.8235162 ] } },
{ "type": "Feature", "properties": { "内容": "シルバーセンター光の里【短期入所療養介護（介護老人保健施設）】鹿児島県日置市伊集院町妙円寺1丁目1番地6", "url": "https://www.kaigokensaku.mhlw.go.jp/46/index.php?action_kouhyou_detail_004_kani=true&JigyosyoCd=4652480015-00&ServiceCd=220&Type=search", "url2": "http://ｗｗｗ．ｓｅｉｓｈｉｎ-ｋａｉ．ｏｒｇ" }, "geometry": { "type": "Point", "coordinates": [ 130.395244061102346, 31.641267744776179 ] } },
{ "type": "Feature", "properties": { "内容": "湯の浦ナーシングホーム【短期入所療養介護（介護老人保健施設）】吹上町湯之浦1353", "url": "https://www.kaigokensaku.mhlw.go.jp/46/index.php?action_kouhyou_detail_004_kani=true&JigyosyoCd=4652480023-00&ServiceCd=220&Type=search", "url2": null }, "geometry": { "type": "Point", "coordinates": [ 130.358884100000012, 31.5035929 ] } },
{ "type": "Feature", "properties": { "内容": "介護老人保健施設　アンダンテ伊集院【短期入所療養介護（介護老人保健施設）】鹿児島県日置市伊集院町妙円寺3-1303-10", "url": "https://www.kaigokensaku.mhlw.go.jp/46/index.php?action_kouhyou_detail_004_kani=true&JigyosyoCd=4652480031-00&ServiceCd=220&Type=search", "url2": "http://kenseikai.biz" }, "geometry": { "type": "Point", "coordinates": [ 130.401468600000044, 31.6464072 ] } },
{ "type": "Feature", "properties": { "内容": "高原ナーシングホーム【短期入所療養介護（介護老人保健施設）】曽於市末吉町栄町二丁目11番地1", "url": "https://www.kaigokensaku.mhlw.go.jp/46/index.php?action_kouhyou_detail_004_kani=true&JigyosyoCd=4652980014-00&ServiceCd=220&Type=search", "url2": "http://www.takahara-net.or.jp" }, "geometry": { "type": "Point", "coordinates": [ 131.017973899999987, 31.6570457 ] } },
{ "type": "Feature", "properties": { "内容": "ケアセンターやごろう苑【短期入所療養介護（介護老人保健施設）】曽於市大隅町岩川5515番地", "url": "https://www.kaigokensaku.mhlw.go.jp/46/index.php?action_kouhyou_detail_004_kani=true&JigyosyoCd=4652980022-00&ServiceCd=220&Type=search", "url2": "https://aisei-kai.com/yagorouen/" }, "geometry": { "type": "Point", "coordinates": [ 130.987417706745873, 31.595860607668165 ] } },
{ "type": "Feature", "properties": { "内容": "介護老人保健施設きりしま【短期入所療養介護（介護老人保健施設）】鹿児島県霧島市霧島田口2115番地1", "url": "https://www.kaigokensaku.mhlw.go.jp/46/index.php?action_kouhyou_detail_004_kani=true&JigyosyoCd=4652880073-00&ServiceCd=220&Type=search", "url2": "https://www.kouseikai.info/" }, "geometry": { "type": "Point", "coordinates": [ 130.855155400000058, 31.8487513 ] } },
{ "type": "Feature", "properties": { "内容": "介護老人保健施設　希望の里【短期入所療養介護（介護老人保健施設）】霧島市隼人町姫城二丁目157番地", "url": "https://www.kaigokensaku.mhlw.go.jp/46/index.php?action_kouhyou_detail_004_kani=true&JigyosyoCd=4652880016-00&ServiceCd=220&Type=search", "url2": "http://hayato-spa.hospi.jp/" }, "geometry": { "type": "Point", "coordinates": [ 130.757654699999989, 31.7657049 ] } },
{ "type": "Feature", "properties": { "内容": "介護老人保健施設アメニティ国分【短期入所療養介護（介護老人保健施設）】霧島市国分重久３６１－１", "url": "https://www.kaigokensaku.mhlw.go.jp/46/index.php?action_kouhyou_detail_004_kani=true&JigyosyoCd=4651280010-00&ServiceCd=220&Type=search", "url2": "https://syunseikai.or.jp" }, "geometry": { "type": "Point", "coordinates": [ 130.778378299999986, 31.7676187 ] } },
{ "type": "Feature", "properties": { "内容": "介護老人保健施設　ライフハーバーいちき【短期入所療養介護（介護老人保健施設）】大里2901番地2", "url": "https://www.kaigokensaku.mhlw.go.jp/46/index.php?action_kouhyou_detail_004_kani=true&JigyosyoCd=4652480056-00&ServiceCd=220&Type=search", "url2": "http://www.maruta.or.jp/" }, "geometry": { "type": "Point", "coordinates": [ 130.3015246, 31.6662087 ] } },
{ "type": "Feature", "properties": { "内容": "介護老人保健施設さるびあ苑【短期入所療養介護（介護老人保健施設）】春日町６３番地", "url": "https://www.kaigokensaku.mhlw.go.jp/46/index.php?action_kouhyou_detail_004_kani=true&JigyosyoCd=4650580014-00&ServiceCd=220&Type=search", "url2": "https://jiseikai-kushikino.jp/" }, "geometry": { "type": "Point", "coordinates": [ 130.268176199999971, 31.7201494 ] } },
{ "type": "Feature", "properties": { "内容": "老人保健施設　ラポール吉井【短期入所療養介護（介護老人保健施設）】南さつま市加世田村原1丁目10-10", "url": "https://www.kaigokensaku.mhlw.go.jp/46/index.php?action_kouhyou_detail_004_kani=true&JigyosyoCd=4651180012-00&ServiceCd=220&Type=search", "url2": "http://www.nonohanakai.or.jp" }, "geometry": { "type": "Point", "coordinates": [ 130.326004099999977, 31.4227418 ] } },
{ "type": "Feature", "properties": { "内容": "介護老人保健施設　ありあけ苑【短期入所療養介護（介護老人保健施設）】志布志市有明町野井倉8288-1", "url": "https://www.kaigokensaku.mhlw.go.jp/46/index.php?action_kouhyou_detail_004_kani=true&JigyosyoCd=4652980055-00&ServiceCd=220&Type=search", "url2": "http://www.btvm.ne.jp/~r-ariake/" }, "geometry": { "type": "Point", "coordinates": [ 131.066721, 31.455654 ] } },
{ "type": "Feature", "properties": { "内容": "介護老人保健施設ありあけ苑（ユニット）【短期入所療養介護（介護老人保健施設）】鹿児島県志布志市有明町野井倉8288番地1", "url": "https://www.kaigokensaku.mhlw.go.jp/46/index.php?action_kouhyou_detail_004_kani=true&JigyosyoCd=4651780019-00&ServiceCd=220&Type=search", "url2": "http://www.btvm.ne.jp/~r-ariake/" }, "geometry": { "type": "Point", "coordinates": [ 131.066221, 31.4558735 ] } },
{ "type": "Feature", "properties": { "内容": "介護老人保健施設つわぶき【短期入所療養介護（介護老人保健施設）】鹿児島県志布志市志布志町志布志１丁目１３番３号", "url": "https://www.kaigokensaku.mhlw.go.jp/46/index.php?action_kouhyou_detail_004_kani=true&JigyosyoCd=4652980030-00&ServiceCd=220&Type=search", "url2": "http://www.sayuukai.or.jp" }, "geometry": { "type": "Point", "coordinates": [ 131.103263500000025, 31.4767082 ] } },
{ "type": "Feature", "properties": { "内容": "介護老人保健施設　アマンデー【短期入所療養介護（介護老人保健施設）】鹿児島県奄美市笠利町節田1451-1", "url": "https://www.kaigokensaku.mhlw.go.jp/46/index.php?action_kouhyou_detail_004_kani=true&JigyosyoCd=4653280067-00&ServiceCd=220&Type=search", "url2": "https://amande.synapse.kagoshima.jp" }, "geometry": { "type": "Point", "coordinates": [ 129.679199899999986, 28.413316119246343 ] } },
{ "type": "Feature", "properties": { "内容": "介護老人保健施設虹の丘【短期入所療養介護（介護老人保健施設）】鹿児島県奄美名瀬小宿字苗代田３４１６番１", "url": "https://www.kaigokensaku.mhlw.go.jp/46/index.php?action_kouhyou_detail_004_kani=true&JigyosyoCd=4650780010-00&ServiceCd=220&Type=search", "url2": "http://www4.synapse.ne.jp/nijinooka/" }, "geometry": { "type": "Point", "coordinates": [ 129.4662955, 28.396098 ] } },
{ "type": "Feature", "properties": { "内容": "老人保健施設　かわなべ寿光苑【短期入所療養介護（介護老人保健施設）】南九州市川辺町田部田4848-4", "url": "https://www.kaigokensaku.mhlw.go.jp/46/index.php?action_kouhyou_detail_004_kani=true&JigyosyoCd=4652380017-00&ServiceCd=220&Type=search", "url2": "https://kikunokai.jp/related-facilities/kawanabe-jukouen/" }, "geometry": { "type": "Point", "coordinates": [ 130.389656100000025, 31.3868176 ] } },
{ "type": "Feature", "properties": { "内容": "シルバーライフちらん【短期入所療養介護（介護老人保健施設）】鹿児島県南九州市知覧町塩屋１６０１６番地", "url": "https://www.kaigokensaku.mhlw.go.jp/46/index.php?action_kouhyou_detail_004_kani=true&JigyosyoCd=4652380033-00&ServiceCd=220&Type=search", "url2": "http://www.roken-chiran.or.jp" }, "geometry": { "type": "Point", "coordinates": [ 130.38199910000003, 31.2893897 ] } },
{ "type": "Feature", "properties": { "内容": "はやひと【短期入所療養介護（介護老人保健施設）】伊佐市大口青木3022番地33", "url": "https://www.kaigokensaku.mhlw.go.jp/46/index.php?action_kouhyou_detail_004_kani=true&JigyosyoCd=4650980016-00&ServiceCd=220&Type=search", "url2": "http://www.hayahito.com" }, "geometry": { "type": "Point", "coordinates": [ 130.6338568, 32.0567534 ] } },
{ "type": "Feature", "properties": { "内容": "シルバータウン加治木【短期入所療養介護（介護老人保健施設）】鹿児島県姶良市加治木町木田4719-1", "url": "https://www.kaigokensaku.mhlw.go.jp/46/index.php?action_kouhyou_detail_004_kani=true&JigyosyoCd=4652880032-00&ServiceCd=220&Type=search", "url2": "http://kajiki-shokikai.jp/silver-t-k" }, "geometry": { "type": "Point", "coordinates": [ 130.662817944302333, 31.750608120721999 ] } },
{ "type": "Feature", "properties": { "内容": "介護老人保健施設　ろうけん大楠【短期入所療養介護（介護老人保健施設）】鹿児島県姶良市蒲生町下久徳１２４９番地１", "url": "https://www.kaigokensaku.mhlw.go.jp/46/index.php?action_kouhyou_detail_004_kani=true&JigyosyoCd=4652880081-00&ServiceCd=220&Type=search", "url2": null }, "geometry": { "type": "Point", "coordinates": [ 130.5954931, 31.7509729 ] } },
{ "type": "Feature", "properties": { "内容": "介護老人保健施設　青雲荘【短期入所療養介護（介護老人保健施設）】姶良市西餅田3024-1", "url": "https://www.kaigokensaku.mhlw.go.jp/46/index.php?action_kouhyou_detail_004_kani=true&JigyosyoCd=4652880099-00&ServiceCd=220&Type=search", "url2": "http://www.seiunkaibyouin.jp/seiun_sou/index.html" }, "geometry": { "type": "Point", "coordinates": [ 130.613400899999988, 31.7215178 ] } },
{ "type": "Feature", "properties": { "内容": "ろうけん姶良【短期入所療養介護（介護老人保健施設）】鹿児島県姶良市平松5062番地", "url": "https://www.kaigokensaku.mhlw.go.jp/46/index.php?action_kouhyou_detail_004_kani=true&JigyosyoCd=4652880065-00&ServiceCd=220&Type=search", "url2": "http://www.minc.ne.jp/kibou/roukenaira" }, "geometry": { "type": "Point", "coordinates": [ 130.59741669999994, 31.7124431 ] } },
{ "type": "Feature", "properties": { "内容": "パラディーノ　ほたるの里【短期入所療養介護（介護老人保健施設）】鹿児島県薩摩郡さつま町柏原493-5", "url": "https://www.kaigokensaku.mhlw.go.jp/46/index.php?action_kouhyou_detail_004_kani=true&JigyosyoCd=4652580020-00&ServiceCd=220&Type=search", "url2": null }, "geometry": { "type": "Point", "coordinates": [ 130.457508700000062, 31.9314979 ] } },
{ "type": "Feature", "properties": { "内容": "介護老人保健施設クオリエ【短期入所療養介護（介護老人保健施設）】薩摩郡さつま町船木2311番地8", "url": "https://www.kaigokensaku.mhlw.go.jp/46/index.php?action_kouhyou_detail_004_kani=true&JigyosyoCd=4652580012-00&ServiceCd=220&Type=search", "url2": "https://www.qoler.jp/qualie/" }, "geometry": { "type": "Point", "coordinates": [ 130.440254099999947, 31.8730211 ] } },
{ "type": "Feature", "properties": { "内容": "介護老人保健施設　サンセリテのがた【短期入所療養介護（介護老人保健施設）】鹿児島県曽於郡大崎町野方6047番地3", "url": "https://www.kaigokensaku.mhlw.go.jp/46/index.php?action_kouhyou_detail_004_kani=true&JigyosyoCd=4652980048-00&ServiceCd=220&Type=search", "url2": "http:/www.reishinkai.or.jp/" }, "geometry": { "type": "Point", "coordinates": [ 130.948625, 31.5108892 ] } },
{ "type": "Feature", "properties": { "内容": "肝属郡医師会立介護老人保健施設みなみかぜ【短期入所療養介護（介護老人保健施設）】鹿児島県肝属郡錦江町神川88-1", "url": "https://www.kaigokensaku.mhlw.go.jp/46/index.php?action_kouhyou_detail_004_kani=true&JigyosyoCd=4653080038-00&ServiceCd=220&Type=search", "url2": "https://k-minamikaze.jp" }, "geometry": { "type": "Point", "coordinates": [ 130.7916831, 31.259772800000011 ] } },
{ "type": "Feature", "properties": { "内容": "介護老人保健施設　老春苑【短期入所療養介護（介護老人保健施設）】鹿児島県肝属郡肝付町新富525番地", "url": "https://www.kaigokensaku.mhlw.go.jp/46/index.php?action_kouhyou_detail_004_kani=true&JigyosyoCd=4653080012-00&ServiceCd=220&Type=search", "url2": null }, "geometry": { "type": "Point", "coordinates": [ 130.9470781, 31.3518693 ] } },
{ "type": "Feature", "properties": { "内容": "介護老人保健施設　せとうち【短期入所療養介護（介護老人保健施設）】鹿児島県大島郡瀬戸内町阿木名1975介護老人保健施設　せとうち", "url": "https://www.kaigokensaku.mhlw.go.jp/46/index.php?action_kouhyou_detail_004_kani=true&JigyosyoCd=4653280042-00&ServiceCd=220&Type=search", "url2": null }, "geometry": { "type": "Point", "coordinates": [ 129.3357277, 28.1705905 ] } },
{ "type": "Feature", "properties": { "内容": "介護老人保健施設　秋名の郷【短期入所療養介護（介護老人保健施設）】鹿児島県大島郡龍郷町幾里字濱崎179番地", "url": "https://www.kaigokensaku.mhlw.go.jp/46/index.php?action_kouhyou_detail_004_kani=true&JigyosyoCd=4658880010-00&ServiceCd=220&Type=search", "url2": "http://tokushukai-amami-area.com/pg43.html" }, "geometry": { "type": "Point", "coordinates": [ 129.562240985072322, 28.448854949775846 ] } },
{ "type": "Feature", "properties": { "内容": "医療法人徳洲会介護老人保健施設愛心園【短期入所療養介護（介護老人保健施設）】瀬滝３９８番地", "url": "https://www.kaigokensaku.mhlw.go.jp/46/index.php?action_kouhyou_detail_004_kani=true&JigyosyoCd=4653280026-00&ServiceCd=220&Type=search", "url2": "aisinen@voice.ocn.ne.jp" }, "geometry": { "type": "Point", "coordinates": [ 128.913476800000012, 27.775862 ] } },
{ "type": "Feature", "properties": { "内容": "おきのえらぶじゅけいえん【短期入所療養介護（介護老人保健施設）】和泊９５－１", "url": "https://www.kaigokensaku.mhlw.go.jp/46/index.php?action_kouhyou_detail_004_kani=true&JigyosyoCd=4653280018-00&ServiceCd=220&Type=search", "url2": null }, "geometry": { "type": "Point", "coordinates": [ 128.65301420000003, 27.3883096 ] } },
{ "type": "Feature", "properties": { "内容": "介護老人保健施設　風花苑【短期入所療養介護（介護老人保健施設）】鹿児島県大島郡与論町大字麦屋字風花1305番5", "url": "https://www.kaigokensaku.mhlw.go.jp/46/index.php?action_kouhyou_detail_004_kani=true&JigyosyoCd=4653280059-00&ServiceCd=220&Type=search", "url2": "http://www.kazahanaen.com" }, "geometry": { "type": "Point", "coordinates": [ 128.444154108950784, 27.020019518919423 ] } }
]
}
