{
"type": "FeatureCollection",
"name": "geo_46_看護小規模多機能型居宅介護（複合型サービス）",
"crs": { "type": "name", "properties": { "name": "urn:ogc:def:crs:OGC:1.3:CRS84" } },
"features": [
{ "type": "Feature", "properties": { "内容": "看護小規模多機能型居宅介護ホームサンテラス２【看護小規模多機能型居宅介護（複合型サービス）】真砂本町３－３３", "url": "https://www.kaigokensaku.mhlw.go.jp/46/index.php?action_kouhyou_detail_004_kani=true&JigyosyoCd=4690101904-00&ServiceCd=&Type=search", "url2": null }, "geometry": { "type": "Point", "coordinates": [ 130.550489700000071, 31.5574966 ] } },
{ "type": "Feature", "properties": { "内容": "看護小規模多機能居宅介護　星の街【看護小規模多機能型居宅介護（複合型サービス）】鹿児島市堀江町6番3号（2階）", "url": "https://www.kaigokensaku.mhlw.go.jp/46/index.php?action_kouhyou_detail_004_kani=true&JigyosyoCd=4690100955-00&ServiceCd=&Type=search", "url2": "hosinomati@siawasenomori.com" }, "geometry": { "type": "Point", "coordinates": [ 130.5600935, 31.5899155 ] } },
{ "type": "Feature", "properties": { "内容": "キラメキテラス看護小規模多機能型居宅介護　麗【看護小規模多機能型居宅介護（複合型サービス）】高麗町22-16", "url": "https://www.kaigokensaku.mhlw.go.jp/46/index.php?action_kouhyou_detail_004_kani=true&JigyosyoCd=4690102480-00&ServiceCd=&Type=search", "url2": "http://siawasenomori.com/about/cat4238/rei.html" }, "geometry": { "type": "Point", "coordinates": [ 130.5509171, 31.5803977 ] } },
{ "type": "Feature", "properties": { "内容": "看護小規模多機能型居宅介護事業所みなみ風【看護小規模多機能型居宅介護（複合型サービス）】鹿児島県鹿児島市下竜尾町10－3　2F", "url": "https://www.kaigokensaku.mhlw.go.jp/46/index.php?action_kouhyou_detail_004_kani=true&JigyosyoCd=4690102035-00&ServiceCd=&Type=search", "url2": "http://www.nanpuh.or.jp" }, "geometry": { "type": "Point", "coordinates": [ 130.560459700000024, 31.604149065906828 ] } },
{ "type": "Feature", "properties": { "内容": "看護小規模多機能ついまでおつとめのあるホーム【看護小規模多機能型居宅介護（複合型サービス）】鹿児島県鹿児島市吉野2丁目38－13", "url": "https://www.kaigokensaku.mhlw.go.jp/46/index.php?action_kouhyou_detail_004_kani=true&JigyosyoCd=4690101946-00&ServiceCd=&Type=search", "url2": "https://muginome-fukushi.com/" }, "geometry": { "type": "Point", "coordinates": [ 130.5674057, 31.6585055 ] } },
{ "type": "Feature", "properties": { "内容": "看護小規模多機能事業所フォーピース紫原【看護小規模多機能型居宅介護（複合型サービス）】鹿児島県鹿児島市紫原7丁目18-29", "url": "https://www.kaigokensaku.mhlw.go.jp/46/index.php?action_kouhyou_detail_004_kani=true&JigyosyoCd=4690101656-00&ServiceCd=&Type=search", "url2": "http://kantaki4p.jp/" }, "geometry": { "type": "Point", "coordinates": [ 130.524999200000025, 31.5673672 ] } },
{ "type": "Feature", "properties": { "内容": "看護小規模多機能型居宅介護事業所みま森【看護小規模多機能型居宅介護（複合型サービス）】鹿児島市鴨池1丁目64番6号みらいの森2F", "url": "https://www.kaigokensaku.mhlw.go.jp/46/index.php?action_kouhyou_detail_004_kani=true&JigyosyoCd=4690103082-00&ServiceCd=&Type=search", "url2": "https://setsueikai.com/kamoikemirainomori/" }, "geometry": { "type": "Point", "coordinates": [ 130.545849024467429, 31.565224529275561 ] } },
{ "type": "Feature", "properties": { "内容": "看護小規模多機能ホーム和心【看護小規模多機能型居宅介護（複合型サービス）】中山町1470-1", "url": "https://www.kaigokensaku.mhlw.go.jp/46/index.php?action_kouhyou_detail_004_kani=true&JigyosyoCd=4690102415-00&ServiceCd=&Type=search", "url2": null }, "geometry": { "type": "Point", "coordinates": [ 130.502067930346641, 31.5424633925766 ] } },
{ "type": "Feature", "properties": { "内容": "看護小規模多機能ホーム和だち【看護小規模多機能型居宅介護（複合型サービス）】鹿児島県鹿児島市東谷山6丁目35-4", "url": "https://www.kaigokensaku.mhlw.go.jp/46/index.php?action_kouhyou_detail_004_kani=true&JigyosyoCd=4690103074-00&ServiceCd=&Type=search", "url2": null }, "geometry": { "type": "Point", "coordinates": [ 130.5185799, 31.5372723 ] } },
{ "type": "Feature", "properties": { "内容": "ナカノ看護小規模多機能型居宅介護事業所【看護小規模多機能型居宅介護（複合型サービス）】鹿児島県鹿児島市伊敷3丁目14番8号ケアタウン・ナカノ", "url": "https://www.kaigokensaku.mhlw.go.jp/46/index.php?action_kouhyou_detail_004_kani=true&JigyosyoCd=4690101102-00&ServiceCd=&Type=search", "url2": "http://nakanozaitaku.jp" }, "geometry": { "type": "Point", "coordinates": [ 130.530105400000025, 31.6235894 ] } },
{ "type": "Feature", "properties": { "内容": "かんたきウェルカム【看護小規模多機能型居宅介護（複合型サービス）】鹿児島県鹿児島市西伊敷1丁目29-5", "url": "https://www.kaigokensaku.mhlw.go.jp/46/index.php?action_kouhyou_detail_004_kani=true&JigyosyoCd=4690103231-00&ServiceCd=&Type=search", "url2": "https://welcome-kagoshima.com/" }, "geometry": { "type": "Point", "coordinates": [ 130.528381599999989, 31.631231 ] } },
{ "type": "Feature", "properties": { "内容": "看護小規模多機能型居宅介護ホーム　サンテラス【看護小規模多機能型居宅介護（複合型サービス）】宇宿５丁目３番12号", "url": "https://www.kaigokensaku.mhlw.go.jp/46/index.php?action_kouhyou_detail_004_kani=true&JigyosyoCd=4690101888-00&ServiceCd=&Type=search", "url2": "http://www.tenyoukai.org/santerasu/index.html" }, "geometry": { "type": "Point", "coordinates": [ 130.534352600000034, 31.5447588 ] } },
{ "type": "Feature", "properties": { "内容": "看護小規模多機能型居宅介護まごころ照国【看護小規模多機能型居宅介護（複合型サービス）】鹿児島県鹿児島市照国町７－１７", "url": "https://www.kaigokensaku.mhlw.go.jp/46/index.php?action_kouhyou_detail_004_kani=true&JigyosyoCd=4690101912-00&ServiceCd=&Type=search", "url2": null }, "geometry": { "type": "Point", "coordinates": [ 130.549455200000011, 31.5937009 ] } },
{ "type": "Feature", "properties": { "内容": "看多機ホームきずなの里一倉【看護小規模多機能型居宅介護（複合型サービス）】鹿児島県鹿児島市喜入一倉町５２４３番地", "url": "https://www.kaigokensaku.mhlw.go.jp/46/index.php?action_kouhyou_detail_004_kani=true&JigyosyoCd=4690102688-00&ServiceCd=&Type=search", "url2": null }, "geometry": { "type": "Point", "coordinates": [ 130.5261864, 31.3506691 ] } },
{ "type": "Feature", "properties": { "内容": "看多機ほーむかろん【看護小規模多機能型居宅介護（複合型サービス）】枕崎市桜山町249", "url": "https://www.kaigokensaku.mhlw.go.jp/46/index.php?action_kouhyou_detail_004_kani=true&JigyosyoCd=4690400074-00&ServiceCd=&Type=search", "url2": null }, "geometry": { "type": "Point", "coordinates": [ 130.291914825452523, 31.290801351763474 ] } },
{ "type": "Feature", "properties": { "内容": "看護小規模多機能型居宅介護　看多機なごみ【看護小規模多機能型居宅介護（複合型サービス）】鹿児島県西之表市西之表6416-9", "url": "https://www.kaigokensaku.mhlw.go.jp/46/index.php?action_kouhyou_detail_004_kani=true&JigyosyoCd=4691300059-00&ServiceCd=&Type=search", "url2": null }, "geometry": { "type": "Point", "coordinates": [ 131.0034058, 30.7413526 ] } },
{ "type": "Feature", "properties": { "内容": "看多機ひなた【看護小規模多機能型居宅介護（複合型サービス）】鹿児島県薩摩川内市永利町962番地4", "url": "https://www.kaigokensaku.mhlw.go.jp/46/index.php?action_kouhyou_detail_004_kani=true&JigyosyoCd=4691500310-00&ServiceCd=&Type=search", "url2": "https://www.of-fujita.jp/" }, "geometry": { "type": "Point", "coordinates": [ 130.335051, 31.8057446 ] } },
{ "type": "Feature", "properties": { "内容": "看護小規模多機能施設懐風舎【看護小規模多機能型居宅介護（複合型サービス）】鹿児島県薩摩川内市田崎町630-16", "url": "https://www.kaigokensaku.mhlw.go.jp/46/index.php?action_kouhyou_detail_004_kani=true&JigyosyoCd=4691500369-00&ServiceCd=&Type=search", "url2": "ichihuku.jp" }, "geometry": { "type": "Point", "coordinates": [ 130.328788800000012, 31.8196648 ] } },
{ "type": "Feature", "properties": { "内容": "ケアプランセンター　集【看護小規模多機能型居宅介護（複合型サービス）】鹿児島県霧島市国分姫城2893番地１", "url": "https://www.kaigokensaku.mhlw.go.jp/46/index.php?action_kouhyou_detail_004_kani=true&JigyosyoCd=4691200572-00&ServiceCd=&Type=search", "url2": null }, "geometry": { "type": "Point", "coordinates": [ 130.767797800000011, 31.7600079 ] } },
{ "type": "Feature", "properties": { "内容": "看護小規模多機能ホーム友輪【看護小規模多機能型居宅介護（複合型サービス）】鹿児島県南さつま市金峰町中津野１２２６－１", "url": "https://www.kaigokensaku.mhlw.go.jp/46/index.php?action_kouhyou_detail_004_kani=true&JigyosyoCd=4691100145-00&ServiceCd=&Type=search", "url2": null }, "geometry": { "type": "Point", "coordinates": [ 130.345956500000057, 31.4486799 ] } },
{ "type": "Feature", "properties": { "内容": "看護小規模多機能ホーム和が家【看護小規模多機能型居宅介護（複合型サービス）】鹿児島県南さつま市金峰町中津野1184番地2", "url": "https://www.kaigokensaku.mhlw.go.jp/46/index.php?action_kouhyou_detail_004_kani=true&JigyosyoCd=4691100137-00&ServiceCd=&Type=search", "url2": null }, "geometry": { "type": "Point", "coordinates": [ 130.34730169325411, 31.448735535768293 ] } },
{ "type": "Feature", "properties": { "内容": "看護小規模多機能ホーム音野舎【看護小規模多機能型居宅介護（複合型サービス）】鹿児島県南九州市知覧町郡2069番地２", "url": "https://www.kaigokensaku.mhlw.go.jp/46/index.php?action_kouhyou_detail_004_kani=true&JigyosyoCd=4694300130-00&ServiceCd=&Type=search", "url2": "http://www.nonnosya.com/" }, "geometry": { "type": "Point", "coordinates": [ 130.4770912, 31.387231 ] } },
{ "type": "Feature", "properties": { "内容": "お福【看護小規模多機能型居宅介護（複合型サービス）】西餅田202番地3", "url": "https://www.kaigokensaku.mhlw.go.jp/46/index.php?action_kouhyou_detail_004_kani=true&JigyosyoCd=4694500283-00&ServiceCd=&Type=search", "url2": "http://siawasenomori.com/about/cat4238/ohuku.html" }, "geometry": { "type": "Point", "coordinates": [ 130.6237174, 31.732317 ] } },
{ "type": "Feature", "properties": { "内容": "看護小規模多機能ホームにしきえ【看護小規模多機能型居宅介護（複合型サービス）】鹿児島県姶良市加治木町木田１１３９", "url": "https://www.kaigokensaku.mhlw.go.jp/46/index.php?action_kouhyou_detail_004_kani=true&JigyosyoCd=4694500150-00&ServiceCd=&Type=search", "url2": "nishikie-sh@joy.ocn.ne.jp" }, "geometry": { "type": "Point", "coordinates": [ 130.650561499999981, 31.730658 ] } },
{ "type": "Feature", "properties": { "内容": "看護小規模多機能ホームぷらす【看護小規模多機能型居宅介護（複合型サービス）】鹿児島県姶良市加治木町木田2764番地1", "url": "https://www.kaigokensaku.mhlw.go.jp/46/index.php?action_kouhyou_detail_004_kani=true&JigyosyoCd=4694500218-00&ServiceCd=&Type=search", "url2": "https://carenet-group.jp/" }, "geometry": { "type": "Point", "coordinates": [ 130.651688692095973, 31.740645004190004 ] } },
{ "type": "Feature", "properties": { "内容": "看護小規模多機能ホーム　南の太陽【看護小規模多機能型居宅介護（複合型サービス）】鹿児島県肝属郡東串良町池之原2761-2", "url": "https://www.kaigokensaku.mhlw.go.jp/46/index.php?action_kouhyou_detail_004_kani=true&JigyosyoCd=4697200048-00&ServiceCd=&Type=search", "url2": "https://www.minaminotaiyo.co.jp" }, "geometry": { "type": "Point", "coordinates": [ 130.969341832748484, 31.398225319103361 ] } },
{ "type": "Feature", "properties": { "内容": "株式会社　宝樹【看護小規模多機能型居宅介護（複合型サービス）】鹿児島県肝属郡錦江町馬場1187-1", "url": "https://www.kaigokensaku.mhlw.go.jp/46/index.php?action_kouhyou_detail_004_kani=true&JigyosyoCd=4697600015-00&ServiceCd=&Type=search", "url2": null }, "geometry": { "type": "Point", "coordinates": [ 130.774089300000014, 31.236682600000041 ] } },
{ "type": "Feature", "properties": { "内容": "看護小規模多機能ホーム　南の花【看護小規模多機能型居宅介護（複合型サービス）】鹿児島県肝属郡肝付町後田１８２０番地４", "url": "https://www.kaigokensaku.mhlw.go.jp/46/index.php?action_kouhyou_detail_004_kani=true&JigyosyoCd=4697400010-00&ServiceCd=&Type=search", "url2": null }, "geometry": { "type": "Point", "coordinates": [ 130.9469325, 31.3186787 ] } }
]
}
