{
"type": "FeatureCollection",
"name": "geo_46_各種学校",
"crs": { "type": "name", "properties": { "name": "urn:ogc:def:crs:EPSG::6668" } },
"features": [
{ "type": "Feature", "properties": { "P29_001": "46492", "P29_002": "H246210000011", "P29_003": "16015", "P29_004": "肝付町立高山准看護学校", "P29_005": "鹿児島県肝属郡肝付町前田1072-1", "P29_006": "3", "P29_007": "0", "P29_008": "00", "P29_009": null }, "geometry": { "type": "Point", "coordinates": [ 130.944609746409583, 31.349346587160362 ] } },
{ "type": "Feature", "properties": { "P29_001": "46208", "P29_002": "H246310000019", "P29_003": "16015", "P29_004": "出水郡医師会准看護学校", "P29_005": "鹿児島県出水市昭和町18-18", "P29_006": "4", "P29_007": "0", "P29_008": "00", "P29_009": null }, "geometry": { "type": "Point", "coordinates": [ 130.351867262149256, 32.088296190017104 ] } },
{ "type": "Feature", "properties": { "P29_001": "46535", "P29_002": "H246310000037", "P29_003": "16015", "P29_004": "三洲高等経理学校", "P29_005": "鹿児島県大島郡与論町麦屋2878", "P29_006": "4", "P29_007": "0", "P29_008": "00", "P29_009": null }, "geometry": { "type": "Point", "coordinates": [ 128.438373484542353, 27.031085495204174 ] } }
]
}
