{
"type": "FeatureCollection",
"name": "geo_46_訪問リハビリテーション",
"crs": { "type": "name", "properties": { "name": "urn:ogc:def:crs:OGC:1.3:CRS84" } },
"features": [
{ "type": "Feature", "properties": { "内容": "仁愛会病院　訪問リハビリテーション【訪問リハビリテーション】鹿児島市南栄5丁目10-19仁愛会病院内", "url": "https://www.kaigokensaku.mhlw.go.jp/46/index.php?action_kouhyou_detail_004_kani=true&JigyosyoCd=4610126312-00&ServiceCd=140&Type=search", "url2": "http://www.jinaikai.com" }, "geometry": { "type": "Point", "coordinates": [ 130.518049799999972, 31.5069594 ] } },
{ "type": "Feature", "properties": { "内容": "丸山整形外科【訪問リハビリテーション】鹿児島県鹿児島市郡山町505番地3", "url": "https://www.kaigokensaku.mhlw.go.jp/46/index.php?action_kouhyou_detail_004_kani=true&JigyosyoCd=4610123608-00&ServiceCd=140&Type=search", "url2": "https://maruyamaseikeigeka.jp" }, "geometry": { "type": "Point", "coordinates": [ 130.47579339999993, 31.6710307 ] } },
{ "type": "Feature", "properties": { "内容": "萩原整形外科【訪問リハビリテーション】西谷山2丁目7番38号", "url": "https://www.kaigokensaku.mhlw.go.jp/46/index.php?action_kouhyou_detail_004_kani=true&JigyosyoCd=4610125090-00&ServiceCd=140&Type=search", "url2": null }, "geometry": { "type": "Point", "coordinates": [ 130.5060257, 31.5209664 ] } },
{ "type": "Feature", "properties": { "内容": "八反丸リハビリテーション病院訪問リハビリテーション事業所【訪問リハビリテーション】鹿児島県鹿児島市下竜尾町3番28号", "url": "https://www.kaigokensaku.mhlw.go.jp/46/index.php?action_kouhyou_detail_004_kani=true&JigyosyoCd=4610112304-00&ServiceCd=140&Type=search", "url2": "http://www.hattanmaru.jp/" }, "geometry": { "type": "Point", "coordinates": [ 130.560471105557212, 31.60323182156068 ] } },
{ "type": "Feature", "properties": { "内容": "南鹿児島さくら病院訪問リハビリテーション【訪問リハビリテーション】南郡元町24-15", "url": "https://www.kaigokensaku.mhlw.go.jp/46/index.php?action_kouhyou_detail_004_kani=true&JigyosyoCd=4610125595-00&ServiceCd=140&Type=search", "url2": "http://www.nissyoukai.or.jp/" }, "geometry": { "type": "Point", "coordinates": [ 130.54415419999998, 31.5524303 ] } },
{ "type": "Feature", "properties": { "内容": "中江病院【訪問リハビリテーション】西千石町4-13", "url": "https://www.kaigokensaku.mhlw.go.jp/46/index.php?action_kouhyou_detail_004_kani=true&JigyosyoCd=4610111058-00&ServiceCd=140&Type=search", "url2": "https://nakae-hp.jp/" }, "geometry": { "type": "Point", "coordinates": [ 130.5464644, 31.5888073 ] } },
{ "type": "Feature", "properties": { "内容": "健翔会病院【訪問リハビリテーション】鹿児島県鹿児島市東郡元町5番10号", "url": "https://www.kaigokensaku.mhlw.go.jp/46/index.php?action_kouhyou_detail_004_kani=true&JigyosyoCd=4610125934-00&ServiceCd=140&Type=search", "url2": "https://www.kensho-kai.or.jp" }, "geometry": { "type": "Point", "coordinates": [ 130.549734, 31.554866 ] } },
{ "type": "Feature", "properties": { "内容": "きいれ浜田クリニック【訪問リハビリテーション】鹿児島県鹿児島市喜入町6988-1", "url": "https://www.kaigokensaku.mhlw.go.jp/46/index.php?action_kouhyou_detail_004_kani=true&JigyosyoCd=4610123558-00&ServiceCd=140&Type=search", "url2": "http://hamada-gr.jp" }, "geometry": { "type": "Point", "coordinates": [ 130.540833600000042, 31.3738292 ] } },
{ "type": "Feature", "properties": { "内容": "福祉生活協同組合むぎのめ　ひとむぎ診療所【訪問リハビリテーション】鹿児島県鹿児島市吉野1丁目40番26号", "url": "https://www.kaigokensaku.mhlw.go.jp/46/index.php?action_kouhyou_detail_004_kani=true&JigyosyoCd=4610127518-00&ServiceCd=140&Type=search", "url2": "https://muginome.jp/" }, "geometry": { "type": "Point", "coordinates": [ 130.566221619049088, 31.650558642079822 ] } },
{ "type": "Feature", "properties": { "内容": "医療法人　梅津整形外科医院【訪問リハビリテーション】鹿児島県鹿児島市吉野二丁目１４番１５号", "url": "https://www.kaigokensaku.mhlw.go.jp/46/index.php?action_kouhyou_detail_004_kani=true&JigyosyoCd=4610124424-00&ServiceCd=140&Type=search", "url2": "ｕｍｅｚｕｓｅｉｋｅｉ．ｃｏｍ" }, "geometry": { "type": "Point", "coordinates": [ 130.567259700000022, 31.6567256 ] } },
{ "type": "Feature", "properties": { "内容": "鹿児島県厚生農業協同組合連合会　鹿児島厚生連病院【訪問リハビリテーション】鹿児島県鹿児島市与次郎一丁目13番1号", "url": "https://www.kaigokensaku.mhlw.go.jp/46/index.php?action_kouhyou_detail_004_kani=true&JigyosyoCd=4610127393-00&ServiceCd=140&Type=search", "url2": "https://kago-ksr.or.jp/" }, "geometry": { "type": "Point", "coordinates": [ 130.567097077909835, 31.572056870389758 ] } },
{ "type": "Feature", "properties": { "内容": "医療法人徳洲会　介護老人保健施設　光徳苑【訪問リハビリテーション】谷山中央2-4515", "url": "https://www.kaigokensaku.mhlw.go.jp/46/index.php?action_kouhyou_detail_004_kani=true&JigyosyoCd=4650180195-00&ServiceCd=140&Type=search", "url2": "https://www.tokushukai.or.jp" }, "geometry": { "type": "Point", "coordinates": [ 130.5191335, 31.5228016 ] } },
{ "type": "Feature", "properties": { "内容": "医療法人　木村外科内科　訪問リハビリテーション【訪問リハビリテーション】鹿児島市石谷町2101-7", "url": "https://www.kaigokensaku.mhlw.go.jp/46/index.php?action_kouhyou_detail_004_kani=true&JigyosyoCd=4610123632-00&ServiceCd=140&Type=search", "url2": "kimuragekanaika.com" }, "geometry": { "type": "Point", "coordinates": [ 130.463573499999939, 31.5959421 ] } },
{ "type": "Feature", "properties": { "内容": "五反田内科クリニック【訪問リハビリテーション】鹿児島県鹿児島市薬師2丁目7番62号", "url": "https://www.kaigokensaku.mhlw.go.jp/46/index.php?action_kouhyou_detail_004_kani=true&JigyosyoCd=4610124226-00&ServiceCd=140&Type=search", "url2": "http://tenshokai.or.jp" }, "geometry": { "type": "Point", "coordinates": [ 130.538969800000018, 31.5917313 ] } },
{ "type": "Feature", "properties": { "内容": "千年メディカルクリニック【訪問リハビリテーション】千年二丁目11番14号1階", "url": "https://www.kaigokensaku.mhlw.go.jp/46/index.php?action_kouhyou_detail_004_kani=true&JigyosyoCd=4610126833-00&ServiceCd=140&Type=search", "url2": "http://www.sen-nen.jp/" }, "geometry": { "type": "Point", "coordinates": [ 130.523968355819761, 31.639603789048795 ] } },
{ "type": "Feature", "properties": { "内容": "豊島病院【訪問リハビリテーション】鹿児島市下荒田３丁目２７番１号", "url": "https://www.kaigokensaku.mhlw.go.jp/46/index.php?action_kouhyou_detail_004_kani=true&JigyosyoCd=4610115919-00&ServiceCd=140&Type=search", "url2": "http://www.minc.ne.jp/~keishinkai/" }, "geometry": { "type": "Point", "coordinates": [ 130.552589099999977, 31.5710037 ] } },
{ "type": "Feature", "properties": { "内容": "かめざわ整形外科【訪問リハビリテーション】鹿児島市中山町１２２５－１", "url": "https://www.kaigokensaku.mhlw.go.jp/46/index.php?action_kouhyou_detail_004_kani=true&JigyosyoCd=4610120976-00&ServiceCd=140&Type=search", "url2": null }, "geometry": { "type": "Point", "coordinates": [ 130.502469799999972, 31.5496664 ] } },
{ "type": "Feature", "properties": { "内容": "いづろ今村病院　訪問リハビリテーションウェルネスじあい【訪問リハビリテーション】鹿児島県鹿児島市堀江町17-1", "url": "https://www.kaigokensaku.mhlw.go.jp/46/index.php?action_kouhyou_detail_004_kani=true&JigyosyoCd=4610119739-00&ServiceCd=140&Type=search", "url2": "http://www.jiaikai.or.jp/imamura/medicalhouse.html" }, "geometry": { "type": "Point", "coordinates": [ 130.5599923, 31.5911556 ] } },
{ "type": "Feature", "properties": { "内容": "アクラス中央病院　訪問リハビリテーション【訪問リハビリテーション】鹿児島市武岡1丁目121番5号", "url": "https://www.kaigokensaku.mhlw.go.jp/46/index.php?action_kouhyou_detail_004_kani=true&JigyosyoCd=4610126437-00&ServiceCd=140&Type=search", "url2": "https://acras-hp.com/" }, "geometry": { "type": "Point", "coordinates": [ 130.526715200000012, 31.586265 ] } },
{ "type": "Feature", "properties": { "内容": "医療法人慈風会厚地リハビリテーション病院【訪問リハビリテーション】照国町13-37", "url": "https://www.kaigokensaku.mhlw.go.jp/46/index.php?action_kouhyou_detail_004_kani=true&JigyosyoCd=4610127062-00&ServiceCd=140&Type=search", "url2": "http://www.jifukai.jp" }, "geometry": { "type": "Point", "coordinates": [ 130.551427399999966, 31.5918761 ] } },
{ "type": "Feature", "properties": { "内容": "高麗町クリニック【訪問リハビリテーション】鹿児島市高麗町39番11号慈愛の郷1階", "url": "https://www.kaigokensaku.mhlw.go.jp/46/index.php?action_kouhyou_detail_004_kani=true&JigyosyoCd=4610125256-00&ServiceCd=140&Type=search", "url2": "http://www.jiaikai.or.jp/kagoshima/kouraicho.html" }, "geometry": { "type": "Point", "coordinates": [ 130.550911301852466, 31.578113095643317 ] } },
{ "type": "Feature", "properties": { "内容": "児玉整形外科クリニック　訪問リハビリテーション【訪問リハビリテーション】鹿児島市谷山中央1丁目5002番地", "url": "https://www.kaigokensaku.mhlw.go.jp/46/index.php?action_kouhyou_detail_004_kani=true&JigyosyoCd=4610124986-00&ServiceCd=140&Type=search", "url2": "http://www.kodamaseikeigekaclinic.com" }, "geometry": { "type": "Point", "coordinates": [ 130.515960700000051, 31.5233608 ] } },
{ "type": "Feature", "properties": { "内容": "三船病院【訪問リハビリテーション】鹿児島県鹿児島市吉野町10004番地1三船病院　訪問リハビリテーション室", "url": "https://www.kaigokensaku.mhlw.go.jp/46/index.php?action_kouhyou_detail_004_kani=true&JigyosyoCd=4610110985-00&ServiceCd=140&Type=search", "url2": "http://www.toufuukai.jp" }, "geometry": { "type": "Point", "coordinates": [ 130.600847700000031, 31.6333809 ] } },
{ "type": "Feature", "properties": { "内容": "谷山生協クリニック【訪問リハビリテーション】鹿児島市谷山中央5-21-22", "url": "https://www.kaigokensaku.mhlw.go.jp/46/index.php?action_kouhyou_detail_004_kani=true&JigyosyoCd=4610122675-00&ServiceCd=140&Type=search", "url2": "http://taniyama-seikyo.jp/" }, "geometry": { "type": "Point", "coordinates": [ 130.513761, 31.517333500000028 ] } },
{ "type": "Feature", "properties": { "内容": "医療法人一誠会三宅病院【訪問リハビリテーション】鹿児島県鹿児島市谷山中央7丁目3-1", "url": "https://www.kaigokensaku.mhlw.go.jp/46/index.php?action_kouhyou_detail_004_kani=true&JigyosyoCd=4610116818-00&ServiceCd=140&Type=search", "url2": "http://www.miyake-hp.or.jp/" }, "geometry": { "type": "Point", "coordinates": [ 130.514205299999958, 31.5240246 ] } },
{ "type": "Feature", "properties": { "内容": "医療法人康成会　植村病院【訪問リハビリテーション】鹿児島県鹿児島市草牟田1丁目4番7号", "url": "https://www.kaigokensaku.mhlw.go.jp/46/index.php?action_kouhyou_detail_004_kani=true&JigyosyoCd=4610111199-00&ServiceCd=140&Type=search", "url2": "http://www.koseikai-uemura.jp" }, "geometry": { "type": "Point", "coordinates": [ 130.538961200000017, 31.6020968 ] } },
{ "type": "Feature", "properties": { "内容": "かわもと記念クリニック【訪問リハビリテーション】鹿児島市吉野町５３９７－３", "url": "https://www.kaigokensaku.mhlw.go.jp/46/index.php?action_kouhyou_detail_004_kani=true&JigyosyoCd=4610118491-00&ServiceCd=140&Type=search", "url2": "http://www.kawamoto-cl.or.jp/" }, "geometry": { "type": "Point", "coordinates": [ 130.576037700000029, 31.6440712 ] } },
{ "type": "Feature", "properties": { "内容": "清泉クリニック整形外科内科通所リハビリテーションせいせん【訪問リハビリテーション】鹿児島県鹿児島市住吉町12-16清泉クリニック整形外科内科", "url": "https://www.kaigokensaku.mhlw.go.jp/46/index.php?action_kouhyou_detail_004_kani=true&JigyosyoCd=4610125355-00&ServiceCd=140&Type=search", "url2": "http://seisen.info/kagoshima/daycare" }, "geometry": { "type": "Point", "coordinates": [ 130.561914774545556, 31.5915478091752 ] } },
{ "type": "Feature", "properties": { "内容": "キラメキテラスヘルスケアホスピタル【訪問リハビリテーション】鹿児島県鹿児島市高麗町43番30号", "url": "https://www.kaigokensaku.mhlw.go.jp/46/index.php?action_kouhyou_detail_004_kani=true&JigyosyoCd=4610127906-00&ServiceCd=140&Type=search", "url2": "https://www.kthc-hp.com/" }, "geometry": { "type": "Point", "coordinates": [ 130.552600769519074, 31.577919745277409 ] } },
{ "type": "Feature", "properties": { "内容": "米沢病院【訪問リハビリテーション】鹿児島市新照院町19番8号", "url": "https://www.kaigokensaku.mhlw.go.jp/46/index.php?action_kouhyou_detail_004_kani=true&JigyosyoCd=4610117493-00&ServiceCd=140&Type=search", "url2": "http://www.yonezawa.or.jp/" }, "geometry": { "type": "Point", "coordinates": [ 130.543355600000041, 31.5935674 ] } },
{ "type": "Feature", "properties": { "内容": "医療法人　草清会　いいだクリニック【訪問リハビリテーション】草牟田2丁目17-3", "url": "https://www.kaigokensaku.mhlw.go.jp/46/index.php?action_kouhyou_detail_004_kani=true&JigyosyoCd=4610121438-00&ServiceCd=140&Type=search", "url2": "http://www.iida-cl.com/" }, "geometry": { "type": "Point", "coordinates": [ 130.538538291401665, 31.602954419878682 ] } },
{ "type": "Feature", "properties": { "内容": "共立病院【訪問リハビリテーション】鹿児島県鹿児島市南郡元町11番11号", "url": "https://www.kaigokensaku.mhlw.go.jp/46/index.php?action_kouhyou_detail_004_kani=true&JigyosyoCd=4610112387-00&ServiceCd=140&Type=search", "url2": "https://www.kyoritu-keizan.or.jp" }, "geometry": { "type": "Point", "coordinates": [ 130.5454133, 31.5563386 ] } },
{ "type": "Feature", "properties": { "内容": "上原クリニック訪問リハビリテーション【訪問リハビリテーション】鹿児島県鹿児島市山田町７３番地５", "url": "https://www.kaigokensaku.mhlw.go.jp/46/index.php?action_kouhyou_detail_004_kani=true&JigyosyoCd=4610119267-00&ServiceCd=140&Type=search", "url2": "http://ueharaclinic.jp" }, "geometry": { "type": "Point", "coordinates": [ 130.5035322, 31.553064 ] } },
{ "type": "Feature", "properties": { "内容": "医療法人　緑陽の会　緑ヶ丘クリニック【訪問リハビリテーション】緑ヶ丘町６番１１号", "url": "https://www.kaigokensaku.mhlw.go.jp/46/index.php?action_kouhyou_detail_004_kani=true&JigyosyoCd=4610125397-00&ServiceCd=140&Type=search", "url2": "http：//www.midorigaoka-g.com" }, "geometry": { "type": "Point", "coordinates": [ 130.5467, 31.6567644 ] } },
{ "type": "Feature", "properties": { "内容": "林内科胃腸科病院【訪問リハビリテーション】鹿児島市武２丁目３３番８号", "url": "https://www.kaigokensaku.mhlw.go.jp/46/index.php?action_kouhyou_detail_004_kani=true&JigyosyoCd=4610123178-00&ServiceCd=140&Type=search", "url2": "https://hayashi-hp.or.jp/" }, "geometry": { "type": "Point", "coordinates": [ 130.536401913491773, 31.584916620965437 ] } },
{ "type": "Feature", "properties": { "内容": "大勝病院訪問リハビリテーション【訪問リハビリテーション】鹿児島市真砂本町３－９５", "url": "https://www.kaigokensaku.mhlw.go.jp/46/index.php?action_kouhyou_detail_004_kani=true&JigyosyoCd=4610115513-00&ServiceCd=140&Type=search", "url2": "http://ookatsu.jp/" }, "geometry": { "type": "Point", "coordinates": [ 130.54850090000005, 31.557335499999983 ] } },
{ "type": "Feature", "properties": { "内容": "玉水会病院【訪問リハビリテーション】鹿児島県鹿児島市下伊敷１－１－５", "url": "https://www.kaigokensaku.mhlw.go.jp/46/index.php?action_kouhyou_detail_004_kani=true&JigyosyoCd=4610111157-00&ServiceCd=140&Type=search", "url2": "https://gyokusuikai.jp" }, "geometry": { "type": "Point", "coordinates": [ 130.53485, 31.60881 ] } },
{ "type": "Feature", "properties": { "内容": "鹿児島徳洲会病院【訪問リハビリテーション】鹿児島県鹿児島市南栄5丁目10-51", "url": "https://www.kaigokensaku.mhlw.go.jp/46/index.php?action_kouhyou_detail_004_kani=true&JigyosyoCd=4610128086-00&ServiceCd=140&Type=search", "url2": "https://www.kagotoku.jp" }, "geometry": { "type": "Point", "coordinates": [ 130.5170065, 31.5074785 ] } },
{ "type": "Feature", "properties": { "内容": "沖野循環器科病院【訪問リハビリテーション】鹿児島市西千石町13-30", "url": "https://www.kaigokensaku.mhlw.go.jp/46/index.php?action_kouhyou_detail_004_kani=true&JigyosyoCd=4610121537-00&ServiceCd=140&Type=search", "url2": "http://okino-hp.or.jp/homeservice.html#rehabilitation" }, "geometry": { "type": "Point", "coordinates": [ 130.549274109856469, 31.589548099295637 ] } },
{ "type": "Feature", "properties": { "内容": "鴨池慈風苑【訪問リハビリテーション】鹿児島市東郡元町11番6号", "url": "https://www.kaigokensaku.mhlw.go.jp/46/index.php?action_kouhyou_detail_004_kani=true&JigyosyoCd=4650180062-00&ServiceCd=140&Type=search", "url2": "https://jifuen.jifukai.jp/" }, "geometry": { "type": "Point", "coordinates": [ 130.5497732, 31.554034 ] } },
{ "type": "Feature", "properties": { "内容": "介護老人保健施設　ナーシングホーム田上苑【訪問リハビリテーション】西陵六丁目21番18号", "url": "https://www.kaigokensaku.mhlw.go.jp/46/index.php?action_kouhyou_detail_004_kani=true&JigyosyoCd=4650180138-00&ServiceCd=140&Type=search", "url2": "https://www.tagamien.com/" }, "geometry": { "type": "Point", "coordinates": [ 130.5041845, 31.5818619 ] } },
{ "type": "Feature", "properties": { "内容": "医療法人　腎愛会【訪問リハビリテーション】鹿児島県鹿児島市宇宿3丁目17番6号", "url": "https://www.kaigokensaku.mhlw.go.jp/46/index.php?action_kouhyou_detail_004_kani=true&JigyosyoCd=4670112319-00&ServiceCd=140&Type=search", "url2": "www.jin-ai-kai.or.jp" }, "geometry": { "type": "Point", "coordinates": [ 130.53860229999998, 31.5419008 ] } },
{ "type": "Feature", "properties": { "内容": "ふるたクリニック【訪問リハビリテーション】鹿児島市宇宿９丁目６番５号", "url": "https://www.kaigokensaku.mhlw.go.jp/46/index.php?action_kouhyou_detail_004_kani=true&JigyosyoCd=4610124945-00&ServiceCd=140&Type=search", "url2": "www.amayurikai.or.jp" }, "geometry": { "type": "Point", "coordinates": [ 130.524341700000065, 31.5552825 ] } },
{ "type": "Feature", "properties": { "内容": "きいれセントラルクリニック　訪問リハビリテーション【訪問リハビリテーション】鹿児島県鹿児島市喜入町6074番地１", "url": "https://www.kaigokensaku.mhlw.go.jp/46/index.php?action_kouhyou_detail_004_kani=true&JigyosyoCd=4610126791-00&ServiceCd=140&Type=search", "url2": "http://kiire.jp/" }, "geometry": { "type": "Point", "coordinates": [ 130.5429528, 31.3803583 ] } },
{ "type": "Feature", "properties": { "内容": "老人保健施設サンシャインきいれ　訪問リハビリテーション【訪問リハビリテーション】喜入前之浜町7808番地1老人保健施設サンシャインきいれ", "url": "https://www.kaigokensaku.mhlw.go.jp/46/index.php?action_kouhyou_detail_004_kani=true&JigyosyoCd=4670110750-00&ServiceCd=140&Type=search", "url2": "http://kiire.jp/" }, "geometry": { "type": "Point", "coordinates": [ 130.552994600000034, 31.3508791 ] } },
{ "type": "Feature", "properties": { "内容": "医療法人　有隣会　伊敷病院【訪問リハビリテーション】鹿児島県鹿児島市下伊敷２丁目４番１５号", "url": "https://www.kaigokensaku.mhlw.go.jp/46/index.php?action_kouhyou_detail_004_kani=true&JigyosyoCd=4610114953-00&ServiceCd=140&Type=search", "url2": null }, "geometry": { "type": "Point", "coordinates": [ 130.537108, 31.6142569 ] } },
{ "type": "Feature", "properties": { "内容": "ナカノ在宅医療クリニック【訪問リハビリテーション】鹿児島県鹿児島市伊敷３丁目１４番８号", "url": "https://www.kaigokensaku.mhlw.go.jp/46/index.php?action_kouhyou_detail_004_kani=true&JigyosyoCd=4610127195-00&ServiceCd=140&Type=search", "url2": "http://nakanozaitaku.jp" }, "geometry": { "type": "Point", "coordinates": [ 130.529774003704802, 31.623712055648092 ] } },
{ "type": "Feature", "properties": { "内容": "医療法人健生会　あんびる病院【訪問リハビリテーション】稲荷町12-6", "url": "https://www.kaigokensaku.mhlw.go.jp/46/index.php?action_kouhyou_detail_004_kani=true&JigyosyoCd=4610122949-00&ServiceCd=140&Type=search", "url2": "http://www.anbiru.com" }, "geometry": { "type": "Point", "coordinates": [ 130.5680754, 31.610394 ] } },
{ "type": "Feature", "properties": { "内容": "ろうけん青空　訪問リハビリテーション【訪問リハビリテーション】鹿児島市吉野町6040番地7", "url": "https://www.kaigokensaku.mhlw.go.jp/46/index.php?action_kouhyou_detail_004_kani=true&JigyosyoCd=4650180161-00&ServiceCd=140&Type=search", "url2": "http://www.meikikai.com" }, "geometry": { "type": "Point", "coordinates": [ 130.591561700000057, 31.6507374 ] } },
{ "type": "Feature", "properties": { "内容": "吉田記念病院【訪問リハビリテーション】鹿児島県鹿児島市本名町470番地", "url": "https://www.kaigokensaku.mhlw.go.jp/46/index.php?action_kouhyou_detail_004_kani=true&JigyosyoCd=4610123459-00&ServiceCd=140&Type=search", "url2": "http://www.sekisaikai.jp/" }, "geometry": { "type": "Point", "coordinates": [ 130.5465266, 31.6919139 ] } },
{ "type": "Feature", "properties": { "内容": "うすき整形・外科・内科病院【訪問リハビリテーション】鹿児島県鹿児島市宇宿１丁目３２番１号", "url": "https://www.kaigokensaku.mhlw.go.jp/46/index.php?action_kouhyou_detail_004_kani=true&JigyosyoCd=4610119671-00&ServiceCd=140&Type=search", "url2": "https://usukiseikei.jp" }, "geometry": { "type": "Point", "coordinates": [ 130.541952906745905, 31.546929906953963 ] } },
{ "type": "Feature", "properties": { "内容": "しゃかいいりょうほうじんあいじんかい　うえむらびょういん【訪問リハビリテーション】鹿児島県鹿児島市伊敷２丁目１番２号", "url": "https://www.kaigokensaku.mhlw.go.jp/46/index.php?action_kouhyou_detail_004_kani=true&JigyosyoCd=4610111355-00&ServiceCd=140&Type=search", "url2": "uemura-hospi@po4.synapse.ne.jp" }, "geometry": { "type": "Point", "coordinates": [ 130.5289608, 31.61659 ] } },
{ "type": "Feature", "properties": { "内容": "天陽会中央クリニック【訪問リハビリテーション】鹿児島県鹿児島市泉町16-1", "url": "https://www.kaigokensaku.mhlw.go.jp/46/index.php?action_kouhyou_detail_004_kani=true&JigyosyoCd=4610123046-00&ServiceCd=140&Type=search", "url2": "https://www.tenyoukai.jp/" }, "geometry": { "type": "Point", "coordinates": [ 130.560337497599789, 31.593874449063502 ] } },
{ "type": "Feature", "properties": { "内容": "川島病院訪問リハビリテーション【訪問リハビリテーション】鹿児島市谷山中央一丁目13番5号", "url": "https://www.kaigokensaku.mhlw.go.jp/46/index.php?action_kouhyou_detail_004_kani=true&JigyosyoCd=4610112577-00&ServiceCd=140&Type=search", "url2": "https://www.kawashima-hp.com/" }, "geometry": { "type": "Point", "coordinates": [ 130.519041550654265, 31.525956850986702 ] } },
{ "type": "Feature", "properties": { "内容": "医療法人光風会　有馬・藤島内科クリニック【訪問リハビリテーション】鹿児島県鹿児島市与次郎1丁目3番12号", "url": "https://www.kaigokensaku.mhlw.go.jp/46/index.php?action_kouhyou_detail_004_kani=true&JigyosyoCd=4610119259-00&ServiceCd=140&Type=search", "url2": "http://www.koufuu-kai.com/" }, "geometry": { "type": "Point", "coordinates": [ 130.559921900000063, 31.5680402 ] } },
{ "type": "Feature", "properties": { "内容": "医療法人明輝会　明輝会クリニック　訪問リハビリテーション【訪問リハビリテーション】鹿児島県鹿児島市吉野三丁目2番5号", "url": "https://www.kaigokensaku.mhlw.go.jp/46/index.php?action_kouhyou_detail_004_kani=true&JigyosyoCd=4610124457-00&ServiceCd=140&Type=search", "url2": "http://www.meikikai.com/" }, "geometry": { "type": "Point", "coordinates": [ 130.568774308598336, 31.654656227742016 ] } },
{ "type": "Feature", "properties": { "内容": "医療法人明輝会　吉野東ホームクリニック　訪問リハビリテーション【訪問リハビリテーション】鹿児島市吉野町5208-1", "url": "https://www.kaigokensaku.mhlw.go.jp/46/index.php?action_kouhyou_detail_004_kani=true&JigyosyoCd=4610126544-00&ServiceCd=140&Type=search", "url2": "http://www.meikikai.com/yoshinohigashi/index.html" }, "geometry": { "type": "Point", "coordinates": [ 130.584512423942556, 31.646432044852773 ] } },
{ "type": "Feature", "properties": { "内容": "医療法人健幸会　天辰病院　訪問リハビリテーション【訪問リハビリテーション】鹿児島県鹿児島市桜ヶ丘4-1-8", "url": "https://www.kaigokensaku.mhlw.go.jp/46/index.php?action_kouhyou_detail_004_kani=true&JigyosyoCd=4610120885-00&ServiceCd=140&Type=search", "url2": "https://amatatsu-hosp.info" }, "geometry": { "type": "Point", "coordinates": [ 130.517459800000012, 31.5506058 ] } },
{ "type": "Feature", "properties": { "内容": "小田代病院【訪問リハビリテーション】鹿児島県鹿児島市荒田一丁目25番6号", "url": "https://www.kaigokensaku.mhlw.go.jp/46/index.php?action_kouhyou_detail_004_kani=true&JigyosyoCd=4610119531-00&ServiceCd=140&Type=search", "url2": "http://www.odasiro.e-doctor.info/" }, "geometry": { "type": "Point", "coordinates": [ 130.54991436169837, 31.57663799101288 ] } },
{ "type": "Feature", "properties": { "内容": "医療法人　さくらクリニック【訪問リハビリテーション】上荒田町29-12", "url": "https://www.kaigokensaku.mhlw.go.jp/46/index.php?action_kouhyou_detail_004_kani=true&JigyosyoCd=4610125512-00&ServiceCd=140&Type=search", "url2": "sakura-clnc.com/" }, "geometry": { "type": "Point", "coordinates": [ 130.5450866, 31.5749252 ] } },
{ "type": "Feature", "properties": { "内容": "三愛クリニック【訪問リハビリテーション】鹿児島県鹿児島市郡元三丁目3番7号三愛クリニック", "url": "https://www.kaigokensaku.mhlw.go.jp/46/index.php?action_kouhyou_detail_004_kani=true&JigyosyoCd=4610122733-00&ServiceCd=140&Type=search", "url2": "https://www.sanaikai.or.jp" }, "geometry": { "type": "Point", "coordinates": [ 130.549464599999965, 31.5602796 ] } },
{ "type": "Feature", "properties": { "内容": "医療法人徳洲会　大隅鹿屋病院【訪問リハビリテーション】新川町６０８１番地１", "url": "https://www.kaigokensaku.mhlw.go.jp/46/index.php?action_kouhyou_detail_004_kani=true&JigyosyoCd=4610311260-00&ServiceCd=140&Type=search", "url2": "http://www.kanoya-aishinkai.com/" }, "geometry": { "type": "Point", "coordinates": [ 130.860946199999944, 31.3773481 ] } },
{ "type": "Feature", "properties": { "内容": "医療法人秋津会　徳田脳神経外科病院【訪問リハビリテーション】鹿屋市打馬1丁目11248番地1", "url": "https://www.kaigokensaku.mhlw.go.jp/46/index.php?action_kouhyou_detail_004_kani=true&JigyosyoCd=4610311443-00&ServiceCd=140&Type=search", "url2": "http://tokuda-hp.com" }, "geometry": { "type": "Point", "coordinates": [ 130.84618839999996, 31.3953654 ] } },
{ "type": "Feature", "properties": { "内容": "前田内科　訪問リハビリテーション【訪問リハビリテーション】鹿児島県鹿屋市本町4番2号", "url": "https://www.kaigokensaku.mhlw.go.jp/46/index.php?action_kouhyou_detail_004_kani=true&JigyosyoCd=4670302118-00&ServiceCd=140&Type=search", "url2": "http://flora-kanoya.com/" }, "geometry": { "type": "Point", "coordinates": [ 130.850991099999987, 31.3872163 ] } },
{ "type": "Feature", "properties": { "内容": "ヴィラかのや　訪問リハビリテーション【訪問リハビリテーション】鹿児島県鹿屋市寿8丁目21-2", "url": "https://www.kaigokensaku.mhlw.go.jp/46/index.php?action_kouhyou_detail_004_kani=true&JigyosyoCd=4650380027-00&ServiceCd=140&Type=search", "url2": "http://www.kohshinkai.or.jp" }, "geometry": { "type": "Point", "coordinates": [ 130.8803073, 31.3864669 ] } },
{ "type": "Feature", "properties": { "内容": "恒心会おぐら病院【訪問リハビリテーション】鹿屋市笠之原町27番22号", "url": "https://www.kaigokensaku.mhlw.go.jp/46/index.php?action_kouhyou_detail_004_kani=true&JigyosyoCd=4610311492-00&ServiceCd=140&Type=search", "url2": "www.koshinkai.or.jp" }, "geometry": { "type": "Point", "coordinates": [ 130.881966299999931, 31.3867951 ] } },
{ "type": "Feature", "properties": { "内容": "介護老人保健施設　ナーシングホームひだまり【訪問リハビリテーション】鹿児島県鹿屋市下祓川町1853", "url": "https://www.kaigokensaku.mhlw.go.jp/46/index.php?action_kouhyou_detail_004_kani=true&JigyosyoCd=4650380019-00&ServiceCd=140&Type=search", "url2": "http://ikeda-hp.com" }, "geometry": { "type": "Point", "coordinates": [ 130.851373599999988, 31.4140445 ] } },
{ "type": "Feature", "properties": { "内容": "サザン訪問リハビリ【訪問リハビリテーション】枕崎市緑町220番地", "url": "https://www.kaigokensaku.mhlw.go.jp/46/index.php?action_kouhyou_detail_004_kani=true&JigyosyoCd=4610410427-00&ServiceCd=140&Type=search", "url2": "http://southernregion.jp" }, "geometry": { "type": "Point", "coordinates": [ 130.2936158, 31.2765469 ] } },
{ "type": "Feature", "properties": { "内容": "内山病院【訪問リハビリテーション】阿久根市高松町２２番地", "url": "https://www.kaigokensaku.mhlw.go.jp/46/index.php?action_kouhyou_detail_004_kani=true&JigyosyoCd=4610610273-00&ServiceCd=140&Type=search", "url2": "http://kouwakai-uchiyama.or.jp/" }, "geometry": { "type": "Point", "coordinates": [ 130.197822864418072, 32.018130277408517 ] } },
{ "type": "Feature", "properties": { "内容": "介護老人保健施設グリーンフォレストみかさ【訪問リハビリテーション】阿久根市脇本字柞木迫6313番地1", "url": "https://www.kaigokensaku.mhlw.go.jp/46/index.php?action_kouhyou_detail_004_kani=true&JigyosyoCd=4650680020-00&ServiceCd=140&Type=search", "url2": null }, "geometry": { "type": "Point", "coordinates": [ 130.177752100000021, 32.0901826 ] } },
{ "type": "Feature", "properties": { "内容": "介護老人保健施設　ラ・フォンテいずみ【訪問リハビリテーション】鹿児島県出水市五万石町２８１番地", "url": "https://www.kaigokensaku.mhlw.go.jp/46/index.php?action_kouhyou_detail_004_kani=true&JigyosyoCd=4650880026-00&ServiceCd=140&Type=search", "url2": null }, "geometry": { "type": "Point", "coordinates": [ 130.344189, 32.0734892 ] } },
{ "type": "Feature", "properties": { "内容": "医療法人吉祥会　吉井整形外科内科中央病院【訪問リハビリテーション】出水市平和町３３６番地", "url": "https://www.kaigokensaku.mhlw.go.jp/46/index.php?action_kouhyou_detail_004_kani=true&JigyosyoCd=4610810451-00&ServiceCd=140&Type=search", "url2": "http://www.minc.ne.jp/kisshokai" }, "geometry": { "type": "Point", "coordinates": [ 130.324429900000041, 32.082428 ] } },
{ "type": "Feature", "properties": { "内容": "東医院【訪問リハビリテーション】鹿児島県出水市六月田町360", "url": "https://www.kaigokensaku.mhlw.go.jp/46/index.php?action_kouhyou_detail_004_kani=true&JigyosyoCd=4610810493-00&ServiceCd=140&Type=search", "url2": "https://3norikai.jp" }, "geometry": { "type": "Point", "coordinates": [ 130.344551406221001, 32.107320641838278 ] } },
{ "type": "Feature", "properties": { "内容": "介護老人保健施設ヴァンベールみどりの風【訪問リハビリテーション】鹿児島県指宿市山川大山2056-4", "url": "https://www.kaigokensaku.mhlw.go.jp/46/index.php?action_kouhyou_detail_004_kani=true&JigyosyoCd=4652280027-00&ServiceCd=140&Type=search", "url2": "https://ventvert-1001.com" }, "geometry": { "type": "Point", "coordinates": [ 130.5920299, 31.2008763 ] } },
{ "type": "Feature", "properties": { "内容": "指宿さがら病院【訪問リハビリテーション】鹿児島県指宿市湯の浜１－１１－２９", "url": "https://www.kaigokensaku.mhlw.go.jp/46/index.php?action_kouhyou_detail_004_kani=true&JigyosyoCd=4611010705-00&ServiceCd=140&Type=search", "url2": "http://ibusuki-sagara.jp/" }, "geometry": { "type": "Point", "coordinates": [ 130.643958699999985, 31.2362055 ] } },
{ "type": "Feature", "properties": { "内容": "今林整形外科病院【訪問リハビリテーション】指宿市十町３５２－２", "url": "https://www.kaigokensaku.mhlw.go.jp/46/index.php?action_kouhyou_detail_004_kani=true&JigyosyoCd=4611010374-00&ServiceCd=140&Type=search", "url2": "ｈｔｔｐ：//www．ｍｅｉｓｅｉｋａｉ．ｏｒ．ｊｐ/" }, "geometry": { "type": "Point", "coordinates": [ 130.633195200000046, 31.2541673 ] } },
{ "type": "Feature", "properties": { "内容": "医療法人浩然会　指宿浩然会病院【訪問リハビリテーション】鹿児島県指宿市十町１１３０番地", "url": "https://www.kaigokensaku.mhlw.go.jp/46/index.php?action_kouhyou_detail_004_kani=true&JigyosyoCd=4611010259-00&ServiceCd=140&Type=search", "url2": "http://www.kouzenkai-hp.or.jp" }, "geometry": { "type": "Point", "coordinates": [ 130.639058699999964, 31.24924840000001 ] } },
{ "type": "Feature", "properties": { "内容": "種子島医療センター【訪問リハビリテーション】鹿児島県西之表市西之表7463番地種子島医療センター管理棟1階", "url": "https://www.kaigokensaku.mhlw.go.jp/46/index.php?action_kouhyou_detail_004_kani=true&JigyosyoCd=4671300509-00&ServiceCd=140&Type=search", "url2": "https://tanegashima-mc.jp/visit-reha/" }, "geometry": { "type": "Point", "coordinates": [ 130.9993384, 30.736122 ] } },
{ "type": "Feature", "properties": { "内容": "百合砂診療所【訪問リハビリテーション】鹿児島県西之表市鴨女町98番地ハーモニーセンター", "url": "https://www.kaigokensaku.mhlw.go.jp/46/index.php?action_kouhyou_detail_004_kani=true&JigyosyoCd=4611310337-00&ServiceCd=140&Type=search", "url2": "https://yurisa.jp/list/hcenter/" }, "geometry": { "type": "Point", "coordinates": [ 130.994994942956311, 30.724451025555418 ] } },
{ "type": "Feature", "properties": { "内容": "池田温泉クリニック　訪問リハビリテーション【訪問リハビリテーション】垂水市田神3536番地1", "url": "https://www.kaigokensaku.mhlw.go.jp/46/index.php?action_kouhyou_detail_004_kani=true&JigyosyoCd=4611410426-00&ServiceCd=140&Type=search", "url2": "http://www.kouaikai.or.jp/" }, "geometry": { "type": "Point", "coordinates": [ 130.698509800000011, 31.4969319 ] } },
{ "type": "Feature", "properties": { "内容": "介護老人保健施設　グラン・ベリテひわき【訪問リハビリテーション】鹿児島県薩摩川内市樋脇町市比野２９９５番地", "url": "https://www.kaigokensaku.mhlw.go.jp/46/index.php?action_kouhyou_detail_004_kani=true&JigyosyoCd=4652580038-00&ServiceCd=140&Type=search", "url2": "https://www.takushokai.com/" }, "geometry": { "type": "Point", "coordinates": [ 130.402179599999954, 31.7863604 ] } },
{ "type": "Feature", "properties": { "内容": "森園病院　訪問リハビリテーション【訪問リハビリテーション】大小路町19－38", "url": "https://www.kaigokensaku.mhlw.go.jp/46/index.php?action_kouhyou_detail_004_kani=true&JigyosyoCd=4611510019-00&ServiceCd=140&Type=search", "url2": "http://www.morizono.or.jp/index.shtml" }, "geometry": { "type": "Point", "coordinates": [ 130.30354710000006, 31.8216691 ] } },
{ "type": "Feature", "properties": { "内容": "介護老人保健施設　あじさい苑【訪問リハビリテーション】鹿児島県薩摩川内市横馬場町8番11号", "url": "https://www.kaigokensaku.mhlw.go.jp/46/index.php?action_kouhyou_detail_004_kani=true&JigyosyoCd=4650280011-00&ServiceCd=140&Type=search", "url2": "http://ajisaien-kagoshima.com" }, "geometry": { "type": "Point", "coordinates": [ 130.310352100000046, 31.8171558 ] } },
{ "type": "Feature", "properties": { "内容": "新門整形外科【訪問リハビリテーション】鹿児島県薩摩川内市中郷１丁目８番１６号新門整形外科", "url": "https://www.kaigokensaku.mhlw.go.jp/46/index.php?action_kouhyou_detail_004_kani=true&JigyosyoCd=4611510605-00&ServiceCd=140&Type=search", "url2": "https://kusunokikai.or.jp" }, "geometry": { "type": "Point", "coordinates": [ 130.310298900000021, 31.8313434 ] } },
{ "type": "Feature", "properties": { "内容": "長生園ナーシングセンター【訪問リハビリテーション】鹿児島県薩摩川内市大小路町５１番３号", "url": "https://www.kaigokensaku.mhlw.go.jp/46/index.php?action_kouhyou_detail_004_kani=true&JigyosyoCd=4650280029-00&ServiceCd=140&Type=search", "url2": "http://www.doujunkai.jp" }, "geometry": { "type": "Point", "coordinates": [ 130.303541399999972, 31.8235551 ] } },
{ "type": "Feature", "properties": { "内容": "大海宮崎クリニック【訪問リハビリテーション】宮崎町3000番地", "url": "https://www.kaigokensaku.mhlw.go.jp/46/index.php?action_kouhyou_detail_004_kani=true&JigyosyoCd=4611511439-00&ServiceCd=140&Type=search", "url2": "https://taikaiclinic.or.jp/miyazaki/" }, "geometry": { "type": "Point", "coordinates": [ 130.3207069, 31.7985555 ] } },
{ "type": "Feature", "properties": { "内容": "馬場病院【訪問リハビリテーション】吹上町湯之浦2378", "url": "https://www.kaigokensaku.mhlw.go.jp/46/index.php?action_kouhyou_detail_004_kani=true&JigyosyoCd=4611610025-00&ServiceCd=140&Type=search", "url2": "baba@babahp.jp" }, "geometry": { "type": "Point", "coordinates": [ 130.358989199336293, 31.503077886907676 ] } },
{ "type": "Feature", "properties": { "内容": "百花クリニック【訪問リハビリテーション】鹿児島県日置市伊集院町徳重338‐1", "url": "https://www.kaigokensaku.mhlw.go.jp/46/index.php?action_kouhyou_detail_004_kani=true&JigyosyoCd=4611610603-00&ServiceCd=140&Type=search", "url2": null }, "geometry": { "type": "Point", "coordinates": [ 130.3960092, 31.630605 ] } },
{ "type": "Feature", "properties": { "内容": "湯之元記念クリニック【訪問リハビリテーション】鹿児島県日置市東市来町湯田3614番地", "url": "https://www.kaigokensaku.mhlw.go.jp/46/index.php?action_kouhyou_detail_004_kani=true&JigyosyoCd=4611610660-00&ServiceCd=140&Type=search", "url2": "http://www.seishin-kai.org/" }, "geometry": { "type": "Point", "coordinates": [ 130.33686560000001, 31.6729553 ] } },
{ "type": "Feature", "properties": { "内容": "博悠会温泉病院【訪問リハビリテーション】日置市東市来町湯田4648", "url": "https://www.kaigokensaku.mhlw.go.jp/46/index.php?action_kouhyou_detail_004_kani=true&JigyosyoCd=4611610207-00&ServiceCd=140&Type=search", "url2": "https://hakuyukai-group.studio.site/" }, "geometry": { "type": "Point", "coordinates": [ 130.348525750262411, 31.675549602165585 ] } },
{ "type": "Feature", "properties": { "内容": "塩川医院【訪問リハビリテーション】鹿児島県曽於市末吉町上町４丁目2-6", "url": "https://www.kaigokensaku.mhlw.go.jp/46/index.php?action_kouhyou_detail_004_kani=true&JigyosyoCd=4611710171-00&ServiceCd=140&Type=search", "url2": null }, "geometry": { "type": "Point", "coordinates": [ 131.0206138, 31.6523706 ] } },
{ "type": "Feature", "properties": { "内容": "ケアセンターやごろう苑【訪問リハビリテーション】曽於市大隅町岩川5515番地", "url": "https://www.kaigokensaku.mhlw.go.jp/46/index.php?action_kouhyou_detail_004_kani=true&JigyosyoCd=4652980022-00&ServiceCd=140&Type=search", "url2": "https://aisei-kai.com/yagorou-kanren/" }, "geometry": { "type": "Point", "coordinates": [ 130.987309964418017, 31.595853230689123 ] } },
{ "type": "Feature", "properties": { "内容": "八木クリニック訪問リハビリテーション【訪問リハビリテーション】福山町福山4516", "url": "https://www.kaigokensaku.mhlw.go.jp/46/index.php?action_kouhyou_detail_004_kani=true&JigyosyoCd=4611910599-00&ServiceCd=140&Type=search", "url2": null }, "geometry": { "type": "Point", "coordinates": [ 130.848758399999952, 31.6721929 ] } },
{ "type": "Feature", "properties": { "内容": "きりしま内科リハビリクリニック【訪問リハビリテーション】隼人町松永1-36", "url": "https://www.kaigokensaku.mhlw.go.jp/46/index.php?action_kouhyou_detail_004_kani=true&JigyosyoCd=4611911159-00&ServiceCd=140&Type=search", "url2": null }, "geometry": { "type": "Point", "coordinates": [ 130.759759799999983, 31.7741874 ] } },
{ "type": "Feature", "properties": { "内容": "佐藤医院【訪問リハビリテーション】霧島市溝辺町有川３２７－２", "url": "https://www.kaigokensaku.mhlw.go.jp/46/index.php?action_kouhyou_detail_004_kani=true&JigyosyoCd=4611910565-00&ServiceCd=140&Type=search", "url2": null }, "geometry": { "type": "Point", "coordinates": [ 130.680468099999985, 31.8304601 ] } },
{ "type": "Feature", "properties": { "内容": "医療法人　美﨑会　国分中央病院【訪問リハビリテーション】鹿児島県霧島市国分中央一丁目25-70", "url": "https://www.kaigokensaku.mhlw.go.jp/46/index.php?action_kouhyou_detail_004_kani=true&JigyosyoCd=4611910359-00&ServiceCd=140&Type=search", "url2": "http://www.misakikai.or.jp" }, "geometry": { "type": "Point", "coordinates": [ 130.768660700000027, 31.7418043 ] } },
{ "type": "Feature", "properties": { "内容": "医療法人財団　浩誠会　霧島杉安病院【訪問リハビリテーション】鹿児島県霧島市霧島田口2143", "url": "https://www.kaigokensaku.mhlw.go.jp/46/index.php?action_kouhyou_detail_004_kani=true&JigyosyoCd=4611910706-00&ServiceCd=140&Type=search", "url2": "http://www.kouseikai.info/index.html" }, "geometry": { "type": "Point", "coordinates": [ 130.855377192590367, 31.848453018968488 ] } },
{ "type": "Feature", "properties": { "内容": "国分脳神経外科病院訪問リハビリテーション【訪問リハビリテーション】鹿児島県霧島市国分向花154番地1", "url": "https://www.kaigokensaku.mhlw.go.jp/46/index.php?action_kouhyou_detail_004_kani=true&JigyosyoCd=4611911449-00&ServiceCd=140&Type=search", "url2": "http://kokubu-nougeka.jp/" }, "geometry": { "type": "Point", "coordinates": [ 130.7762418, 31.7605106 ] } },
{ "type": "Feature", "properties": { "内容": "訪問リハビリテーションアメニティ国分【訪問リハビリテーション】鹿児島県霧島市国分重久361-1", "url": "https://www.kaigokensaku.mhlw.go.jp/46/index.php?action_kouhyou_detail_004_kani=true&JigyosyoCd=4671201855-00&ServiceCd=140&Type=search", "url2": "https://syunseikai.or.jp" }, "geometry": { "type": "Point", "coordinates": [ 130.778279199999986, 31.7676401 ] } },
{ "type": "Feature", "properties": { "内容": "隼人温泉病院【訪問リハビリテーション】鹿児島県霧島市隼人町姫城1丁目264番地2", "url": "https://www.kaigokensaku.mhlw.go.jp/46/index.php?action_kouhyou_detail_004_kani=true&JigyosyoCd=4611910508-00&ServiceCd=140&Type=search", "url2": "https://hayato-onsen.jp/" }, "geometry": { "type": "Point", "coordinates": [ 130.7569939, 31.7659922 ] } },
{ "type": "Feature", "properties": { "内容": "金子病院　訪問リハビリテーション【訪問リハビリテーション】鹿児島県いちき串木野市照島6002番地", "url": "https://www.kaigokensaku.mhlw.go.jp/46/index.php?action_kouhyou_detail_004_kani=true&JigyosyoCd=4670500448-00&ServiceCd=140&Type=search", "url2": "https://www.kaneko-hospital.jp/" }, "geometry": { "type": "Point", "coordinates": [ 130.27797910000001, 31.7072513 ] } },
{ "type": "Feature", "properties": { "内容": "丸田病院【訪問リハビリテーション】鹿児島県いちき串木野市旭町83番地", "url": "https://www.kaigokensaku.mhlw.go.jp/46/index.php?action_kouhyou_detail_004_kani=true&JigyosyoCd=4611810088-00&ServiceCd=140&Type=search", "url2": "http://maruta-hp.or.jp" }, "geometry": { "type": "Point", "coordinates": [ 130.2676169, 31.7192164 ] } },
{ "type": "Feature", "properties": { "内容": "花牟禮病院【訪問リハビリテーション】鹿児島県いちき串木野市元町１９０番地", "url": "https://www.kaigokensaku.mhlw.go.jp/46/index.php?action_kouhyou_detail_004_kani=true&JigyosyoCd=4611810013-00&ServiceCd=140&Type=search", "url2": "http://www.hanamure.or.jp/" }, "geometry": { "type": "Point", "coordinates": [ 130.2664273, 31.719763 ] } },
{ "type": "Feature", "properties": { "内容": "アルテンハイムリハビリテーションクリニック本町【訪問リハビリテーション】加世田本町37-2", "url": "https://www.kaigokensaku.mhlw.go.jp/46/index.php?action_kouhyou_detail_004_kani=true&JigyosyoCd=4614010454-00&ServiceCd=140&Type=search", "url2": "http://www.nonohanakai.or.jp" }, "geometry": { "type": "Point", "coordinates": [ 130.321532700000034, 31.416692700000013 ] } },
{ "type": "Feature", "properties": { "内容": "老人保健施設　ラポール吉井【訪問リハビリテーション】鹿児島県南さつま市加世田村原1丁目10-10", "url": "https://www.kaigokensaku.mhlw.go.jp/46/index.php?action_kouhyou_detail_004_kani=true&JigyosyoCd=4651180012-00&ServiceCd=140&Type=search", "url2": "http://www.nonohanakai.or.jp" }, "geometry": { "type": "Point", "coordinates": [ 130.3261063, 31.4227723 ] } },
{ "type": "Feature", "properties": { "内容": "小山クリニック【訪問リハビリテーション】鹿児島県南さつま市金峰町尾下354番地", "url": "https://www.kaigokensaku.mhlw.go.jp/46/index.php?action_kouhyou_detail_004_kani=true&JigyosyoCd=4614010389-00&ServiceCd=140&Type=search", "url2": null }, "geometry": { "type": "Point", "coordinates": [ 130.345144800000014, 31.459360400000037 ] } },
{ "type": "Feature", "properties": { "内容": "南さつま市立坊津病院【訪問リハビリテーション】鹿児島県南さつま市坊津町泊１９番地", "url": "https://www.kaigokensaku.mhlw.go.jp/46/index.php?action_kouhyou_detail_004_kani=true&JigyosyoCd=4614010272-00&ServiceCd=140&Type=search", "url2": "https://www.city.minamisatsuma.lg.jp/bounotsuhospital/" }, "geometry": { "type": "Point", "coordinates": [ 130.2246394, 31.2749478 ] } },
{ "type": "Feature", "properties": { "内容": "藤後クリニック【訪問リハビリテーション】志布志町志布志一丁目13番1号", "url": "https://www.kaigokensaku.mhlw.go.jp/46/index.php?action_kouhyou_detail_004_kani=true&JigyosyoCd=4614110221-00&ServiceCd=140&Type=search", "url2": "https://www.sayuukai.or.jp/clinic/" }, "geometry": { "type": "Point", "coordinates": [ 131.103025700000018, 31.476760399999979 ] } },
{ "type": "Feature", "properties": { "内容": "名瀬徳洲会病院　訪問リハビリテーション【訪問リハビリテーション】鹿児島県奄美市名瀬朝日町28番地1", "url": "https://www.kaigokensaku.mhlw.go.jp/46/index.php?action_kouhyou_detail_004_kani=true&JigyosyoCd=4614210252-00&ServiceCd=140&Type=search", "url2": null }, "geometry": { "type": "Point", "coordinates": [ 129.526325400000019, 28.3987104 ] } },
{ "type": "Feature", "properties": { "内容": "むかいクリニック　訪問リハビリテーション【訪問リハビリテーション】奄美市名瀬小浜町24-10", "url": "https://www.kaigokensaku.mhlw.go.jp/46/index.php?action_kouhyou_detail_004_kani=true&JigyosyoCd=4614210278-00&ServiceCd=140&Type=search", "url2": "http://mukai.ryukyu/" }, "geometry": { "type": "Point", "coordinates": [ 129.501314800000046, 28.3853751 ] } },
{ "type": "Feature", "properties": { "内容": "奄美中央病院【訪問リハビリテーション】奄美市名瀬長浜町16-5奄美中央病院", "url": "https://www.kaigokensaku.mhlw.go.jp/46/index.php?action_kouhyou_detail_004_kani=true&JigyosyoCd=4614210658-00&ServiceCd=140&Type=search", "url2": "http://amami-hca.or.jp/achweb/" }, "geometry": { "type": "Point", "coordinates": [ 129.493457, 28.3944351 ] } },
{ "type": "Feature", "properties": { "内容": "稲医院【訪問リハビリテーション】鹿児島県奄美市名瀬金久町5-4", "url": "https://www.kaigokensaku.mhlw.go.jp/46/index.php?action_kouhyou_detail_004_kani=true&JigyosyoCd=4614210120-00&ServiceCd=140&Type=search", "url2": null }, "geometry": { "type": "Point", "coordinates": [ 129.491822096958913, 28.381370464431001 ] } },
{ "type": "Feature", "properties": { "内容": "虹の丘訪問リハビリテーション【訪問リハビリテーション】奄美市名瀬小宿字苗代田３４１６番１", "url": "https://www.kaigokensaku.mhlw.go.jp/46/index.php?action_kouhyou_detail_004_kani=true&JigyosyoCd=4650780010-00&ServiceCd=140&Type=search", "url2": "http://www4.synapse.ne.jp/nijinooka/" }, "geometry": { "type": "Point", "coordinates": [ 129.4709144, 28.38268 ] } },
{ "type": "Feature", "properties": { "内容": "大島郡医師会病院【訪問リハビリテーション】奄美市名瀬小宿3411番地", "url": "https://www.kaigokensaku.mhlw.go.jp/46/index.php?action_kouhyou_detail_004_kani=true&JigyosyoCd=4614210070-00&ServiceCd=140&Type=search", "url2": null }, "geometry": { "type": "Point", "coordinates": [ 129.474406199999976, 28.3863716 ] } },
{ "type": "Feature", "properties": { "内容": "医療法人心晴　菱刈中央医院【訪問リハビリテーション】伊佐市菱刈前目790番地1", "url": "https://www.kaigokensaku.mhlw.go.jp/46/index.php?action_kouhyou_detail_004_kani=true&JigyosyoCd=4614410225-00&ServiceCd=140&Type=search", "url2": null }, "geometry": { "type": "Point", "coordinates": [ 130.637932500000034, 32.0139993 ] } },
{ "type": "Feature", "properties": { "内容": "介護老人保健施設はやひと【訪問リハビリテーション】伊佐市大口青木3022番地33", "url": "https://www.kaigokensaku.mhlw.go.jp/46/index.php?action_kouhyou_detail_004_kani=true&JigyosyoCd=4650980016-00&ServiceCd=140&Type=search", "url2": "http//www.hayahito.com" }, "geometry": { "type": "Point", "coordinates": [ 130.6338568, 32.0567534 ] } },
{ "type": "Feature", "properties": { "内容": "整形外科松元病院訪問リハビリテーション【訪問リハビリテーション】鹿児島県伊佐市大口里491-2", "url": "https://www.kaigokensaku.mhlw.go.jp/46/index.php?action_kouhyou_detail_004_kani=true&JigyosyoCd=4614410050-00&ServiceCd=140&Type=search", "url2": null }, "geometry": { "type": "Point", "coordinates": [ 130.604311, 32.0606107 ] } },
{ "type": "Feature", "properties": { "内容": "坂元内科【訪問リハビリテーション】菱刈重留1353坂元内科", "url": "https://www.kaigokensaku.mhlw.go.jp/46/index.php?action_kouhyou_detail_004_kani=true&JigyosyoCd=4614410241-00&ServiceCd=140&Type=search", "url2": null }, "geometry": { "type": "Point", "coordinates": [ 130.633100749073805, 32.036819627120046 ] } },
{ "type": "Feature", "properties": { "内容": "医療法人健育会　たけうちクリニック訪問リハビリテーション【訪問リハビリテーション】西餅田140", "url": "https://www.kaigokensaku.mhlw.go.jp/46/index.php?action_kouhyou_detail_004_kani=true&JigyosyoCd=4614510446-00&ServiceCd=140&Type=search", "url2": "http:/www.kagoshima-med.jp/takeuchi-c" }, "geometry": { "type": "Point", "coordinates": [ 130.628923799999939, 31.7356721 ] } },
{ "type": "Feature", "properties": { "内容": "医療法人　玉昌会　加治木温泉病院　訪問リハビリテーション及び介護予防訪問リハビリテーション【訪問リハビリテーション】鹿児島県姶良市加治木町木田4714", "url": "https://www.kaigokensaku.mhlw.go.jp/46/index.php?action_kouhyou_detail_004_kani=true&JigyosyoCd=4614510032-00&ServiceCd=140&Type=search", "url2": "http://www.gyokushoukai.com/" }, "geometry": { "type": "Point", "coordinates": [ 130.663521299999957, 31.7499536 ] } },
{ "type": "Feature", "properties": { "内容": "介護老人保健施設　青雲荘【訪問リハビリテーション】鹿児島県姶良市西餅田３０２４番地１", "url": "https://www.kaigokensaku.mhlw.go.jp/46/index.php?action_kouhyou_detail_004_kani=true&JigyosyoCd=4652880099-00&ServiceCd=140&Type=search", "url2": "http://www.seiunkaibyouin.jp/seiun_sou/" }, "geometry": { "type": "Point", "coordinates": [ 130.613417002516144, 31.721594748033898 ] } },
{ "type": "Feature", "properties": { "内容": "クオラリハビリテーション病院あいら【訪問リハビリテーション】鹿児島県姶良市西餅田2300-1", "url": "https://www.kaigokensaku.mhlw.go.jp/46/index.php?action_kouhyou_detail_004_kani=true&JigyosyoCd=4614510859-00&ServiceCd=140&Type=search", "url2": "https://www.qoler.jp/" }, "geometry": { "type": "Point", "coordinates": [ 130.618782, 31.7288966 ] } },
{ "type": "Feature", "properties": { "内容": "ザ王病院【訪問リハビリテーション】姶良市加治木町反土2151-1", "url": "https://www.kaigokensaku.mhlw.go.jp/46/index.php?action_kouhyou_detail_004_kani=true&JigyosyoCd=4614510081-00&ServiceCd=140&Type=search", "url2": "https://www.zaouhp.jp" }, "geometry": { "type": "Point", "coordinates": [ 130.6656408, 31.7463845 ] } },
{ "type": "Feature", "properties": { "内容": "医療法人　一桜会　吉留クリニック　訪問リハビリテーション【訪問リハビリテーション】鹿児島県姶良市蒲生町上久徳2561", "url": "https://www.kaigokensaku.mhlw.go.jp/46/index.php?action_kouhyou_detail_004_kani=true&JigyosyoCd=4614510693-00&ServiceCd=140&Type=search", "url2": "http://www.ichioukai.or.jp/" }, "geometry": { "type": "Point", "coordinates": [ 130.573420100000021, 31.7600275 ] } },
{ "type": "Feature", "properties": { "内容": "稲津内科病院【訪問リハビリテーション】鹿児島県薩摩郡さつま町宮之城屋地1378", "url": "https://www.kaigokensaku.mhlw.go.jp/46/index.php?action_kouhyou_detail_004_kani=true&JigyosyoCd=4612511354-00&ServiceCd=140&Type=search", "url2": null }, "geometry": { "type": "Point", "coordinates": [ 130.45388509999998, 31.8977713 ] } },
{ "type": "Feature", "properties": { "内容": "公益社団法人肝属郡医師会　肝属郡医師会立病院【訪問リハビリテーション】鹿児島県肝属郡錦江町神川135-3", "url": "https://www.kaigokensaku.mhlw.go.jp/46/index.php?action_kouhyou_detail_004_kani=true&JigyosyoCd=4613010521-00&ServiceCd=140&Type=search", "url2": "https://www.kimotsuki-cdh.jp/" }, "geometry": { "type": "Point", "coordinates": [ 130.7902723, 31.2602834 ] } },
{ "type": "Feature", "properties": { "内容": "山内クリニック【訪問リハビリテーション】肝属郡肝付町前田4816番地2", "url": "https://www.kaigokensaku.mhlw.go.jp/46/index.php?action_kouhyou_detail_004_kani=true&JigyosyoCd=4613011347-00&ServiceCd=140&Type=search", "url2": null }, "geometry": { "type": "Point", "coordinates": [ 130.928918900000014, 31.3418394 ] } },
{ "type": "Feature", "properties": { "内容": "田上診療所【訪問リハビリテーション】鹿児島県熊毛郡中種子町野間５３０６番地１１号", "url": "https://www.kaigokensaku.mhlw.go.jp/46/index.php?action_kouhyou_detail_004_kani=true&JigyosyoCd=4678000342-00&ServiceCd=140&Type=search", "url2": null }, "geometry": { "type": "Point", "coordinates": [ 130.960829100000012, 30.5339112 ] } },
{ "type": "Feature", "properties": { "内容": "屋久島徳洲会病院【訪問リハビリテーション】熊毛郡屋久島町宮之浦2467番地", "url": "https://www.kaigokensaku.mhlw.go.jp/46/index.php?action_kouhyou_detail_004_kani=true&JigyosyoCd=4613110446-00&ServiceCd=140&Type=search", "url2": "http://yakutoku.com/" }, "geometry": { "type": "Point", "coordinates": [ 130.586549800000057, 30.4183409 ] } },
{ "type": "Feature", "properties": { "内容": "医療法人　徳洲会　瀬戸内徳洲会病院【訪問リハビリテーション】古仁屋字トンキャン原1358-1", "url": "https://www.kaigokensaku.mhlw.go.jp/46/index.php?action_kouhyou_detail_004_kani=true&JigyosyoCd=4613211384-00&ServiceCd=140&Type=search", "url2": "http://www.setouchitokusyukai.or.jp" }, "geometry": { "type": "Point", "coordinates": [ 129.322375599999987, 28.1375203 ] } },
{ "type": "Feature", "properties": { "内容": "介護老人保健施設　せとうち【訪問リハビリテーション】鹿児島県大島郡瀬戸内町阿木名１９７５介護老人保健施設　せとうち", "url": "https://www.kaigokensaku.mhlw.go.jp/46/index.php?action_kouhyou_detail_004_kani=true&JigyosyoCd=4653280042-00&ServiceCd=140&Type=search", "url2": null }, "geometry": { "type": "Point", "coordinates": [ 129.3357277, 28.1705905 ] } },
{ "type": "Feature", "properties": { "内容": "医療法人徳洲会　喜界徳洲会病院【訪問リハビリテーション】鹿児島県大島郡喜界町赤連105-5番地", "url": "https://www.kaigokensaku.mhlw.go.jp/46/index.php?action_kouhyou_detail_004_kani=true&JigyosyoCd=4613211004-00&ServiceCd=140&Type=search", "url2": "http://www.kikaitokusyukai.jp" }, "geometry": { "type": "Point", "coordinates": [ 129.933319399999988, 28.3179624 ] } }
]
}
