{
"type": "FeatureCollection",
"name": "geo_46_認知症対応型通所介護",
"crs": { "type": "name", "properties": { "name": "urn:ogc:def:crs:OGC:1.3:CRS84" } },
"features": [
{ "type": "Feature", "properties": { "内容": "認知症対応型通所介護　よいどこい花野【認知症対応型通所介護】花野光ヶ丘２－５５－１５", "url": "https://www.kaigokensaku.mhlw.go.jp/46/index.php?action_kouhyou_detail_004_kani=true&JigyosyoCd=4690100161-00&ServiceCd=720&Type=search", "url2": "https://www.yoidokoikeno.com/" }, "geometry": { "type": "Point", "coordinates": [ 130.526274199999989, 31.6527034 ] } },
{ "type": "Feature", "properties": { "内容": "デイサービスかなで【認知症対応型通所介護】西田３丁目１５－５", "url": "https://www.kaigokensaku.mhlw.go.jp/46/index.php?action_kouhyou_detail_004_kani=true&JigyosyoCd=4690102639-00&ServiceCd=720&Type=search", "url2": "https://hayashi-care.com/" }, "geometry": { "type": "Point", "coordinates": [ 130.537253203704807, 31.585353551305023 ] } },
{ "type": "Feature", "properties": { "内容": "さくら・さくらんぼ【認知症対応型通所介護】鹿児島県鹿児島市星ヶ峯３丁目４６番2-1", "url": "https://www.kaigokensaku.mhlw.go.jp/46/index.php?action_kouhyou_detail_004_kani=true&JigyosyoCd=4690101169-00&ServiceCd=720&Type=search", "url2": "http://www.seseragi-kagoshima.com/" }, "geometry": { "type": "Point", "coordinates": [ 130.492583599999989, 31.5823379 ] } },
{ "type": "Feature", "properties": { "内容": "ＳＵＮ【認知症対応型通所介護】鹿児島県鹿児島市星ヶ峯３丁目28番12号", "url": "https://www.kaigokensaku.mhlw.go.jp/46/index.php?action_kouhyou_detail_004_kani=true&JigyosyoCd=4690101342-00&ServiceCd=720&Type=search", "url2": "http.//www.seseragi-kagoshima.com/" }, "geometry": { "type": "Point", "coordinates": [ 130.49413340000001, 31.5812991 ] } },
{ "type": "Feature", "properties": { "内容": "デイサービスセンターにじの郷たにやま・本町【認知症対応型通所介護】鹿児島市谷山中央３丁目４５８２番地谷山中央ビル２階", "url": "https://www.kaigokensaku.mhlw.go.jp/46/index.php?action_kouhyou_detail_004_kani=true&JigyosyoCd=4670104126-00&ServiceCd=720&Type=search", "url2": "http://nizinosato.com/" }, "geometry": { "type": "Point", "coordinates": [ 130.518624400000022, 31.5200861 ] } },
{ "type": "Feature", "properties": { "内容": "デイサービスセンターあしたの風【認知症対応型通所介護】鹿児島市小原町９番２８号", "url": "https://www.kaigokensaku.mhlw.go.jp/46/index.php?action_kouhyou_detail_004_kani=true&JigyosyoCd=4690100054-00&ServiceCd=720&Type=search", "url2": "http://www.aitoyui.com/top.hyml" }, "geometry": { "type": "Point", "coordinates": [ 130.5299642, 31.5420007 ] } },
{ "type": "Feature", "properties": { "内容": "南国与次郎デイサービス【認知症対応型通所介護】鹿児島市与次郎1丁目２－１６南国与次郎ケアハイツ", "url": "https://www.kaigokensaku.mhlw.go.jp/46/index.php?action_kouhyou_detail_004_kani=true&JigyosyoCd=4690101052-00&ServiceCd=720&Type=search", "url2": null }, "geometry": { "type": "Point", "coordinates": [ 130.560441299999979, 31.5686735 ] } },
{ "type": "Feature", "properties": { "内容": "七福神　ララの家【認知症対応型通所介護】鹿児島県鹿児島市城西1丁目1－5ララシャンス七福神　4階", "url": "https://www.kaigokensaku.mhlw.go.jp/46/index.php?action_kouhyou_detail_004_kani=true&JigyosyoCd=4690101847-00&ServiceCd=720&Type=search", "url2": "www.729729.jp" }, "geometry": { "type": "Point", "coordinates": [ 130.54234740000004, 31.5930535 ] } },
{ "type": "Feature", "properties": { "内容": "サポートセンター　チャオ【認知症対応型通所介護】鹿児島県鹿児島市鷹師２丁目5-2", "url": "https://www.kaigokensaku.mhlw.go.jp/46/index.php?action_kouhyou_detail_004_kani=true&JigyosyoCd=4690101334-00&ServiceCd=720&Type=search", "url2": "http://www.729729.jp/" }, "geometry": { "type": "Point", "coordinates": [ 130.542487481614643, 31.590529968202496 ] } },
{ "type": "Feature", "properties": { "内容": "デイサービスセンター花【認知症対応型通所介護】下荒田二丁目1番16号ローズタウン202号", "url": "https://www.kaigokensaku.mhlw.go.jp/46/index.php?action_kouhyou_detail_004_kani=true&JigyosyoCd=4690100088-00&ServiceCd=720&Type=search", "url2": "hana@peace-harmony.jp" }, "geometry": { "type": "Point", "coordinates": [ 130.558588500000042, 31.5739507 ] } },
{ "type": "Feature", "properties": { "内容": "デイサービス　ふるさとの家郡山【認知症対応型通所介護】東俣町３８５３", "url": "https://www.kaigokensaku.mhlw.go.jp/46/index.php?action_kouhyou_detail_004_kani=true&JigyosyoCd=4690100187-00&ServiceCd=720&Type=search", "url2": "http://www.maroon.dti.ne.jp/syoueikai/" }, "geometry": { "type": "Point", "coordinates": [ 130.502151899999944, 31.6877823 ] } },
{ "type": "Feature", "properties": { "内容": "南国鴨池デイサービス【認知症対応型通所介護】下荒田４－４６－１６南国鴨池デイサービス", "url": "https://www.kaigokensaku.mhlw.go.jp/46/index.php?action_kouhyou_detail_004_kani=true&JigyosyoCd=4690100609-00&ServiceCd=720&Type=search", "url2": "http://www.nangoku-lc.com/" }, "geometry": { "type": "Point", "coordinates": [ 130.554336299999932, 31.5668652 ] } },
{ "type": "Feature", "properties": { "内容": "共用型認知症対応型デイサービス　ヴィラ　サフラン【認知症対応型通所介護】鹿児島県鹿屋市郷之原町12584番地", "url": "https://www.kaigokensaku.mhlw.go.jp/46/index.php?action_kouhyou_detail_004_kani=true&JigyosyoCd=4670300831-00&ServiceCd=720&Type=search", "url2": "http://sahuran.com/" }, "geometry": { "type": "Point", "coordinates": [ 130.8217651, 31.3865516 ] } },
{ "type": "Feature", "properties": { "内容": "グループホームきらら内　共用デイサービス　会心【認知症対応型通所介護】鹿児島県鹿屋市吾平町麓3766番地1", "url": "https://www.kaigokensaku.mhlw.go.jp/46/index.php?action_kouhyou_detail_004_kani=true&JigyosyoCd=4690300050-00&ServiceCd=720&Type=search", "url2": "http://www.minc.ne.jp/osasio/access.html" }, "geometry": { "type": "Point", "coordinates": [ 130.892747226458738, 31.323567579586825 ] } },
{ "type": "Feature", "properties": { "内容": "デイサービス我が家【認知症対応型通所介護】鹿屋市輝北町上百引1919-1", "url": "https://www.kaigokensaku.mhlw.go.jp/46/index.php?action_kouhyou_detail_004_kani=true&JigyosyoCd=4690300100-00&ServiceCd=720&Type=search", "url2": "http://medicalwill.info/" }, "geometry": { "type": "Point", "coordinates": [ 130.8756141, 31.5509928 ] } },
{ "type": "Feature", "properties": { "内容": "はぁと共用デイサービス【認知症対応型通所介護】横山町1974-3グループホームはぁと", "url": "https://www.kaigokensaku.mhlw.go.jp/46/index.php?action_kouhyou_detail_004_kani=true&JigyosyoCd=4690300118-00&ServiceCd=720&Type=search", "url2": null }, "geometry": { "type": "Point", "coordinates": [ 130.8354349, 31.3461809 ] } },
{ "type": "Feature", "properties": { "内容": "デイサービスセンター出水の里さつき【認知症対応型通所介護】出水市境町１８２２", "url": "https://www.kaigokensaku.mhlw.go.jp/46/index.php?action_kouhyou_detail_004_kani=true&JigyosyoCd=4670800129-00&ServiceCd=720&Type=search", "url2": "http://www.izumi-kouseikai.or.jp" }, "geometry": { "type": "Point", "coordinates": [ 130.359767599999941, 32.1661337 ] } },
{ "type": "Feature", "properties": { "内容": "介護サービスセンター水引　デイサービスてるてる【認知症対応型通所介護】鹿児島県薩摩川内市網津町4915番地1", "url": "https://www.kaigokensaku.mhlw.go.jp/46/index.php?action_kouhyou_detail_004_kani=true&JigyosyoCd=4690200243-00&ServiceCd=720&Type=search", "url2": "https://shimonzu.jp/" }, "geometry": { "type": "Point", "coordinates": [ 130.223958330024743, 31.866733258853014 ] } },
{ "type": "Feature", "properties": { "内容": "デイサービスひらさ【認知症対応型通所介護】薩摩川内市白和町９番２７号", "url": "https://www.kaigokensaku.mhlw.go.jp/46/index.php?action_kouhyou_detail_004_kani=true&JigyosyoCd=4690200052-00&ServiceCd=720&Type=search", "url2": "https://ajisaien-kagoshima.com" }, "geometry": { "type": "Point", "coordinates": [ 130.309941, 31.8187668 ] } },
{ "type": "Feature", "properties": { "内容": "デイサービスセンター　みどり【認知症対応型通所介護】鹿児島県薩摩川内市祁答院町上手500番地7", "url": "https://www.kaigokensaku.mhlw.go.jp/46/index.php?action_kouhyou_detail_004_kani=true&JigyosyoCd=4690200151-00&ServiceCd=720&Type=search", "url2": "http://www.mikurakai.or.jp" }, "geometry": { "type": "Point", "coordinates": [ 130.5138594, 31.8668962 ] } },
{ "type": "Feature", "properties": { "内容": "デイサービス　風楽の家【認知症対応型通所介護】鹿児島県薩摩川内市田崎町630-18", "url": "https://www.kaigokensaku.mhlw.go.jp/46/index.php?action_kouhyou_detail_004_kani=true&JigyosyoCd=4690200128-00&ServiceCd=720&Type=search", "url2": "ichihuku.jp" }, "geometry": { "type": "Point", "coordinates": [ 130.328545, 31.8195366 ] } },
{ "type": "Feature", "properties": { "内容": "認知症対応型デイサービスいきいきハウス東郷【認知症対応型通所介護】鹿児島県薩摩川内市東郷町斧淵398-1", "url": "https://www.kaigokensaku.mhlw.go.jp/46/index.php?action_kouhyou_detail_004_kani=true&JigyosyoCd=4691500211-00&ServiceCd=720&Type=search", "url2": "https://argoline.co.jp/" }, "geometry": { "type": "Point", "coordinates": [ 130.336320200000046, 31.8635401 ] } },
{ "type": "Feature", "properties": { "内容": "デイサービスひおきの家【認知症対応型通所介護】鹿児島県日置市日吉町日置375", "url": "https://www.kaigokensaku.mhlw.go.jp/46/index.php?action_kouhyou_detail_004_kani=true&JigyosyoCd=4691500286-00&ServiceCd=720&Type=search", "url2": "http://miyuki-clinic.net" }, "geometry": { "type": "Point", "coordinates": [ 130.344565500000044, 31.5890299 ] } },
{ "type": "Feature", "properties": { "内容": "グループホームぬくもりの里【認知症対応型通所介護】鹿児島県曽於市大隅町中之内6078番地9", "url": "https://www.kaigokensaku.mhlw.go.jp/46/index.php?action_kouhyou_detail_004_kani=true&JigyosyoCd=4676300140-00&ServiceCd=720&Type=search", "url2": "https://www.nukumorisoocity.com" }, "geometry": { "type": "Point", "coordinates": [ 130.969588298147528, 31.629540737850217 ] } },
{ "type": "Feature", "properties": { "内容": "認知症対応型ウォームハートてんとうむし【認知症対応型通所介護】鹿児島県曾於市財部町下財部1686-1認知症対応型ウォームハートてんとうむし", "url": "https://www.kaigokensaku.mhlw.go.jp/46/index.php?action_kouhyou_detail_004_kani=true&JigyosyoCd=4691600227-00&ServiceCd=720&Type=search", "url2": "dayservicetentoumushi@gmailcom" }, "geometry": { "type": "Point", "coordinates": [ 131.009483099999983, 31.724703 ] } },
{ "type": "Feature", "properties": { "内容": "認知症対応型通所介護うのきデイサービス【認知症対応型通所介護】鹿児島県霧島市国分中央３丁目１９－２０", "url": "https://www.kaigokensaku.mhlw.go.jp/46/index.php?action_kouhyou_detail_004_kani=true&JigyosyoCd=4671200394-00&ServiceCd=720&Type=search", "url2": "http://syunseikai-unoki.jp/" }, "geometry": { "type": "Point", "coordinates": [ 130.768749087033029, 31.737190389498306 ] } },
{ "type": "Feature", "properties": { "内容": "デイサービスみそめの里【認知症対応型通所介護】霧島市溝辺町有川３２７－１０", "url": "https://www.kaigokensaku.mhlw.go.jp/46/index.php?action_kouhyou_detail_004_kani=true&JigyosyoCd=4691200259-00&ServiceCd=720&Type=search", "url2": null }, "geometry": { "type": "Point", "coordinates": [ 130.680476499999941, 31.8301935 ] } },
{ "type": "Feature", "properties": { "内容": "かしょうえんデイにこにこ【認知症対応型通所介護】霧島市国分清水５丁目１-４９社会福祉法人　政典会　特別養護老人ホーム　嘉祥園", "url": "https://www.kaigokensaku.mhlw.go.jp/46/index.php?action_kouhyou_detail_004_kani=true&JigyosyoCd=4671200113-00&ServiceCd=720&Type=search", "url2": "seitenkai.jp/kashoen/index.html" }, "geometry": { "type": "Point", "coordinates": [ 130.790513799999985, 31.760386 ] } },
{ "type": "Feature", "properties": { "内容": "ひだまり【認知症対応型通所介護】隼人町小田252-4", "url": "https://www.kaigokensaku.mhlw.go.jp/46/index.php?action_kouhyou_detail_004_kani=true&JigyosyoCd=4691200051-00&ServiceCd=720&Type=search", "url2": null }, "geometry": { "type": "Point", "coordinates": [ 130.726087900000039, 31.7374066 ] } },
{ "type": "Feature", "properties": { "内容": "デイサービスセンター　今日館【認知症対応型通所介護】国分中央３丁目１６番６号", "url": "https://www.kaigokensaku.mhlw.go.jp/46/index.php?action_kouhyou_detail_004_kani=true&JigyosyoCd=4691200119-00&ServiceCd=720&Type=search", "url2": "http://www.yoshimitsu-group.com" }, "geometry": { "type": "Point", "coordinates": [ 130.770434350926166, 31.738930721912023 ] } },
{ "type": "Feature", "properties": { "内容": "デイサービス笑楽園【認知症対応型通所介護】鹿児島県いちき串木野市生福9874番地-235", "url": "https://www.kaigokensaku.mhlw.go.jp/46/index.php?action_kouhyou_detail_004_kani=true&JigyosyoCd=4690500071-00&ServiceCd=720&Type=search", "url2": null }, "geometry": { "type": "Point", "coordinates": [ 130.302222532207537, 31.715581464384943 ] } },
{ "type": "Feature", "properties": { "内容": "遊逢【認知症対応型通所介護】南さつま市加世田内山田２５８０番地かせだフレンドホーム併設", "url": "https://www.kaigokensaku.mhlw.go.jp/46/index.php?action_kouhyou_detail_004_kani=true&JigyosyoCd=4691100111-00&ServiceCd=720&Type=search", "url2": "https://magokoro.or.jp/service/kagoshima/ds_yuai/" }, "geometry": { "type": "Point", "coordinates": [ 130.317132334918142, 31.392141158374798 ] } },
{ "type": "Feature", "properties": { "内容": "山田デイサービスセンターやすらぎの里【認知症対応型通所介護】鹿児島県姶良市下名2796番地", "url": "https://www.kaigokensaku.mhlw.go.jp/46/index.php?action_kouhyou_detail_004_kani=true&JigyosyoCd=4694500259-00&ServiceCd=720&Type=search", "url2": "https://www.aira-yasuragi.com/service/yamada-day-service/" }, "geometry": { "type": "Point", "coordinates": [ 130.611835, 31.7713751 ] } },
{ "type": "Feature", "properties": { "内容": "デイサービス憩いの場高樋【認知症対応型通所介護】鹿児島県姶良市西餅田29-6", "url": "https://www.kaigokensaku.mhlw.go.jp/46/index.php?action_kouhyou_detail_004_kani=true&JigyosyoCd=4694500127-00&ServiceCd=720&Type=search", "url2": "https://careline-group.jp" }, "geometry": { "type": "Point", "coordinates": [ 130.626687564418035, 31.737676988743701 ] } },
{ "type": "Feature", "properties": { "内容": "喜界町社会福祉協議会　グループホームがじゅまる【認知症対応型通所介護】鹿児島県大島郡喜界町大字志戸桶4545番地1", "url": "https://www.kaigokensaku.mhlw.go.jp/46/index.php?action_kouhyou_detail_004_kani=true&JigyosyoCd=4699000024-00&ServiceCd=720&Type=search", "url2": null }, "geometry": { "type": "Point", "coordinates": [ 130.028191683328259, 28.360443960273948 ] } },
{ "type": "Feature", "properties": { "内容": "併設型指定認知症対応型通所介護事業所　にこにこ友愛【認知症対応型通所介護】鹿児島県大島郡伊仙町伊仙2124-2", "url": "https://www.kaigokensaku.mhlw.go.jp/46/index.php?action_kouhyou_detail_004_kani=true&JigyosyoCd=4679300063-00&ServiceCd=720&Type=search", "url2": "tokunosima_fukusikai@image.ocn,ne.jp" }, "geometry": { "type": "Point", "coordinates": [ 128.938590417335519, 27.67645386380072 ] } },
{ "type": "Feature", "properties": { "内容": "グループホームあおば【認知症対応型通所介護】鹿児島県大島郡知名町大字余多７２２番地２", "url": "https://www.kaigokensaku.mhlw.go.jp/46/index.php?action_kouhyou_detail_004_kani=true&JigyosyoCd=4699500080-00&ServiceCd=720&Type=search", "url2": "ikoinomori-erabu.com/60025122/wp-admin/" }, "geometry": { "type": "Point", "coordinates": [ 128.606965531768878, 27.361068253097681 ] } }
]
}
