{
"type": "FeatureCollection",
"name": "geo_46_介護医療院",
"crs": { "type": "name", "properties": { "name": "urn:ogc:def:crs:OGC:1.3:CRS84" } },
"features": [
{ "type": "Feature", "properties": { "内容": "社会福祉法人恩賜財団済生会かごしま介護医療院【介護医療院】鹿児島県鹿児島市南林寺町1番11号（済生会鹿児島病院内）", "url": "https://www.kaigokensaku.mhlw.go.jp/46/index.php?action_kouhyou_detail_004_kani=true&JigyosyoCd=46B0100075-00&ServiceCd=550&Type=search", "url2": "http://www.saiseikai-kagoshima.jp/" }, "geometry": { "type": "Point", "coordinates": [ 130.5579669, 31.5848272 ] } },
{ "type": "Feature", "properties": { "内容": "冨永内科介護医療院【介護医療院】鹿児島県鹿児島市西伊敷4丁目7番4号", "url": "https://www.kaigokensaku.mhlw.go.jp/46/index.php?action_kouhyou_detail_004_kani=true&JigyosyoCd=46B0100042-00&ServiceCd=550&Type=search", "url2": null }, "geometry": { "type": "Point", "coordinates": [ 130.5326303, 31.6404779 ] } },
{ "type": "Feature", "properties": { "内容": "川島病院介護医療院【介護医療院】鹿児島市谷山中央1丁目4196番地川島病院４階", "url": "https://www.kaigokensaku.mhlw.go.jp/46/index.php?action_kouhyou_detail_004_kani=true&JigyosyoCd=46B0100018-00&ServiceCd=550&Type=search", "url2": "https://kawashima-hp.com/" }, "geometry": { "type": "Point", "coordinates": [ 130.518963465606703, 31.525923186180322 ] } },
{ "type": "Feature", "properties": { "内容": "桜島病院介護医療院【介護医療院】鹿児島県鹿児島市野尻町５９", "url": "https://www.kaigokensaku.mhlw.go.jp/46/index.php?action_kouhyou_detail_004_kani=true&JigyosyoCd=46B0100026-00&ServiceCd=550&Type=search", "url2": "http://www.tenyoukai.org/sakurajima/index.html" }, "geometry": { "type": "Point", "coordinates": [ 130.616374599999972, 31.5680132 ] } },
{ "type": "Feature", "properties": { "内容": "西田橋介護医療院【介護医療院】平之町１番１７号西田橋介護医療院", "url": "https://www.kaigokensaku.mhlw.go.jp/46/index.php?action_kouhyou_detail_004_kani=true&JigyosyoCd=46B0100059-00&ServiceCd=550&Type=search", "url2": "https://kagoiryo.shouaikai.com/" }, "geometry": { "type": "Point", "coordinates": [ 130.546183971827674, 31.589584762800296 ] } },
{ "type": "Feature", "properties": { "内容": "吉田記念病院介護医療院【介護医療院】鹿児島県鹿児島市本名町470番地", "url": "https://www.kaigokensaku.mhlw.go.jp/46/index.php?action_kouhyou_detail_004_kani=true&JigyosyoCd=46B0100034-00&ServiceCd=550&Type=search", "url2": "https://www.sekisaikai.jp/index.php" }, "geometry": { "type": "Point", "coordinates": [ 130.546570200000019, 31.6920168 ] } },
{ "type": "Feature", "properties": { "内容": "野上病院介護医療院【介護医療院】鹿児島県鹿児島市小松原1丁目４番1号", "url": "https://www.kaigokensaku.mhlw.go.jp/46/index.php?action_kouhyou_detail_004_kani=true&JigyosyoCd=46B0100067-00&ServiceCd=550&Type=search", "url2": "https://www.nogamibyouin.com" }, "geometry": { "type": "Point", "coordinates": [ 130.535354899999987, 31.5396815 ] } },
{ "type": "Feature", "properties": { "内容": "井ノ上病院　介護医療院【介護医療院】鹿児島県鹿屋市王子町３９８０番地１", "url": "https://www.kaigokensaku.mhlw.go.jp/46/index.php?action_kouhyou_detail_004_kani=true&JigyosyoCd=46B0300048-00&ServiceCd=550&Type=search", "url2": "https://inouehosp.org/" }, "geometry": { "type": "Point", "coordinates": [ 130.8628909, 31.4017557 ] } },
{ "type": "Feature", "properties": { "内容": "かのや東病院　介護医療院【介護医療院】鹿児島県鹿屋市笠之原町2923-1　3Ｆ", "url": "https://www.kaigokensaku.mhlw.go.jp/46/index.php?action_kouhyou_detail_004_kani=true&JigyosyoCd=46B0300030-00&ServiceCd=550&Type=search", "url2": null }, "geometry": { "type": "Point", "coordinates": [ 130.8857208, 31.387076 ] } },
{ "type": "Feature", "properties": { "内容": "介護医療院リリーフ【介護医療院】鹿児島県鹿屋市寿3丁目11番2号", "url": "https://www.kaigokensaku.mhlw.go.jp/46/index.php?action_kouhyou_detail_004_kani=true&JigyosyoCd=46B0300014-00&ServiceCd=550&Type=search", "url2": "https://fukuda-hos.org/" }, "geometry": { "type": "Point", "coordinates": [ 130.8709465, 31.3875816 ] } },
{ "type": "Feature", "properties": { "内容": "立神リハビリテーション温泉病院介護医療院【介護医療院】鹿児島県枕崎市火之神町620番地", "url": "https://www.kaigokensaku.mhlw.go.jp/46/index.php?action_kouhyou_detail_004_kani=true&JigyosyoCd=4610410336-00&ServiceCd=550&Type=search", "url2": "https://tategami.ko-seikai.jp/" }, "geometry": { "type": "Point", "coordinates": [ 130.276545700000042, 31.2537428 ] } },
{ "type": "Feature", "properties": { "内容": "出水郡医師会立第二病院介護医療院【介護医療院】鹿児島県出水市高尾野町柴引2574", "url": "https://www.kaigokensaku.mhlw.go.jp/46/index.php?action_kouhyou_detail_004_kani=true&JigyosyoCd=46B0800013-00&ServiceCd=550&Type=search", "url2": "https://izumidaini.jp/" }, "geometry": { "type": "Point", "coordinates": [ 130.302417, 32.0499222 ] } },
{ "type": "Feature", "properties": { "内容": "介護医療院　坂口医院【介護医療院】鹿児島県薩摩川内市大王町1-1", "url": "https://www.kaigokensaku.mhlw.go.jp/46/index.php?action_kouhyou_detail_004_kani=true&JigyosyoCd=46B1500026-00&ServiceCd=550&Type=search", "url2": "https://sakaguchi-hospital.jp/" }, "geometry": { "type": "Point", "coordinates": [ 130.299668699999984, 31.8236843 ] } },
{ "type": "Feature", "properties": { "内容": "博悠会温泉病院介護医療院【介護医療院】鹿児島県日置市東市来町湯田4648番地", "url": "https://www.kaigokensaku.mhlw.go.jp/46/index.php?action_kouhyou_detail_004_kani=true&JigyosyoCd=46B1500018-00&ServiceCd=550&Type=search", "url2": "https://hakuyukai-group.studio.site/" }, "geometry": { "type": "Point", "coordinates": [ 130.349290900000028, 31.6752566 ] } },
{ "type": "Feature", "properties": { "内容": "財部記念介護医療院【介護医療院】鹿児島県曽於市財部町南俣3619番地1", "url": "https://www.kaigokensaku.mhlw.go.jp/46/index.php?action_kouhyou_detail_004_kani=true&JigyosyoCd=46B1600016-00&ServiceCd=550&Type=search", "url2": "https://takarabekai.com/" }, "geometry": { "type": "Point", "coordinates": [ 130.962022599999955, 31.7041491 ] } },
{ "type": "Feature", "properties": { "内容": "国分中央病院介護医療院【介護医療院】鹿児島県霧島市国分中央1丁目25-70", "url": "https://www.kaigokensaku.mhlw.go.jp/46/index.php?action_kouhyou_detail_004_kani=true&JigyosyoCd=46B1200031-00&ServiceCd=550&Type=search", "url2": "http://www.misakikai.or.jp" }, "geometry": { "type": "Point", "coordinates": [ 130.768628799999988, 31.7417869 ] } },
{ "type": "Feature", "properties": { "内容": "介護医療院すぎやす【介護医療院】鹿児島県霧島市霧島田口2143番地", "url": "https://www.kaigokensaku.mhlw.go.jp/46/index.php?action_kouhyou_detail_004_kani=true&JigyosyoCd=46B1200023-00&ServiceCd=550&Type=search", "url2": "http://www.kouseikai.info/" }, "geometry": { "type": "Point", "coordinates": [ 130.855638199999987, 31.84854831146308 ] } },
{ "type": "Feature", "properties": { "内容": "介護医療院　悠愛【介護医療院】鹿児島県霧島市隼人町小田２４５番地", "url": "https://www.kaigokensaku.mhlw.go.jp/46/index.php?action_kouhyou_detail_004_kani=true&JigyosyoCd=46B1200015-00&ServiceCd=550&Type=search", "url2": null }, "geometry": { "type": "Point", "coordinates": [ 130.718391800000063, 31.7399064 ] } },
{ "type": "Feature", "properties": { "内容": "市来内科介護医療院【介護医療院】鹿児島県いちき串木野市大里3869-6", "url": "https://www.kaigokensaku.mhlw.go.jp/46/index.php?action_kouhyou_detail_004_kani=true&JigyosyoCd=46B0500019-00&ServiceCd=550&Type=search", "url2": "https://ichiki-naikahifuka.com/" }, "geometry": { "type": "Point", "coordinates": [ 130.298389238623059, 31.687023282712023 ] } },
{ "type": "Feature", "properties": { "内容": "南さつま市立坊津病院介護医療院【介護医療院】鹿児島県南さつま市坊津町泊19番地", "url": "https://www.kaigokensaku.mhlw.go.jp/46/index.php?action_kouhyou_detail_004_kani=true&JigyosyoCd=46B4000016-00&ServiceCd=550&Type=search", "url2": "https://www.city.minamisatsuma.lg.jp/bounotsuhospital/" }, "geometry": { "type": "Point", "coordinates": [ 130.2246394, 31.2749478 ] } },
{ "type": "Feature", "properties": { "内容": "介護医療院とうご【介護医療院】鹿児島県志布志市志布志町志布志一丁目11番12号", "url": "https://www.kaigokensaku.mhlw.go.jp/46/index.php?action_kouhyou_detail_004_kani=true&JigyosyoCd=46B1700014-00&ServiceCd=550&Type=search", "url2": "http://www.sayuukai.or.jp/tougo/index.php" }, "geometry": { "type": "Point", "coordinates": [ 131.102814099999932, 31.4771384 ] } },
{ "type": "Feature", "properties": { "内容": "大島郡医師会病院介護医療院【介護医療院】鹿児島県奄美市名瀬小宿3411番地", "url": "https://www.kaigokensaku.mhlw.go.jp/46/index.php?action_kouhyou_detail_004_kani=true&JigyosyoCd=46B0700015-00&ServiceCd=550&Type=search", "url2": "https://hp.oshima-med.or.jp/" }, "geometry": { "type": "Point", "coordinates": [ 129.474432499999978, 28.386565 ] } },
{ "type": "Feature", "properties": { "内容": "南薩ケアほすぴたる介護医療院【介護医療院】川辺町平山5860", "url": "https://www.kaigokensaku.mhlw.go.jp/46/index.php?action_kouhyou_detail_004_kani=true&JigyosyoCd=46B4300010-00&ServiceCd=550&Type=search", "url2": "http://k-nch.jp/" }, "geometry": { "type": "Point", "coordinates": [ 130.395127589688144, 31.388908246448882 ] } },
{ "type": "Feature", "properties": { "内容": "水間病院　介護医療院【介護医療院】鹿児島県伊佐市菱刈前目2125番地水間病院", "url": "https://www.kaigokensaku.mhlw.go.jp/46/index.php?action_kouhyou_detail_004_kani=true&JigyosyoCd=46B4400018-00&ServiceCd=550&Type=search", "url2": "http://www.mizumahp.company.guide.jp/" }, "geometry": { "type": "Point", "coordinates": [ 130.643737200000032, 32.0110168 ] } },
{ "type": "Feature", "properties": { "内容": "加治木温泉病院介護医療院【介護医療院】鹿児島県姶良市加治木町木田4714番地", "url": "https://www.kaigokensaku.mhlw.go.jp/46/index.php?action_kouhyou_detail_004_kani=true&JigyosyoCd=46B4500015-00&ServiceCd=550&Type=search", "url2": "http://www.gyokushoukai.com/" }, "geometry": { "type": "Point", "coordinates": [ 130.663017099999934, 31.7498792 ] } },
{ "type": "Feature", "properties": { "内容": "介護医療院おはな【介護医療院】鹿児島県姶良市加治木町反土2156番地5", "url": "https://www.kaigokensaku.mhlw.go.jp/46/index.php?action_kouhyou_detail_004_kani=true&JigyosyoCd=46B4500023-00&ServiceCd=550&Type=search", "url2": "https://www.joy-mc.com/ohana" }, "geometry": { "type": "Point", "coordinates": [ 130.6651776, 31.7463962 ] } },
{ "type": "Feature", "properties": { "内容": "ザ王病院介護医療院【介護医療院】鹿児島県姶良市加治木町反土２１５１－１", "url": "https://www.kaigokensaku.mhlw.go.jp/46/index.php?action_kouhyou_detail_004_kani=true&JigyosyoCd=46B4500031-00&ServiceCd=550&Type=search", "url2": "http://zaouhp.jp" }, "geometry": { "type": "Point", "coordinates": [ 130.665641099999988, 31.7463187 ] } },
{ "type": "Feature", "properties": { "内容": "立志クリニック介護医療院【介護医療院】鹿児島県薩摩郡さつま町湯田1502-10", "url": "https://www.kaigokensaku.mhlw.go.jp/46/index.php?action_kouhyou_detail_004_kani=true&JigyosyoCd=46B3900018-00&ServiceCd=550&Type=search", "url2": null }, "geometry": { "type": "Point", "coordinates": [ 130.4664851, 31.9499773 ] } },
{ "type": "Feature", "properties": { "内容": "あいらの森ホスピタル介護医療院【介護医療院】鹿児島県姶良郡湧水町北方１８５４", "url": "https://www.kaigokensaku.mhlw.go.jp/46/index.php?action_kouhyou_detail_004_kani=true&JigyosyoCd=46B5700010-00&ServiceCd=550&Type=search", "url2": "https://airaforest.jp/" }, "geometry": { "type": "Point", "coordinates": [ 130.7129511, 31.9577537 ] } }
]
}
