{
"type": "FeatureCollection",
"name": "geo_46_幼稚園",
"crs": { "type": "name", "properties": { "name": "urn:ogc:def:crs:EPSG::6668" } },
"features": [
{ "type": "Feature", "properties": { "P29_001": "46201", "P29_002": "A146110000019", "P29_003": "16011", "P29_004": "鹿児島大学教育学部附属幼稚園", "P29_005": "鹿児島県鹿児島市郡元1-20-15", "P29_006": "1", "P29_007": "0", "P29_008": "00", "P29_009": null }, "geometry": { "type": "Point", "coordinates": [ 130.545886463487165, 31.567101357976256 ] } },
{ "type": "Feature", "properties": { "P29_001": "46222", "P29_002": "A146210000017", "P29_003": "16011", "P29_004": "奄美市立名瀬小学校附属幼稚園", "P29_005": "鹿児島県奄美市名瀬幸町25-16", "P29_006": "3", "P29_007": "0", "P29_008": "00", "P29_009": null }, "geometry": { "type": "Point", "coordinates": [ 129.493039725688845, 28.377318147238544 ] } },
{ "type": "Feature", "properties": { "P29_001": "46222", "P29_002": "A146210000026", "P29_003": "16011", "P29_004": "奄美市立奄美小学校附属幼稚園", "P29_005": "鹿児島県奄美市名瀬久里町15-10", "P29_006": "3", "P29_007": "0", "P29_008": "00", "P29_009": null }, "geometry": { "type": "Point", "coordinates": [ 129.498238182802282, 28.37217908776023 ] } },
{ "type": "Feature", "properties": { "P29_001": "46222", "P29_002": "A146210000035", "P29_003": "16011", "P29_004": "奄美市立朝日小学校附属幼稚園型認定こども園", "P29_005": "鹿児島県奄美市名瀬朝日町31-5", "P29_006": "3", "P29_007": "0", "P29_008": "00", "P29_009": null }, "geometry": { "type": "Point", "coordinates": [ 129.530457498120285, 28.398146043164122 ] } },
{ "type": "Feature", "properties": { "P29_001": "46219", "P29_002": "A146210000044", "P29_003": "16011", "P29_004": "いちき串木野市立市来幼稚園", "P29_005": "鹿児島県いちき串木野市大里3731", "P29_006": "3", "P29_007": "0", "P29_008": "00", "P29_009": null }, "geometry": { "type": "Point", "coordinates": [ 130.295204145898907, 31.685213804928701 ] } },
{ "type": "Feature", "properties": { "P29_001": "46201", "P29_002": "A146210000053", "P29_003": "16011", "P29_004": "鹿児島市立松元幼稚園", "P29_005": "鹿児島県鹿児島市上谷口町3366-10", "P29_006": "3", "P29_007": "0", "P29_008": "00", "P29_009": null }, "geometry": { "type": "Point", "coordinates": [ 130.430008177961412, 31.59678051981566 ] } },
{ "type": "Feature", "properties": { "P29_001": "46215", "P29_002": "A146210000062", "P29_003": "16011", "P29_004": "薩摩川内市立東郷幼稚園", "P29_005": "鹿児島県薩摩川内市東郷町斧渕4773-2", "P29_006": "3", "P29_007": "0", "P29_008": "00", "P29_009": null }, "geometry": { "type": "Point", "coordinates": [ 130.33731562161995, 31.867533969993456 ] } },
{ "type": "Feature", "properties": { "P29_001": "46208", "P29_002": "A146210000071", "P29_003": "16011", "P29_004": "出水市立野田小学校附属幼稚園", "P29_005": "鹿児島県出水市野田町上名348-1", "P29_006": "3", "P29_007": "0", "P29_008": "00", "P29_009": null }, "geometry": { "type": "Point", "coordinates": [ 130.267316996568866, 32.0572189976643 ] } },
{ "type": "Feature", "properties": { "P29_001": "46225", "P29_002": "A146210000080", "P29_003": "16011", "P29_004": "姶良市立建昌幼稚園", "P29_005": "鹿児島県姶良市東餅田2648-2", "P29_006": "3", "P29_007": "0", "P29_008": "00", "P29_009": null }, "geometry": { "type": "Point", "coordinates": [ 130.630732557359323, 31.726374132958323 ] } },
{ "type": "Feature", "properties": { "P29_001": "46218", "P29_002": "A146210000099", "P29_003": "16011", "P29_004": "霧島市立富隈幼稚園", "P29_005": "鹿児島県霧島市隼人町真孝301-1", "P29_006": "3", "P29_007": "0", "P29_008": "00", "P29_009": null }, "geometry": { "type": "Point", "coordinates": [ 130.734118679270324, 31.726120558500007 ] } },
{ "type": "Feature", "properties": { "P29_001": "46452", "P29_002": "A146210000106", "P29_003": "16011", "P29_004": "湧水町立吉松幼稚園", "P29_005": "鹿児島県姶良郡湧水町中津川447-1", "P29_006": "3", "P29_007": "0", "P29_008": "00", "P29_009": null }, "geometry": { "type": "Point", "coordinates": [ 130.74614417182525, 32.01275743370563 ] } },
{ "type": "Feature", "properties": { "P29_001": "46216", "P29_002": "A146210000115", "P29_003": "16011", "P29_004": "日置市立飯牟礼幼稚園", "P29_005": "鹿児島県日置市伊集院町飯牟礼1049-1", "P29_006": "3", "P29_007": "0", "P29_008": "00", "P29_009": null }, "geometry": { "type": "Point", "coordinates": [ 130.390839821665082, 31.606130390942166 ] } },
{ "type": "Feature", "properties": { "P29_001": "46216", "P29_002": "A146210000124", "P29_003": "16011", "P29_004": "日置市立土橋幼稚園", "P29_005": "鹿児島県日置市伊集院町土橋1377", "P29_006": "3", "P29_007": "0", "P29_008": "00", "P29_009": null }, "geometry": { "type": "Point", "coordinates": [ 130.447327341758125, 31.639785675660477 ] } },
{ "type": "Feature", "properties": { "P29_001": "46218", "P29_002": "A146210000133", "P29_003": "16011", "P29_004": "霧島市立牧之原幼稚園", "P29_005": "鹿児島県霧島市福山町福山5290-61", "P29_006": "3", "P29_007": "0", "P29_008": "00", "P29_009": null }, "geometry": { "type": "Point", "coordinates": [ 130.853465753786622, 31.670399880187031 ] } },
{ "type": "Feature", "properties": { "P29_001": "46215", "P29_002": "A146210000151", "P29_003": "16011", "P29_004": "薩摩川内市立ひわき幼稚園", "P29_005": "鹿児島県薩摩川内市樋脇町塔之原3624", "P29_006": "3", "P29_007": "0", "P29_008": "00", "P29_009": null }, "geometry": { "type": "Point", "coordinates": [ 130.387092859134327, 31.817129451425295 ] } },
{ "type": "Feature", "properties": { "P29_001": "46404", "P29_002": "A146210000160", "P29_003": "16011", "P29_004": "長島町立鷹巣幼稚園", "P29_005": "鹿児島県出水郡長島町鷹巣1888", "P29_006": "3", "P29_007": "0", "P29_008": "00", "P29_009": null }, "geometry": { "type": "Point", "coordinates": [ 130.176986902101277, 32.20079052842236 ] } },
{ "type": "Feature", "properties": { "P29_001": "46225", "P29_002": "A146210000179", "P29_003": "16011", "P29_004": "姶良市立錦江幼稚園", "P29_005": "鹿児島県姶良市加治木町木田171-1", "P29_006": "3", "P29_007": "0", "P29_008": "00", "P29_009": null }, "geometry": { "type": "Point", "coordinates": [ 130.657272672006343, 31.736891713083221 ] } },
{ "type": "Feature", "properties": { "P29_001": "46533", "P29_002": "A146210000197", "P29_003": "16011", "P29_004": "和泊町立和泊幼稚園", "P29_005": "鹿児島県大島郡和泊町和泊953-1", "P29_006": "3", "P29_007": "0", "P29_008": "00", "P29_009": null }, "geometry": { "type": "Point", "coordinates": [ 128.64967261073312, 27.401156292068187 ] } },
{ "type": "Feature", "properties": { "P29_001": "46216", "P29_002": "A146210000204", "P29_003": "16011", "P29_004": "日置市立東市来幼稚園", "P29_005": "鹿児島県日置市東市来町長里178", "P29_006": "3", "P29_007": "0", "P29_008": "00", "P29_009": null }, "geometry": { "type": "Point", "coordinates": [ 130.349005542017835, 31.659142090622137 ] } },
{ "type": "Feature", "properties": { "P29_001": "46218", "P29_002": "A146210000213", "P29_003": "16011", "P29_004": "霧島市立大田幼稚園", "P29_005": "鹿児島県霧島市霧島田口64", "P29_006": "3", "P29_007": "0", "P29_008": "00", "P29_009": null }, "geometry": { "type": "Point", "coordinates": [ 130.836990023661315, 31.822364932858715 ] } },
{ "type": "Feature", "properties": { "P29_001": "46482", "P29_002": "A146210000231", "P29_003": "16011", "P29_004": "東串良町立池之原幼稚園", "P29_005": "鹿児島県肝属郡東串良町池之原1210", "P29_006": "3", "P29_007": "0", "P29_008": "00", "P29_009": null }, "geometry": { "type": "Point", "coordinates": [ 130.967052227541018, 31.391479553919851 ] } },
{ "type": "Feature", "properties": { "P29_001": "46215", "P29_002": "A146210000259", "P29_003": "16011", "P29_004": "薩摩川内市立里幼稚園", "P29_005": "鹿児島県薩摩川内市里町里1650-1", "P29_006": "3", "P29_007": "0", "P29_008": "00", "P29_009": null }, "geometry": { "type": "Point", "coordinates": [ 129.918704985528024, 31.840462288998044 ] } },
{ "type": "Feature", "properties": { "P29_001": "46208", "P29_002": "A146210000268", "P29_003": "16011", "P29_004": "出水市立鶴荘学園附属幼稚園", "P29_005": "鹿児島県出水市荘1748", "P29_006": "3", "P29_007": "0", "P29_008": "00", "P29_009": null }, "geometry": { "type": "Point", "coordinates": [ 130.280433668775714, 32.085805825943574 ] } },
{ "type": "Feature", "properties": { "P29_001": "46532", "P29_002": "A146210000277", "P29_003": "16011", "P29_004": "伊仙町立犬田布小学校附属幼稚園", "P29_005": "鹿児島県大島郡伊仙町犬田布271", "P29_006": "3", "P29_007": "0", "P29_008": "00", "P29_009": null }, "geometry": { "type": "Point", "coordinates": [ 128.908231004914427, 27.71331399998386 ] } },
{ "type": "Feature", "properties": { "P29_001": "46532", "P29_002": "A146210000286", "P29_003": "16011", "P29_004": "伊仙町立面縄小学校附属幼稚園", "P29_005": "鹿児島県大島郡伊仙町面縄671", "P29_006": "3", "P29_007": "0", "P29_008": "00", "P29_009": null }, "geometry": { "type": "Point", "coordinates": [ 128.964485319615136, 27.67259759326879 ] } },
{ "type": "Feature", "properties": { "P29_001": "46532", "P29_002": "A146210000295", "P29_003": "16011", "P29_004": "伊仙町立伊仙小学校附属幼稚園", "P29_005": "鹿児島県大島郡伊仙町伊仙2085", "P29_006": "3", "P29_007": "0", "P29_008": "00", "P29_009": null }, "geometry": { "type": "Point", "coordinates": [ 128.936055336397061, 27.672474578274748 ] } },
{ "type": "Feature", "properties": { "P29_001": "46492", "P29_002": "A146210000302", "P29_003": "16011", "P29_004": "肝付町立内之浦幼稚園", "P29_005": "鹿児島県肝属郡肝付町南方2638", "P29_006": "3", "P29_007": "0", "P29_008": "00", "P29_009": null }, "geometry": { "type": "Point", "coordinates": [ 131.074973980726128, 31.278420260666945 ] } },
{ "type": "Feature", "properties": { "P29_001": "46218", "P29_002": "A146210000311", "P29_003": "16011", "P29_004": "霧島市立陵南幼稚園", "P29_005": "鹿児島県霧島市溝辺町麓1261-22", "P29_006": "3", "P29_007": "0", "P29_008": "00", "P29_009": null }, "geometry": { "type": "Point", "coordinates": [ 130.708937651943614, 31.79661709336985 ] } },
{ "type": "Feature", "properties": { "P29_001": "46201", "P29_002": "A146210000320", "P29_003": "16011", "P29_004": "鹿児島市立桜峰幼稚園", "P29_005": "鹿児島県鹿児島市桜島松浦町355", "P29_006": "3", "P29_007": "0", "P29_008": "00", "P29_009": null }, "geometry": { "type": "Point", "coordinates": [ 130.644760736217847, 31.621096819661926 ] } },
{ "type": "Feature", "properties": { "P29_001": "46223", "P29_002": "A146210000339", "P29_003": "16011", "P29_004": "南九州市立頴娃幼稚園", "P29_005": "鹿児島県南九州市頴娃町郡9201", "P29_006": "3", "P29_007": "0", "P29_008": "00", "P29_009": null }, "geometry": { "type": "Point", "coordinates": [ 130.505568011919024, 31.234564073072697 ] } },
{ "type": "Feature", "properties": { "P29_001": "46208", "P29_002": "A146210000357", "P29_003": "16011", "P29_004": "出水市立切通小学校附属幼稚園", "P29_005": "鹿児島県出水市境町1286", "P29_006": "3", "P29_007": "0", "P29_008": "00", "P29_009": null }, "geometry": { "type": "Point", "coordinates": [ 130.364632959507446, 32.154627704813088 ] } },
{ "type": "Feature", "properties": { "P29_001": "46225", "P29_002": "A146210000366", "P29_003": "16011", "P29_004": "姶良市立加治木幼稚園", "P29_005": "鹿児島県姶良市加治木町仮屋町251", "P29_006": "3", "P29_007": "0", "P29_008": "00", "P29_009": null }, "geometry": { "type": "Point", "coordinates": [ 130.663747425024411, 31.741168072428437 ] } },
{ "type": "Feature", "properties": { "P29_001": "46505", "P29_002": "A146210000384", "P29_003": "16011", "P29_004": "屋久島町立八幡幼稚園", "P29_005": "鹿児島県熊毛郡屋久島町平内444-1", "P29_006": "3", "P29_007": "0", "P29_008": "00", "P29_009": null }, "geometry": { "type": "Point", "coordinates": [ 130.508374155190978, 30.23680300292434 ] } },
{ "type": "Feature", "properties": { "P29_001": "46532", "P29_002": "A146210000393", "P29_003": "16011", "P29_004": "伊仙町立鹿浦小学校附属幼稚園", "P29_005": "鹿児島県大島郡伊仙町阿三2206-5", "P29_006": "3", "P29_007": "0", "P29_008": "00", "P29_009": null }, "geometry": { "type": "Point", "coordinates": [ 128.919650997649768, 27.690845997060446 ] } },
{ "type": "Feature", "properties": { "P29_001": "46223", "P29_002": "A146210000400", "P29_003": "16011", "P29_004": "南九州市立知覧幼稚園", "P29_005": "鹿児島県南九州市知覧町郡14081-4", "P29_006": "3", "P29_007": "0", "P29_008": "00", "P29_009": null }, "geometry": { "type": "Point", "coordinates": [ 130.440751232484331, 31.379764561033781 ] } },
{ "type": "Feature", "properties": { "P29_001": "46215", "P29_002": "A146210000419", "P29_003": "16011", "P29_004": "薩摩川内市立城上幼稚園", "P29_005": "鹿児島県薩摩川内市城上町4387", "P29_006": "3", "P29_007": "0", "P29_008": "00", "P29_009": null }, "geometry": { "type": "Point", "coordinates": [ 130.300893896301744, 31.878288766444449 ] } },
{ "type": "Feature", "properties": { "P29_001": "46208", "P29_002": "A146210000428", "P29_003": "16011", "P29_004": "出水市立西出水小学校附属紫翠幼稚園", "P29_005": "鹿児島県出水市西出水町1055", "P29_006": "3", "P29_007": "0", "P29_008": "00", "P29_009": null }, "geometry": { "type": "Point", "coordinates": [ 130.339634916202812, 32.073828797313602 ] } },
{ "type": "Feature", "properties": { "P29_001": "46404", "P29_002": "A146210000437", "P29_003": "16011", "P29_004": "長島町立獅子島幼稚園", "P29_005": "鹿児島県出水郡長島町獅子島118", "P29_006": "3", "P29_007": "0", "P29_008": "00", "P29_009": null }, "geometry": { "type": "Point", "coordinates": [ 130.217020638829382, 32.279155741651017 ] } },
{ "type": "Feature", "properties": { "P29_001": "46222", "P29_002": "A146210000446", "P29_003": "16011", "P29_004": "奄美市立伊津部小学校附属幼稚園", "P29_005": "鹿児島県奄美市名瀬小浜町14-1", "P29_006": "3", "P29_007": "0", "P29_008": "00", "P29_009": null }, "geometry": { "type": "Point", "coordinates": [ 129.502904345297509, 28.38352436393421 ] } },
{ "type": "Feature", "properties": { "P29_001": "46222", "P29_002": "A146210000455", "P29_003": "16011", "P29_004": "奄美市立小宿小学校附属幼稚園", "P29_005": "鹿児島県奄美市名瀬平松町397", "P29_006": "3", "P29_007": "0", "P29_008": "00", "P29_009": null }, "geometry": { "type": "Point", "coordinates": [ 129.466877181082083, 28.400297658995406 ] } },
{ "type": "Feature", "properties": { "P29_001": "46525", "P29_002": "A146210000464", "P29_003": "16011", "P29_004": "瀬戸内町立古仁屋小学校附属幼稚園", "P29_005": "鹿児島県大島郡瀬戸内町大字古仁屋字小勝原836", "P29_006": "3", "P29_007": "0", "P29_008": "00", "P29_009": null }, "geometry": { "type": "Point", "coordinates": [ 129.315133338055858, 28.149186161484003 ] } },
{ "type": "Feature", "properties": { "P29_001": "46530", "P29_002": "A146210000473", "P29_003": "16011", "P29_004": "徳之島町立亀津幼稚園", "P29_005": "鹿児島県大島郡徳之島町亀津1039", "P29_006": "3", "P29_007": "0", "P29_008": "00", "P29_009": null }, "geometry": { "type": "Point", "coordinates": [ 129.01698819194732, 27.73142487763112 ] } },
{ "type": "Feature", "properties": { "P29_001": "46531", "P29_002": "A146210000482", "P29_003": "16011", "P29_004": "天城町立西阿木名幼稚園", "P29_005": "鹿児島県大島郡天城町西阿木名262", "P29_006": "3", "P29_007": "0", "P29_008": "00", "P29_009": null }, "geometry": { "type": "Point", "coordinates": [ 128.916372688889624, 27.752364137280516 ] } },
{ "type": "Feature", "properties": { "P29_001": "46224", "P29_002": "A146210000491", "P29_003": "16011", "P29_004": "伊佐市立本城幼稚園", "P29_005": "鹿児島県伊佐市菱刈南浦3470-1", "P29_006": "3", "P29_007": "0", "P29_008": "00", "P29_009": null }, "geometry": { "type": "Point", "coordinates": [ 130.632342697756627, 31.988920379086082 ] } },
{ "type": "Feature", "properties": { "P29_001": "46208", "P29_002": "A146210000507", "P29_003": "16011", "P29_004": "出水市立米ノ津東小学校附属幼稚園", "P29_005": "鹿児島県出水市下鯖町666", "P29_006": "3", "P29_007": "0", "P29_008": "00", "P29_009": null }, "geometry": { "type": "Point", "coordinates": [ 130.344117027482753, 32.119012104057447 ] } },
{ "type": "Feature", "properties": { "P29_001": "46208", "P29_002": "A146210000516", "P29_003": "16011", "P29_004": "出水市立東出水小学校附属幼稚園", "P29_005": "鹿児島県出水市上鯖渕1831", "P29_006": "3", "P29_007": "0", "P29_008": "00", "P29_009": null }, "geometry": { "type": "Point", "coordinates": [ 130.368094830304983, 32.081643731814665 ] } },
{ "type": "Feature", "properties": { "P29_001": "46222", "P29_002": "A146210000525", "P29_003": "16011", "P29_004": "奄美市立赤木名小学校附属幼稚園", "P29_005": "鹿児島県奄美市笠利町外金久28-1", "P29_006": "3", "P29_007": "0", "P29_008": "00", "P29_009": null }, "geometry": { "type": "Point", "coordinates": [ 129.671911716814009, 28.454417103335967 ] } },
{ "type": "Feature", "properties": { "P29_001": "46530", "P29_002": "A146210000534", "P29_003": "16011", "P29_004": "徳之島町立花徳幼稚園", "P29_005": "鹿児島県大島郡徳之島町花徳2983", "P29_006": "3", "P29_007": "0", "P29_008": "00", "P29_009": null }, "geometry": { "type": "Point", "coordinates": [ 128.960953071294341, 27.821643172526429 ] } },
{ "type": "Feature", "properties": { "P29_001": "46225", "P29_002": "A146210000543", "P29_003": "16011", "P29_004": "姶良市立帖佐幼稚園", "P29_005": "鹿児島県姶良市鍋倉634-1", "P29_006": "3", "P29_007": "0", "P29_008": "00", "P29_009": null }, "geometry": { "type": "Point", "coordinates": [ 130.628258276485354, 31.742056324713765 ] } },
{ "type": "Feature", "properties": { "P29_001": "46532", "P29_002": "A146210000552", "P29_003": "16011", "P29_004": "伊仙町立阿権小学校附属幼稚園", "P29_005": "鹿児島県大島郡伊仙町阿権1562", "P29_006": "3", "P29_007": "0", "P29_008": "00", "P29_009": null }, "geometry": { "type": "Point", "coordinates": [ 128.926636917493425, 27.70875401242381 ] } },
{ "type": "Feature", "properties": { "P29_001": "46215", "P29_002": "A146210000561", "P29_003": "16011", "P29_004": "薩摩川内市立中津幼稚園", "P29_005": "鹿児島県薩摩川内市上甑町中甑253", "P29_006": "3", "P29_007": "0", "P29_008": "00", "P29_009": null }, "geometry": { "type": "Point", "coordinates": [ 129.865594370532079, 31.833890585652327 ] } },
{ "type": "Feature", "properties": { "P29_001": "46222", "P29_002": "A146210000570", "P29_003": "16011", "P29_004": "奄美市立笠利小学校附属幼稚園", "P29_005": "鹿児島県奄美市笠利町笠利776", "P29_006": "3", "P29_007": "0", "P29_008": "00", "P29_009": null }, "geometry": { "type": "Point", "coordinates": [ 129.671744885511004, 28.454473194975051 ] } },
{ "type": "Feature", "properties": { "P29_001": "46208", "P29_002": "A146210000589", "P29_003": "16011", "P29_004": "出水市立米ノ津小学校附属幼稚園", "P29_005": "鹿児島県出水市下知識町1584", "P29_006": "3", "P29_007": "0", "P29_008": "00", "P29_009": null }, "geometry": { "type": "Point", "coordinates": [ 130.325241917602, 32.108311004093338 ] } },
{ "type": "Feature", "properties": { "P29_001": "46201", "P29_002": "A146210000598", "P29_003": "16011", "P29_004": "鹿児島市立宮川幼稚園", "P29_005": "鹿児島県鹿児島市五ヶ別府町159", "P29_006": "3", "P29_007": "0", "P29_008": "00", "P29_009": null }, "geometry": { "type": "Point", "coordinates": [ 130.476365385659506, 31.573716559649956 ] } },
{ "type": "Feature", "properties": { "P29_001": "46201", "P29_002": "A146210000605", "P29_003": "16011", "P29_004": "鹿児島市立皆与志幼稚園", "P29_005": "鹿児島県鹿児島市皆与志町4307", "P29_006": "3", "P29_007": "0", "P29_008": "00", "P29_009": null }, "geometry": { "type": "Point", "coordinates": [ 130.519412600610337, 31.670931482403486 ] } },
{ "type": "Feature", "properties": { "P29_001": "46530", "P29_002": "A146210000614", "P29_003": "16011", "P29_004": "徳之島町立亀徳幼稚園", "P29_005": "鹿児島県大島郡徳之島町亀徳216", "P29_006": "3", "P29_007": "0", "P29_008": "00", "P29_009": null }, "geometry": { "type": "Point", "coordinates": [ 129.019043605321798, 27.744972742492443 ] } },
{ "type": "Feature", "properties": { "P29_001": "46215", "P29_002": "A146210000623", "P29_003": "16011", "P29_004": "薩摩川内市立かのこ幼稚園", "P29_005": "鹿児島県薩摩川内市下甑町青瀬382", "P29_006": "3", "P29_007": "0", "P29_008": "00", "P29_009": null }, "geometry": { "type": "Point", "coordinates": [ 129.724095010701831, 31.674389674706784 ] } },
{ "type": "Feature", "properties": { "P29_001": "46215", "P29_002": "A146210000641", "P29_003": "16011", "P29_004": "薩摩川内市立亀山幼稚園", "P29_005": "鹿児島県薩摩川内市五代町635", "P29_006": "3", "P29_007": "0", "P29_008": "00", "P29_009": null }, "geometry": { "type": "Point", "coordinates": [ 130.283318381364609, 31.825523293600611 ] } },
{ "type": "Feature", "properties": { "P29_001": "46532", "P29_002": "A146210000669", "P29_003": "16011", "P29_004": "伊仙町立馬根小学校附属幼稚園", "P29_005": "鹿児島県大島郡伊仙町馬根475", "P29_006": "3", "P29_007": "0", "P29_008": "00", "P29_009": null }, "geometry": { "type": "Point", "coordinates": [ 128.948648850620202, 27.713120281023851 ] } },
{ "type": "Feature", "properties": { "P29_001": "46532", "P29_002": "A146210000687", "P29_003": "16011", "P29_004": "伊仙町立糸木名小学校附属幼稚園", "P29_005": "鹿児島県大島郡伊仙町糸木名724-2", "P29_006": "3", "P29_007": "0", "P29_008": "00", "P29_009": null }, "geometry": { "type": "Point", "coordinates": [ 128.923396995757344, 27.733295001838268 ] } },
{ "type": "Feature", "properties": { "P29_001": "46530", "P29_002": "A146210000696", "P29_003": "16011", "P29_004": "徳之島町立山幼稚園", "P29_005": "鹿児島県大島郡徳之島町山1759", "P29_006": "3", "P29_007": "0", "P29_008": "00", "P29_009": null }, "geometry": { "type": "Point", "coordinates": [ 128.955377004034517, 27.867107003567735 ] } },
{ "type": "Feature", "properties": { "P29_001": "46532", "P29_002": "A146210000703", "P29_003": "16011", "P29_004": "伊仙町立喜念小学校附属幼稚園", "P29_005": "鹿児島県大島郡伊仙町喜念379-2", "P29_006": "3", "P29_007": "0", "P29_008": "00", "P29_009": null }, "geometry": { "type": "Point", "coordinates": [ 128.995340999277772, 27.684660000939235 ] } },
{ "type": "Feature", "properties": { "P29_001": "46529", "P29_002": "A146210000712", "P29_003": "16011", "P29_004": "喜界町立あゆみ幼稚園", "P29_005": "鹿児島県大島郡喜界町上嘉鉄3388", "P29_006": "3", "P29_007": "0", "P29_008": "00", "P29_009": null }, "geometry": { "type": "Point", "coordinates": [ 129.943307102599334, 28.282624978417186 ] } },
{ "type": "Feature", "properties": { "P29_001": "46529", "P29_002": "A146210000721", "P29_003": "16011", "P29_004": "喜界町立のぞみ幼稚園", "P29_005": "鹿児島県大島郡喜界町志戸桶297", "P29_006": "3", "P29_007": "0", "P29_008": "00", "P29_009": null }, "geometry": { "type": "Point", "coordinates": [ 130.019623004480536, 28.354831996168262 ] } },
{ "type": "Feature", "properties": { "P29_001": "46215", "P29_002": "A146210000730", "P29_003": "16011", "P29_004": "かのこ幼稚園鹿島分園", "P29_005": "鹿児島県薩摩川内市鹿島町藺牟田1501", "P29_006": "3", "P29_007": "0", "P29_008": "00", "P29_009": null }, "geometry": { "type": "Point", "coordinates": [ 129.790396662560426, 31.776576865744254 ] } },
{ "type": "Feature", "properties": { "P29_001": "46525", "P29_002": "A146210000749", "P29_003": "16011", "P29_004": "瀬戸内町立ひかり幼稚園", "P29_005": "鹿児島県大島郡瀬戸内町大字古仁屋字春日17-3", "P29_006": "3", "P29_007": "0", "P29_008": "00", "P29_009": null }, "geometry": { "type": "Point", "coordinates": [ 129.311016729943276, 28.149393861058368 ] } },
{ "type": "Feature", "properties": { "P29_001": "46201", "P29_002": "A146310000015", "P29_003": "16011", "P29_004": "学校法人鹿児島竜谷学園アソカ幼稚園", "P29_005": "鹿児島県鹿児島市新屋敷町25-25", "P29_006": "4", "P29_007": "0", "P29_008": "00", "P29_009": null }, "geometry": { "type": "Point", "coordinates": [ 130.55712073416214, 31.58426176793035 ] } },
{ "type": "Feature", "properties": { "P29_001": "46201", "P29_002": "A146310000024", "P29_003": "16011", "P29_004": "いにしき幼稚園", "P29_005": "鹿児島県鹿児島市下伊敷2-12-3", "P29_006": "4", "P29_007": "0", "P29_008": "00", "P29_009": null }, "geometry": { "type": "Point", "coordinates": [ 130.535561434923636, 31.618276358652494 ] } },
{ "type": "Feature", "properties": { "P29_001": "46201", "P29_002": "A146310000033", "P29_003": "16011", "P29_004": "大谷幼稚園", "P29_005": "鹿児島県鹿児島市新町2-7", "P29_006": "4", "P29_007": "0", "P29_008": "00", "P29_009": null }, "geometry": { "type": "Point", "coordinates": [ 130.559008576958064, 31.58906851338055 ] } },
{ "type": "Feature", "properties": { "P29_001": "46201", "P29_002": "A146310000042", "P29_003": "16011", "P29_004": "鹿児島女子短期大学附属かもめ幼稚園", "P29_005": "鹿児島県鹿児島市紫原1-19-20", "P29_006": "4", "P29_007": "0", "P29_008": "00", "P29_009": null }, "geometry": { "type": "Point", "coordinates": [ 130.538411759087836, 31.558774077051741 ] } },
{ "type": "Feature", "properties": { "P29_001": "46201", "P29_002": "A146310000051", "P29_003": "16011", "P29_004": "川上幼稚園", "P29_005": "鹿児島県鹿児島市川上町847", "P29_006": "4", "P29_007": "0", "P29_008": "00", "P29_009": null }, "geometry": { "type": "Point", "coordinates": [ 130.554479583016359, 31.655278163443214 ] } },
{ "type": "Feature", "properties": { "P29_001": "46201", "P29_002": "A146310000060", "P29_003": "16011", "P29_004": "共研幼稚園", "P29_005": "鹿児島県鹿児島市上之園町20-17", "P29_006": "4", "P29_007": "0", "P29_008": "00", "P29_009": null }, "geometry": { "type": "Point", "coordinates": [ 130.547384752617461, 31.580234112854072 ] } },
{ "type": "Feature", "properties": { "P29_001": "46201", "P29_002": "A146310000079", "P29_003": "16011", "P29_004": "学校法人共立学舎共立幼稚園", "P29_005": "鹿児島県鹿児島市春日町6-25", "P29_006": "4", "P29_007": "0", "P29_008": "00", "P29_009": null }, "geometry": { "type": "Point", "coordinates": [ 130.56506642879242, 31.606619048704406 ] } },
{ "type": "Feature", "properties": { "P29_001": "46201", "P29_002": "A146310000088", "P29_003": "16011", "P29_004": "敬愛幼稚園", "P29_005": "鹿児島県鹿児島市加治屋町5-6", "P29_006": "4", "P29_007": "0", "P29_008": "00", "P29_009": null }, "geometry": { "type": "Point", "coordinates": [ 130.54940292468865, 31.584654341776016 ] } },
{ "type": "Feature", "properties": { "P29_001": "46201", "P29_002": "A146310000097", "P29_003": "16011", "P29_004": "研明舎幼稚園", "P29_005": "鹿児島県鹿児島市下荒田2-23-3", "P29_006": "4", "P29_007": "0", "P29_008": "00", "P29_009": null }, "geometry": { "type": "Point", "coordinates": [ 130.556344887734525, 31.575144333993176 ] } },
{ "type": "Feature", "properties": { "P29_001": "46201", "P29_002": "A146310000104", "P29_003": "16011", "P29_004": "さみどり幼稚園", "P29_005": "鹿児島県鹿児島市薬師1-4-12", "P29_006": "4", "P29_007": "0", "P29_008": "00", "P29_009": null }, "geometry": { "type": "Point", "coordinates": [ 130.540802715741506, 31.589063902336548 ] } },
{ "type": "Feature", "properties": { "P29_001": "46201", "P29_002": "A146310000113", "P29_003": "16011", "P29_004": "鹿児島三育幼稚園", "P29_005": "鹿児島県鹿児島市平之町14-21", "P29_006": "4", "P29_007": "0", "P29_008": "00", "P29_009": null }, "geometry": { "type": "Point", "coordinates": [ 130.547733629853553, 31.592897722626173 ] } },
{ "type": "Feature", "properties": { "P29_001": "46201", "P29_002": "A146310000122", "P29_003": "16011", "P29_004": "集成幼稚園", "P29_005": "鹿児島県鹿児島市加治屋町15-2", "P29_006": "4", "P29_007": "0", "P29_008": "00", "P29_009": null }, "geometry": { "type": "Point", "coordinates": [ 130.55081660715004, 31.587234676701513 ] } },
{ "type": "Feature", "properties": { "P29_001": "46201", "P29_002": "A146310000131", "P29_003": "16011", "P29_004": "昭和幼稚園", "P29_005": "鹿児島県鹿児島市原良2-2-1", "P29_006": "4", "P29_007": "0", "P29_008": "00", "P29_009": null }, "geometry": { "type": "Point", "coordinates": [ 130.535573235861619, 31.598372149509569 ] } },
{ "type": "Feature", "properties": { "P29_001": "46201", "P29_002": "A146310000140", "P29_003": "16011", "P29_004": "聖母幼稚園", "P29_005": "鹿児島県鹿児島市荒田2-53-11", "P29_006": "4", "P29_007": "0", "P29_008": "00", "P29_009": null }, "geometry": { "type": "Point", "coordinates": [ 130.54826611662935, 31.570408426178535 ] } },
{ "type": "Feature", "properties": { "P29_001": "46201", "P29_002": "A146310000159", "P29_003": "16011", "P29_004": "武幼稚園", "P29_005": "鹿児島県鹿児島市武1-12-15", "P29_006": "4", "P29_007": "0", "P29_008": "00", "P29_009": null }, "geometry": { "type": "Point", "coordinates": [ 130.539089783247505, 31.581711865806533 ] } },
{ "type": "Feature", "properties": { "P29_001": "46201", "P29_002": "A146310000168", "P29_003": "16011", "P29_004": "たにやま幼稚園", "P29_005": "鹿児島県鹿児島市和田1-4-5", "P29_006": "4", "P29_007": "0", "P29_008": "00", "P29_009": null }, "geometry": { "type": "Point", "coordinates": [ 130.515838568820186, 31.514252190752103 ] } },
{ "type": "Feature", "properties": { "P29_001": "46201", "P29_002": "A146310000177", "P29_003": "16011", "P29_004": "唐湊幼稚園", "P29_005": "鹿児島県鹿児島市唐湊4-5-25", "P29_006": "4", "P29_007": "0", "P29_008": "00", "P29_009": null }, "geometry": { "type": "Point", "coordinates": [ 130.538285202338216, 31.568602513707827 ] } },
{ "type": "Feature", "properties": { "P29_001": "46201", "P29_002": "A146310000186", "P29_003": "16011", "P29_004": "ひばり幼稚園", "P29_005": "鹿児島県鹿児島市田上5-13-21", "P29_006": "4", "P29_007": "0", "P29_008": "00", "P29_009": null }, "geometry": { "type": "Point", "coordinates": [ 130.526011797827721, 31.579215441652295 ] } },
{ "type": "Feature", "properties": { "P29_001": "46201", "P29_002": "A146310000195", "P29_003": "16011", "P29_004": "学校法人鹿児島竜谷学園和光幼稚園", "P29_005": "鹿児島県鹿児島市東千石町21-38", "P29_006": "4", "P29_007": "0", "P29_008": "00", "P29_009": null }, "geometry": { "type": "Point", "coordinates": [ 130.555448998438834, 31.594270001640126 ] } },
{ "type": "Feature", "properties": { "P29_001": "46210", "P29_002": "A146310000202", "P29_003": "16011", "P29_004": "指宿幼稚園", "P29_005": "鹿児島県指宿市湊2-21-1", "P29_006": "4", "P29_007": "0", "P29_008": "00", "P29_009": null }, "geometry": { "type": "Point", "coordinates": [ 130.645265276175707, 31.240207136395071 ] } },
{ "type": "Feature", "properties": { "P29_001": "46210", "P29_002": "A146310000211", "P29_003": "16011", "P29_004": "白百合幼稚園", "P29_005": "鹿児島県指宿市大牟礼4-15-30", "P29_006": "4", "P29_007": "0", "P29_008": "00", "P29_009": null }, "geometry": { "type": "Point", "coordinates": [ 130.64691742016268, 31.245007506353378 ] } },
{ "type": "Feature", "properties": { "P29_001": "46204", "P29_002": "A146310000220", "P29_003": "16011", "P29_004": "長野幼稚園", "P29_005": "鹿児島県枕崎市岩戸町503", "P29_006": "4", "P29_007": "0", "P29_008": "00", "P29_009": null }, "geometry": { "type": "Point", "coordinates": [ 130.306509460311247, 31.26822341420343 ] } },
{ "type": "Feature", "properties": { "P29_001": "46204", "P29_002": "A146310000239", "P29_003": "16011", "P29_004": "枕崎幼稚園", "P29_005": "鹿児島県枕崎市折口町12", "P29_006": "4", "P29_007": "0", "P29_008": "00", "P29_009": null }, "geometry": { "type": "Point", "coordinates": [ 130.297665082191031, 31.26894364644885 ] } },
{ "type": "Feature", "properties": { "P29_001": "46219", "P29_002": "A146310000248", "P29_003": "16011", "P29_004": "友愛幼稚園", "P29_005": "鹿児島県いちき串木野市住吉町94", "P29_006": "4", "P29_007": "0", "P29_008": "00", "P29_009": null }, "geometry": { "type": "Point", "coordinates": [ 130.275178821319628, 31.716121205036909 ] } },
{ "type": "Feature", "properties": { "P29_001": "46215", "P29_002": "A146310000257", "P29_003": "16011", "P29_004": "川内聖母幼稚園", "P29_005": "鹿児島県薩摩川内市若松町2-20", "P29_006": "4", "P29_007": "0", "P29_008": "00", "P29_009": null }, "geometry": { "type": "Point", "coordinates": [ 130.302068996650377, 31.813771995853514 ] } },
{ "type": "Feature", "properties": { "P29_001": "46215", "P29_002": "A146310000266", "P29_003": "16011", "P29_004": "学校法人新田学園みくに幼稚園", "P29_005": "鹿児島県薩摩川内市御陵下町11-9", "P29_006": "4", "P29_007": "0", "P29_008": "00", "P29_009": null }, "geometry": { "type": "Point", "coordinates": [ 130.293298440383211, 31.82558350935286 ] } },
{ "type": "Feature", "properties": { "P29_001": "46208", "P29_002": "A146310000275", "P29_003": "16011", "P29_004": "出水聖母幼稚園", "P29_005": "鹿児島県出水市麓町11-27", "P29_006": "4", "P29_007": "0", "P29_008": "00", "P29_009": null }, "geometry": { "type": "Point", "coordinates": [ 130.359535635568761, 32.07656886537729 ] } },
{ "type": "Feature", "properties": { "P29_001": "46203", "P29_002": "A146310000284", "P29_003": "16011", "P29_004": "鹿屋幼稚園", "P29_005": "鹿児島県鹿屋市向江町28-30", "P29_006": "4", "P29_007": "0", "P29_008": "00", "P29_009": null }, "geometry": { "type": "Point", "coordinates": [ 130.850542412954525, 31.382676899461188 ] } },
{ "type": "Feature", "properties": { "P29_001": "46203", "P29_002": "A146310000293", "P29_003": "16011", "P29_004": "第一鹿屋幼稚園", "P29_005": "鹿児島県鹿屋市寿5-19-14", "P29_006": "4", "P29_007": "0", "P29_008": "00", "P29_009": null }, "geometry": { "type": "Point", "coordinates": [ 130.863687307835249, 31.38552323004728 ] } },
{ "type": "Feature", "properties": { "P29_001": "46203", "P29_002": "A146310000300", "P29_003": "16011", "P29_004": "認定こども園松下幼稚園", "P29_005": "鹿児島県鹿屋市上谷町11185-1", "P29_006": "4", "P29_007": "0", "P29_008": "00", "P29_009": null }, "geometry": { "type": "Point", "coordinates": [ 130.844648353330086, 31.393560967232119 ] } },
{ "type": "Feature", "properties": { "P29_001": "46213", "P29_002": "A146310000319", "P29_003": "16011", "P29_004": "西之表幼稚園", "P29_005": "鹿児島県西之表市西町7075", "P29_006": "4", "P29_007": "0", "P29_008": "00", "P29_009": null }, "geometry": { "type": "Point", "coordinates": [ 130.995775003478769, 30.73325108894398 ] } },
{ "type": "Feature", "properties": { "P29_001": "46213", "P29_002": "A146310000328", "P29_003": "16011", "P29_004": "榕城幼稚園", "P29_005": "鹿児島県西之表市西之表6583", "P29_006": "4", "P29_007": "0", "P29_008": "00", "P29_009": null }, "geometry": { "type": "Point", "coordinates": [ 130.99823130690578, 30.741911286751364 ] } },
{ "type": "Feature", "properties": { "P29_001": "46222", "P29_002": "A146310000337", "P29_003": "16011", "P29_004": "名瀬信愛幼稚園", "P29_005": "鹿児島県奄美市名瀬幸町9-10", "P29_006": "4", "P29_007": "0", "P29_008": "00", "P29_009": null }, "geometry": { "type": "Point", "coordinates": [ 129.493984465897285, 28.378851845137444 ] } },
{ "type": "Feature", "properties": { "P29_001": "46392", "P29_002": "A146310000355", "P29_003": "16011", "P29_004": "宮之城聖母幼稚園", "P29_005": "鹿児島県薩摩郡さつま町虎居1020", "P29_006": "4", "P29_007": "0", "P29_008": "00", "P29_009": null }, "geometry": { "type": "Point", "coordinates": [ 130.454521163955519, 31.910881847098032 ] } },
{ "type": "Feature", "properties": { "P29_001": "46492", "P29_002": "A146310000364", "P29_003": "16011", "P29_004": "高山幼稚園", "P29_005": "鹿児島県肝属郡肝付町新富4990", "P29_006": "4", "P29_007": "0", "P29_008": "00", "P29_009": null }, "geometry": { "type": "Point", "coordinates": [ 130.953335569405766, 31.347187273779273 ] } },
{ "type": "Feature", "properties": { "P29_001": "46530", "P29_002": "A146310000382", "P29_003": "16011", "P29_004": "亀津カトリック幼稚園", "P29_005": "鹿児島県大島郡徳之島町亀津3035", "P29_006": "4", "P29_007": "0", "P29_008": "00", "P29_009": null }, "geometry": { "type": "Point", "coordinates": [ 129.017175996910112, 27.726634003576439 ] } },
{ "type": "Feature", "properties": { "P29_001": "46531", "P29_002": "A146310000391", "P29_003": "16011", "P29_004": "天城カトリック幼稚園", "P29_005": "鹿児島県大島郡天城町天城543-3", "P29_006": "4", "P29_007": "0", "P29_008": "00", "P29_009": null }, "geometry": { "type": "Point", "coordinates": [ 128.896865175919004, 27.812654384258977 ] } },
{ "type": "Feature", "properties": { "P29_001": "46217", "P29_002": "A146310000408", "P29_003": "16011", "P29_004": "幼稚園型認定こども園末吉中央幼稚園", "P29_005": "鹿児島県曽於市末吉町上町4-13-5", "P29_006": "4", "P29_007": "0", "P29_008": "00", "P29_009": null }, "geometry": { "type": "Point", "coordinates": [ 131.021960445398605, 31.651968368359267 ] } },
{ "type": "Feature", "properties": { "P29_001": "46222", "P29_002": "A146310000417", "P29_003": "16011", "P29_004": "名瀬聖母幼稚園", "P29_005": "鹿児島県奄美市名瀬平田町20-1", "P29_006": "4", "P29_007": "0", "P29_008": "00", "P29_009": null }, "geometry": { "type": "Point", "coordinates": [ 129.499292692094116, 28.360527832355505 ] } },
{ "type": "Feature", "properties": { "P29_001": "46201", "P29_002": "A146310000426", "P29_003": "16011", "P29_004": "鹿児島幼稚園", "P29_005": "鹿児島県鹿児島市錦江台1-20-1", "P29_006": "4", "P29_007": "0", "P29_008": "00", "P29_009": null }, "geometry": { "type": "Point", "coordinates": [ 130.497928334947062, 31.506252854103611 ] } },
{ "type": "Feature", "properties": { "P29_001": "46210", "P29_002": "A146310000435", "P29_003": "16011", "P29_004": "みどり幼稚園", "P29_005": "鹿児島県指宿市西方4692-4", "P29_006": "4", "P29_007": "0", "P29_008": "00", "P29_009": null }, "geometry": { "type": "Point", "coordinates": [ 130.618341671060051, 31.278817552412541 ] } },
{ "type": "Feature", "properties": { "P29_001": "46216", "P29_002": "A146310000444", "P29_003": "16011", "P29_004": "朝日ケ丘幼稚園", "P29_005": "鹿児島県日置市伊集院町猪鹿倉570", "P29_006": "4", "P29_007": "0", "P29_008": "00", "P29_009": null }, "geometry": { "type": "Point", "coordinates": [ 130.407812908244182, 31.627671559566188 ] } },
{ "type": "Feature", "properties": { "P29_001": "46218", "P29_002": "A146310000453", "P29_003": "16011", "P29_004": "鹿児島第一幼稚園", "P29_005": "鹿児島県霧島市国分中央1-10-2", "P29_006": "4", "P29_007": "0", "P29_008": "00", "P29_009": null }, "geometry": { "type": "Point", "coordinates": [ 130.769338757800114, 31.745803527710283 ] } },
{ "type": "Feature", "properties": { "P29_001": "46201", "P29_002": "A146310000462", "P29_003": "16011", "P29_004": "学校法人鹿児島竜谷学園宇宿幼稚園", "P29_005": "鹿児島県鹿児島市宇宿4-18-8", "P29_006": "4", "P29_007": "0", "P29_008": "00", "P29_009": null }, "geometry": { "type": "Point", "coordinates": [ 130.537140866646638, 31.545886981716386 ] } },
{ "type": "Feature", "properties": { "P29_001": "46218", "P29_002": "A146310000471", "P29_003": "16011", "P29_004": "国分幼稚園", "P29_005": "鹿児島県霧島市国分名波町26-10", "P29_006": "4", "P29_007": "0", "P29_008": "00", "P29_009": null }, "geometry": { "type": "Point", "coordinates": [ 130.780133134867668, 31.733117850344332 ] } },
{ "type": "Feature", "properties": { "P29_001": "46203", "P29_002": "A146310000480", "P29_003": "16011", "P29_004": "星幼稚園", "P29_005": "鹿児島県鹿屋市寿3-8-8", "P29_006": "4", "P29_007": "0", "P29_008": "00", "P29_009": null }, "geometry": { "type": "Point", "coordinates": [ 130.869410558377609, 31.388167291846639 ] } },
{ "type": "Feature", "properties": { "P29_001": "46201", "P29_002": "A146310000499", "P29_003": "16011", "P29_004": "吉野幼稚園", "P29_005": "鹿児島県鹿児島市吉野町3216-53", "P29_006": "4", "P29_007": "0", "P29_008": "00", "P29_009": null }, "geometry": { "type": "Point", "coordinates": [ 130.573470752288586, 31.643762906749743 ] } },
{ "type": "Feature", "properties": { "P29_001": "46214", "P29_002": "A146310000505", "P29_003": "16011", "P29_004": "慈恩幼稚園", "P29_005": "鹿児島県垂水市錦江町1-63", "P29_006": "4", "P29_007": "0", "P29_008": "00", "P29_009": null }, "geometry": { "type": "Point", "coordinates": [ 130.696091593609282, 31.490862983121328 ] } },
{ "type": "Feature", "properties": { "P29_001": "46201", "P29_002": "A146310000514", "P29_003": "16011", "P29_004": "鹿児島女子短期大学附属なでしこ幼稚園", "P29_005": "鹿児島県鹿児島市明和2-41-1", "P29_006": "4", "P29_007": "0", "P29_008": "00", "P29_009": null }, "geometry": { "type": "Point", "coordinates": [ 130.521067405612314, 31.602703588156761 ] } },
{ "type": "Feature", "properties": { "P29_001": "46201", "P29_002": "A146310000523", "P29_003": "16011", "P29_004": "カトリックカリタス幼稚園", "P29_005": "鹿児島県鹿児島市紫原3-36-22", "P29_006": "4", "P29_007": "0", "P29_008": "00", "P29_009": null }, "geometry": { "type": "Point", "coordinates": [ 130.535197116408028, 31.553886339817229 ] } },
{ "type": "Feature", "properties": { "P29_001": "46201", "P29_002": "A146310000532", "P29_003": "16011", "P29_004": "田上幼稚園", "P29_005": "鹿児島県鹿児島市田上4-13-15", "P29_006": "4", "P29_007": "0", "P29_008": "00", "P29_009": null }, "geometry": { "type": "Point", "coordinates": [ 130.524716634431229, 31.575138486555339 ] } },
{ "type": "Feature", "properties": { "P29_001": "46210", "P29_002": "A146310000541", "P29_003": "16011", "P29_004": "柳和幼稚園", "P29_005": "鹿児島県指宿市十町2459", "P29_006": "4", "P29_007": "0", "P29_008": "00", "P29_009": null }, "geometry": { "type": "Point", "coordinates": [ 130.630514706080305, 31.252679652958424 ] } },
{ "type": "Feature", "properties": { "P29_001": "46220", "P29_002": "A146310000550", "P29_003": "16011", "P29_004": "加世田しらうめ幼稚園", "P29_005": "鹿児島県南さつま市加世田唐仁原1159", "P29_006": "4", "P29_007": "0", "P29_008": "00", "P29_009": null }, "geometry": { "type": "Point", "coordinates": [ 130.311278146502332, 31.421277253376143 ] } },
{ "type": "Feature", "properties": { "P29_001": "46501", "P29_002": "A146310000569", "P29_003": "16011", "P29_004": "野間幼稚園", "P29_005": "鹿児島県熊毛郡中種子町野間5101-29", "P29_006": "4", "P29_007": "0", "P29_008": "00", "P29_009": null }, "geometry": { "type": "Point", "coordinates": [ 130.96162804262687, 30.534844594366515 ] } },
{ "type": "Feature", "properties": { "P29_001": "46214", "P29_002": "A146310000587", "P29_003": "16011", "P29_004": "江ノ島幼稚園", "P29_005": "鹿児島県垂水市中俣375", "P29_006": "4", "P29_007": "0", "P29_008": "00", "P29_009": null }, "geometry": { "type": "Point", "coordinates": [ 130.699912408071214, 31.519426171750716 ] } },
{ "type": "Feature", "properties": { "P29_001": "46201", "P29_002": "A146310000596", "P29_003": "16011", "P29_004": "太陽の子幼稚園", "P29_005": "鹿児島県鹿児島市鴨池新町25-6", "P29_006": "4", "P29_007": "0", "P29_008": "00", "P29_009": null }, "geometry": { "type": "Point", "coordinates": [ 130.55651096462131, 31.551949447560045 ] } },
{ "type": "Feature", "properties": { "P29_001": "46203", "P29_002": "A146310000603", "P29_003": "16011", "P29_004": "日の出幼稚園", "P29_005": "鹿児島県鹿屋市川西町3631", "P29_006": "4", "P29_007": "0", "P29_008": "00", "P29_009": null }, "geometry": { "type": "Point", "coordinates": [ 130.869652899110321, 31.360742222623252 ] } },
{ "type": "Feature", "properties": { "P29_001": "46201", "P29_002": "A146310000612", "P29_003": "16011", "P29_004": "鴨池しらうめ幼稚園", "P29_005": "鹿児島県鹿児島市鴨池新町3-1", "P29_006": "4", "P29_007": "0", "P29_008": "00", "P29_009": null }, "geometry": { "type": "Point", "coordinates": [ 130.555668392565337, 31.557233201927062 ] } },
{ "type": "Feature", "properties": { "P29_001": "46225", "P29_002": "A146310000621", "P29_003": "16011", "P29_004": "あいら幼稚園", "P29_005": "鹿児島県姶良市加治木町木田1961", "P29_006": "4", "P29_007": "0", "P29_008": "00", "P29_009": null }, "geometry": { "type": "Point", "coordinates": [ 130.642828293542834, 31.732706893015667 ] } },
{ "type": "Feature", "properties": { "P29_001": "46218", "P29_002": "A146310000630", "P29_003": "16011", "P29_004": "国分愛の園幼稚園", "P29_005": "鹿児島県霧島市国分中央2-2-2", "P29_006": "4", "P29_007": "0", "P29_008": "00", "P29_009": null }, "geometry": { "type": "Point", "coordinates": [ 130.771695460251152, 31.739351524919787 ] } },
{ "type": "Feature", "properties": { "P29_001": "46225", "P29_002": "A146310000649", "P29_003": "16011", "P29_004": "薫光幼稚園", "P29_005": "鹿児島県姶良市松原町1-17-9", "P29_006": "4", "P29_007": "0", "P29_008": "00", "P29_009": null }, "geometry": { "type": "Point", "coordinates": [ 130.629721997376208, 31.718505996331945 ] } },
{ "type": "Feature", "properties": { "P29_001": "46218", "P29_002": "A146310000658", "P29_003": "16011", "P29_004": "竹の子幼稚園", "P29_005": "鹿児島県霧島市国分広瀬2-15-42", "P29_006": "4", "P29_007": "0", "P29_008": "00", "P29_009": null }, "geometry": { "type": "Point", "coordinates": [ 130.754660074159176, 31.722095048578748 ] } },
{ "type": "Feature", "properties": { "P29_001": "46490", "P29_002": "A146310000667", "P29_003": "16011", "P29_004": "田代幼稚園", "P29_005": "鹿児島県肝属郡錦江町田代川原280-1", "P29_006": "4", "P29_007": "0", "P29_008": "00", "P29_009": null }, "geometry": { "type": "Point", "coordinates": [ 130.837820189689069, 31.190826615365946 ] } },
{ "type": "Feature", "properties": { "P29_001": "46201", "P29_002": "A146310000676", "P29_003": "16011", "P29_004": "さつき幼稚園", "P29_005": "鹿児島県鹿児島市西陵3-3-17", "P29_006": "4", "P29_007": "0", "P29_008": "00", "P29_009": null }, "geometry": { "type": "Point", "coordinates": [ 130.512157728889321, 31.583113895859391 ] } },
{ "type": "Feature", "properties": { "P29_001": "46201", "P29_002": "A146310000685", "P29_003": "16011", "P29_004": "星ケ峯幼稚園", "P29_005": "鹿児島県鹿児島市星ヶ峯3-33-1", "P29_006": "4", "P29_007": "0", "P29_008": "00", "P29_009": null }, "geometry": { "type": "Point", "coordinates": [ 130.491339197678116, 31.580292700628863 ] } },
{ "type": "Feature", "properties": { "P29_001": "46201", "P29_002": "A146310000694", "P29_003": "16011", "P29_004": "喜入幼稚園", "P29_005": "鹿児島県鹿児島市喜入町335-1", "P29_006": "4", "P29_007": "0", "P29_008": "00", "P29_009": null }, "geometry": { "type": "Point", "coordinates": [ 130.541677322745187, 31.369323799468376 ] } },
{ "type": "Feature", "properties": { "P29_001": "46201", "P29_002": "A146310000701", "P29_003": "16011", "P29_004": "鹿児島女子短期大学附属すみれ幼稚園", "P29_005": "鹿児島県鹿児島市皇徳寺台4-44-1", "P29_006": "4", "P29_007": "0", "P29_008": "00", "P29_009": null }, "geometry": { "type": "Point", "coordinates": [ 130.48033837153173, 31.563681050841524 ] } },
{ "type": "Feature", "properties": { "P29_001": "46201", "P29_002": "A146310000710", "P29_003": "16011", "P29_004": "学校法人鹿児島竜谷学園恵光幼稚園", "P29_005": "鹿児島県鹿児島市小山田町3510-3", "P29_006": "4", "P29_007": "0", "P29_008": "00", "P29_009": null }, "geometry": { "type": "Point", "coordinates": [ 130.491056691869062, 31.660022678022113 ] } }
]
}
