{
"type": "FeatureCollection",
"name": "geo_46_定期巡回・随時対応型訪問介護看護",
"crs": { "type": "name", "properties": { "name": "urn:ogc:def:crs:OGC:1.3:CRS84" } },
"features": [
{ "type": "Feature", "properties": { "内容": "千年定期巡回随時対応型訪問介護看護事業所【定期巡回・随時対応型訪問介護看護】鹿児島県鹿児島市千年2丁目14番4号102号", "url": "https://www.kaigokensaku.mhlw.go.jp/46/index.php?action_kouhyou_detail_004_kani=true&JigyosyoCd=4690101383-00&ServiceCd=760&Type=search", "url2": "http://www.sen-nen.jp" }, "geometry": { "type": "Point", "coordinates": [ 130.525521885072294, 31.640409376233745 ] } },
{ "type": "Feature", "properties": { "内容": "定期巡回随時対応型訪問介護看護コンフォート【定期巡回・随時対応型訪問介護看護】鹿児島県鹿児島市武岡１丁目１１３番30号", "url": "https://www.kaigokensaku.mhlw.go.jp/46/index.php?action_kouhyou_detail_004_kani=true&JigyosyoCd=4690101284-00&ServiceCd=760&Type=search", "url2": null }, "geometry": { "type": "Point", "coordinates": [ 130.525687400000038, 31.587798100000011 ] } },
{ "type": "Feature", "properties": { "内容": "済生会サポートセンターなでしこ【定期巡回・随時対応型訪問介護看護】小野町２４２７－２", "url": "https://www.kaigokensaku.mhlw.go.jp/46/index.php?action_kouhyou_detail_004_kani=true&JigyosyoCd=4690100971-00&ServiceCd=760&Type=search", "url2": "http://www.saiseikai-kg.jp/" }, "geometry": { "type": "Point", "coordinates": [ 130.512402400000042, 31.5996135 ] } },
{ "type": "Feature", "properties": { "内容": "定期巡回サービス　つむぎ【定期巡回・随時対応型訪問介護看護】鹿児島県鹿児島市上福元町5880-1ヒルサイド諏訪202", "url": "https://www.kaigokensaku.mhlw.go.jp/46/index.php?action_kouhyou_detail_004_kani=true&JigyosyoCd=4690103215-00&ServiceCd=760&Type=search", "url2": "https://kyokuseikai.com/" }, "geometry": { "type": "Point", "coordinates": [ 130.5043762, 31.5284224 ] } },
{ "type": "Feature", "properties": { "内容": "ひなた　あんしんサポートセンター【定期巡回・随時対応型訪問介護看護】鹿児島県鹿児島市田上５丁目2-17カーサ大和Ⅲ1階", "url": "https://www.kaigokensaku.mhlw.go.jp/46/index.php?action_kouhyou_detail_004_kani=true&JigyosyoCd=4690101631-00&ServiceCd=760&Type=search", "url2": null }, "geometry": { "type": "Point", "coordinates": [ 130.5189358, 31.5726443 ] } },
{ "type": "Feature", "properties": { "内容": "定期巡回　介護支援センター愛【定期巡回・随時対応型訪問介護看護】鹿児島市吉野二丁目13番13号", "url": "https://www.kaigokensaku.mhlw.go.jp/46/index.php?action_kouhyou_detail_004_kani=true&JigyosyoCd=4690103207-00&ServiceCd=760&Type=search", "url2": "https://www.kawamoto-cl.or.jp/" }, "geometry": { "type": "Point", "coordinates": [ 130.565988800000014, 31.6564779 ] } },
{ "type": "Feature", "properties": { "内容": "生協ヘルパーステーション・たにやま24時間センター【定期巡回・随時対応型訪問介護看護】鹿児島市谷山中央三丁目4582番地", "url": "https://www.kaigokensaku.mhlw.go.jp/46/index.php?action_kouhyou_detail_004_kani=true&JigyosyoCd=4690100963-00&ServiceCd=760&Type=search", "url2": null }, "geometry": { "type": "Point", "coordinates": [ 130.518624400000022, 31.5200861 ] } },
{ "type": "Feature", "properties": { "内容": "医療法人明輝会　ケアステーション24御召覧【定期巡回・随時対応型訪問介護看護】鹿児島市吉野町2丁目17番15号総合ケアセンターよしの", "url": "https://www.kaigokensaku.mhlw.go.jp/46/index.php?action_kouhyou_detail_004_kani=true&JigyosyoCd=4690100989-00&ServiceCd=760&Type=search", "url2": "http://www.meikikai.com/" }, "geometry": { "type": "Point", "coordinates": [ 130.5675478, 31.6559987 ] } },
{ "type": "Feature", "properties": { "内容": "地域ケアセンターはっぴー【定期巡回・随時対応型訪問介護看護】下福元町９５５８番地１０サンヒルズはっぴー", "url": "https://www.kaigokensaku.mhlw.go.jp/46/index.php?action_kouhyou_detail_004_kani=true&JigyosyoCd=4690100997-00&ServiceCd=760&Type=search", "url2": null }, "geometry": { "type": "Point", "coordinates": [ 130.4893108, 31.5041838 ] } },
{ "type": "Feature", "properties": { "内容": "定期巡回オーシャンヘルパーステーション【定期巡回・随時対応型訪問介護看護】鹿児島市紫原２丁目18-9", "url": "https://www.kaigokensaku.mhlw.go.jp/46/index.php?action_kouhyou_detail_004_kani=true&JigyosyoCd=4690102985-00&ServiceCd=760&Type=search", "url2": null }, "geometry": { "type": "Point", "coordinates": [ 130.5354199, 31.5607987 ] } },
{ "type": "Feature", "properties": { "内容": "ホームケアセンター附属小前【定期巡回・随時対応型訪問介護看護】鹿児島県鹿児島市天保山町21-1-4階", "url": "https://www.kaigokensaku.mhlw.go.jp/46/index.php?action_kouhyou_detail_004_kani=true&JigyosyoCd=4690102852-00&ServiceCd=760&Type=search", "url2": null }, "geometry": { "type": "Point", "coordinates": [ 130.56189315453409, 31.574094949760067 ] } },
{ "type": "Feature", "properties": { "内容": "定期巡回・随時対応型訪問介護看護ステーションてあて【定期巡回・随時対応型訪問介護看護】鹿児島市坂之上3丁目8番1", "url": "https://www.kaigokensaku.mhlw.go.jp/46/index.php?action_kouhyou_detail_004_kani=true&JigyosyoCd=4690102050-00&ServiceCd=760&Type=search", "url2": "https://cure-connect.jp/" }, "geometry": { "type": "Point", "coordinates": [ 130.502165947839416, 31.506853607126008 ] } },
{ "type": "Feature", "properties": { "内容": "定期巡回・随時対応型訪問介護看護きいれ【定期巡回・随時対応型訪問介護看護】喜入前之浜町7808-1ｻﾝｼｬｲﾝきいれ", "url": "https://www.kaigokensaku.mhlw.go.jp/46/index.php?action_kouhyou_detail_004_kani=true&JigyosyoCd=4690101003-00&ServiceCd=760&Type=search", "url2": "http://kiire.jp/" }, "geometry": { "type": "Point", "coordinates": [ 130.552994600000034, 31.3508791 ] } },
{ "type": "Feature", "properties": { "内容": "ホームヘルパーステーション鹿屋長寿園【定期巡回・随時対応型訪問介護看護】笠之原町４５番５２－３号", "url": "https://www.kaigokensaku.mhlw.go.jp/46/index.php?action_kouhyou_detail_004_kani=true&JigyosyoCd=4690300266-00&ServiceCd=760&Type=search", "url2": "helperkanoya@kanoya-choujuen.jp" }, "geometry": { "type": "Point", "coordinates": [ 130.89099340000007, 31.382654 ] } },
{ "type": "Feature", "properties": { "内容": "ヘルパーステーションさくら彩【定期巡回・随時対応型訪問介護看護】鹿児島県出水市高尾野町柴引3522番地", "url": "https://www.kaigokensaku.mhlw.go.jp/46/index.php?action_kouhyou_detail_004_kani=true&JigyosyoCd=4690800174-00&ServiceCd=760&Type=search", "url2": "http://sakura-izumi.com" }, "geometry": { "type": "Point", "coordinates": [ 130.3057914, 32.0473473 ] } },
{ "type": "Feature", "properties": { "内容": "グレースガーデン定期巡回ステーション【定期巡回・随時対応型訪問介護看護】鹿児島県薩摩川内市平佐町2850", "url": "https://www.kaigokensaku.mhlw.go.jp/46/index.php?action_kouhyou_detail_004_kani=true&JigyosyoCd=4691500351-00&ServiceCd=760&Type=search", "url2": null }, "geometry": { "type": "Point", "coordinates": [ 130.3143767, 31.8168326 ] } },
{ "type": "Feature", "properties": { "内容": "名瀬徳洲会介護センター【定期巡回・随時対応型訪問介護看護】鹿児島県奄美市名瀬朝日町14-10", "url": "https://www.kaigokensaku.mhlw.go.jp/46/index.php?action_kouhyou_detail_004_kani=true&JigyosyoCd=4690700184-00&ServiceCd=760&Type=search", "url2": null }, "geometry": { "type": "Point", "coordinates": [ 129.5254362, 28.3978902 ] } },
{ "type": "Feature", "properties": { "内容": "すまいる【定期巡回・随時対応型訪問介護看護】鹿児島県南九州市頴娃町郡854番地1-3こおり幸楽苑内", "url": "https://www.kaigokensaku.mhlw.go.jp/46/index.php?action_kouhyou_detail_004_kani=true&JigyosyoCd=4694300098-00&ServiceCd=760&Type=search", "url2": null }, "geometry": { "type": "Point", "coordinates": [ 130.505594100000053, 31.2361705 ] } },
{ "type": "Feature", "properties": { "内容": "ケアサポートセンターシルバーライフちらん【定期巡回・随時対応型訪問介護看護】鹿児島県南九州市知覧町塩屋16016番地", "url": "https://www.kaigokensaku.mhlw.go.jp/46/index.php?action_kouhyou_detail_004_kani=true&JigyosyoCd=4694300148-00&ServiceCd=760&Type=search", "url2": null }, "geometry": { "type": "Point", "coordinates": [ 130.3815224, 31.2896031 ] } },
{ "type": "Feature", "properties": { "内容": "定期巡回随時対応型訪問介護看護あいら【定期巡回・随時対応型訪問介護看護】鹿児島県姶良市西餅田110-1　ガーデンプレイスあいら　301号室", "url": "https://www.kaigokensaku.mhlw.go.jp/46/index.php?action_kouhyou_detail_004_kani=true&JigyosyoCd=4694500168-00&ServiceCd=760&Type=search", "url2": "https://eiwakai.jp/" }, "geometry": { "type": "Point", "coordinates": [ 130.628081, 31.7364697 ] } }
]
}
