{
"type": "FeatureCollection",
"name": "geo_46_短期大学",
"crs": { "type": "name", "properties": { "name": "urn:ogc:def:crs:EPSG::6668" } },
"features": [
{ "type": "Feature", "properties": { "P29_001": "46201", "P29_002": "F246210111681", "P29_003": "16006", "P29_004": "鹿児島県立短期大学", "P29_005": "鹿児島県鹿児島市下伊敷1-52-1", "P29_006": "2", "P29_007": "0", "P29_008": "00", "P29_009": null }, "geometry": { "type": "Point", "coordinates": [ 130.532262988219117, 31.61382502411502 ] } },
{ "type": "Feature", "properties": { "P29_001": "46201", "P29_002": "F246310111698", "P29_003": "16006", "P29_004": "鹿児島純心女子短期大学", "P29_005": "鹿児島県鹿児島市唐湊4-22-1", "P29_006": "4", "P29_007": "0", "P29_008": "00", "P29_009": null }, "geometry": { "type": "Point", "coordinates": [ 130.538616326266776, 31.564044013144393 ] } },
{ "type": "Feature", "properties": { "P29_001": "46201", "P29_002": "F246310111705", "P29_003": "16006", "P29_004": "鹿児島女子短期大学", "P29_005": "鹿児島県鹿児島市高麗町6-9", "P29_006": "4", "P29_007": "0", "P29_008": "00", "P29_009": null }, "geometry": { "type": "Point", "coordinates": [ 130.551484815419542, 31.582846214484302 ] } },
{ "type": "Feature", "properties": { "P29_001": "46218", "P29_002": "F246310111714", "P29_003": "16006", "P29_004": "第一幼児教育短期大学", "P29_005": "鹿児島県霧島市国分中央1-10-2", "P29_006": "4", "P29_007": "0", "P29_008": "00", "P29_009": null }, "geometry": { "type": "Point", "coordinates": [ 130.769894321991302, 31.746207173686113 ] } }
]
}
