{
"type": "FeatureCollection",
"name": "geo_46_小規模多機能型居宅介護",
"crs": { "type": "name", "properties": { "name": "urn:ogc:def:crs:OGC:1.3:CRS84" } },
"features": [
{ "type": "Feature", "properties": { "内容": "小規模多機能ホーム　鹿児島吉田の郷【小規模多機能型居宅介護】鹿児島県鹿児島市宮之浦町3915番地", "url": "https://www.kaigokensaku.mhlw.go.jp/46/index.php?action_kouhyou_detail_004_kani=true&JigyosyoCd=4690100633-00&ServiceCd=730&Type=search", "url2": "http://www18.ocn.ne.jp/~mure/" }, "geometry": { "type": "Point", "coordinates": [ 130.583222200000023, 31.6688023 ] } },
{ "type": "Feature", "properties": { "内容": "メディカル多機能ホーム　タートル【小規模多機能型居宅介護】鹿児島県鹿児島市東開町3-163", "url": "https://www.kaigokensaku.mhlw.go.jp/46/index.php?action_kouhyou_detail_004_kani=true&JigyosyoCd=4690101433-00&ServiceCd=730&Type=search", "url2": null }, "geometry": { "type": "Point", "coordinates": [ 130.53187, 31.5305269 ] } },
{ "type": "Feature", "properties": { "内容": "メディカル多機能オームタートルⅡ【小規模多機能型居宅介護】鹿児島県鹿児島市東開町3-163", "url": "https://www.kaigokensaku.mhlw.go.jp/46/index.php?action_kouhyou_detail_004_kani=true&JigyosyoCd=4690102316-00&ServiceCd=730&Type=search", "url2": null }, "geometry": { "type": "Point", "coordinates": [ 130.5319805, 31.5306561 ] } },
{ "type": "Feature", "properties": { "内容": "小規模多機能ホームさくら【小規模多機能型居宅介護】鹿児島市福山町９５８－１", "url": "https://www.kaigokensaku.mhlw.go.jp/46/index.php?action_kouhyou_detail_004_kani=true&JigyosyoCd=4690100195-00&ServiceCd=730&Type=search", "url2": "http://sakura-kai.co.jp" }, "geometry": { "type": "Point", "coordinates": [ 130.4423683, 31.6071376 ] } },
{ "type": "Feature", "properties": { "内容": "小規模多機能ホーム結の里悠暮里【小規模多機能型居宅介護】鹿児島市油須木町６２９番地", "url": "https://www.kaigokensaku.mhlw.go.jp/46/index.php?action_kouhyou_detail_004_kani=true&JigyosyoCd=4690101078-00&ServiceCd=730&Type=search", "url2": "http://yukuri-grp.com" }, "geometry": { "type": "Point", "coordinates": [ 130.476858799999945, 31.6912259 ] } },
{ "type": "Feature", "properties": { "内容": "千年小規模多機能型居宅介護事業所【小規模多機能型居宅介護】鹿児島県鹿児島市千年2丁目11番12号２階", "url": "https://www.kaigokensaku.mhlw.go.jp/46/index.php?action_kouhyou_detail_004_kani=true&JigyosyoCd=4690101482-00&ServiceCd=730&Type=search", "url2": "http://www.sen-nen.jp" }, "geometry": { "type": "Point", "coordinates": [ 130.523644338761869, 31.639532501237401 ] } },
{ "type": "Feature", "properties": { "内容": "小規模多機能ホームにじの郷たにやま【小規模多機能型居宅介護】鹿児島県鹿児島市中山町5028番地78", "url": "https://www.kaigokensaku.mhlw.go.jp/46/index.php?action_kouhyou_detail_004_kani=true&JigyosyoCd=4690101698-00&ServiceCd=730&Type=search", "url2": "http://nizinosato.com/" }, "geometry": { "type": "Point", "coordinates": [ 130.503044891058835, 31.539177699997619 ] } },
{ "type": "Feature", "properties": { "内容": "株式会社　里幸　小規模多機能ホーム誠花【小規模多機能型居宅介護】鹿児島県鹿児島市星ヶ峯１丁目１７番２号", "url": "https://www.kaigokensaku.mhlw.go.jp/46/index.php?action_kouhyou_detail_004_kani=true&JigyosyoCd=4690101235-00&ServiceCd=730&Type=search", "url2": "https://www.seishin-kai.org/syotaki/seika.html" }, "geometry": { "type": "Point", "coordinates": [ 130.503051631352264, 31.573871327893823 ] } },
{ "type": "Feature", "properties": { "内容": "小規模多機能ホーム　ドリームヒルきむら【小規模多機能型居宅介護】鹿児島県鹿児島市石谷町２１００番地４", "url": "https://www.kaigokensaku.mhlw.go.jp/46/index.php?action_kouhyou_detail_004_kani=true&JigyosyoCd=4690101292-00&ServiceCd=730&Type=search", "url2": "http://kimuragekanaika.com" }, "geometry": { "type": "Point", "coordinates": [ 130.463456800000017, 31.5955393 ] } },
{ "type": "Feature", "properties": { "内容": "小規模多機能ホームほのぼの【小規模多機能型居宅介護】鹿児島市田上6丁目22番41号", "url": "https://www.kaigokensaku.mhlw.go.jp/46/index.php?action_kouhyou_detail_004_kani=true&JigyosyoCd=4690100401-00&ServiceCd=730&Type=search", "url2": "https://syoukeien.jp" }, "geometry": { "type": "Point", "coordinates": [ 130.525104300000066, 31.5816821 ] } },
{ "type": "Feature", "properties": { "内容": "小規模多機能型居宅介護　晴れ晴れホーム【小規模多機能型居宅介護】鹿児島県鹿児島市谷山中央1丁目4997番地", "url": "https://www.kaigokensaku.mhlw.go.jp/46/index.php?action_kouhyou_detail_004_kani=true&JigyosyoCd=4690100732-00&ServiceCd=730&Type=search", "url2": "http://www.kodamaseikeigekaclinic.com" }, "geometry": { "type": "Point", "coordinates": [ 130.516183, 31.5229594 ] } },
{ "type": "Feature", "properties": { "内容": "小規模多機能型居宅介護タンポポ福祉館【小規模多機能型居宅介護】鹿児島県　鹿児島市　春山町１７９９－５", "url": "https://www.kaigokensaku.mhlw.go.jp/46/index.php?action_kouhyou_detail_004_kani=true&JigyosyoCd=4690101425-00&ServiceCd=730&Type=search", "url2": null }, "geometry": { "type": "Point", "coordinates": [ 130.4524993, 31.5848842 ] } },
{ "type": "Feature", "properties": { "内容": "小規模多機能ホーム悠暮里倶楽部【小規模多機能型居宅介護】鹿児島市郡山町68番地", "url": "https://www.kaigokensaku.mhlw.go.jp/46/index.php?action_kouhyou_detail_004_kani=true&JigyosyoCd=4690100252-00&ServiceCd=730&Type=search", "url2": "yukuri-grp.com" }, "geometry": { "type": "Point", "coordinates": [ 130.479362, 31.6815408 ] } },
{ "type": "Feature", "properties": { "内容": "小規模多機能ホームせせらぎ【小規模多機能型居宅介護】鹿児島市真砂本町４－７", "url": "https://www.kaigokensaku.mhlw.go.jp/46/index.php?action_kouhyou_detail_004_kani=true&JigyosyoCd=4690100153-00&ServiceCd=730&Type=search", "url2": "https://ookatsu.jp/kanrenshisetu/takinou_seseragi" }, "geometry": { "type": "Point", "coordinates": [ 130.551644608086377, 31.555448549171786 ] } },
{ "type": "Feature", "properties": { "内容": "小規模多機能ホーム　むっちゃんの家【小規模多機能型居宅介護】鹿児島県鹿児島市吉野町6077番地56", "url": "https://www.kaigokensaku.mhlw.go.jp/46/index.php?action_kouhyou_detail_004_kani=true&JigyosyoCd=4690102092-00&ServiceCd=730&Type=search", "url2": "https://www.mutumien.com" }, "geometry": { "type": "Point", "coordinates": [ 130.59242, 31.6503545 ] } },
{ "type": "Feature", "properties": { "内容": "小規模多機能ホームおあしす南谷山【小規模多機能型居宅介護】鹿児島県鹿児島市小松原２丁目２３番３０号", "url": "https://www.kaigokensaku.mhlw.go.jp/46/index.php?action_kouhyou_detail_004_kani=true&JigyosyoCd=4690100559-00&ServiceCd=730&Type=search", "url2": "http://www.medicorp.co.jp/" }, "geometry": { "type": "Point", "coordinates": [ 130.527873976721139, 31.528181490158193 ] } },
{ "type": "Feature", "properties": { "内容": "小規模　薬師【小規模多機能型居宅介護】鹿児島県鹿児島市原良4丁目27-1", "url": "https://www.kaigokensaku.mhlw.go.jp/46/index.php?action_kouhyou_detail_004_kani=true&JigyosyoCd=4690100922-00&ServiceCd=730&Type=search", "url2": "https://www.kenyukai-kagoshima.com/" }, "geometry": { "type": "Point", "coordinates": [ 130.5344811, 31.5940948 ] } },
{ "type": "Feature", "properties": { "内容": "小規模多機能ホームひとまとわとり【小規模多機能型居宅介護】鹿児島県鹿児島市伊敷5丁目4番17号伊敷ひまわりモール1階", "url": "https://www.kaigokensaku.mhlw.go.jp/46/index.php?action_kouhyou_detail_004_kani=true&JigyosyoCd=4690101706-00&ServiceCd=730&Type=search", "url2": "https://www.himawarien.jp/" }, "geometry": { "type": "Point", "coordinates": [ 130.525796782195243, 31.624657719354381 ] } },
{ "type": "Feature", "properties": { "内容": "小規模多機能ホーム　ショコラ　ながかり【小規模多機能型居宅介護】宇宿9丁目9-13", "url": "https://www.kaigokensaku.mhlw.go.jp/46/index.php?action_kouhyou_detail_004_kani=true&JigyosyoCd=4690100716-00&ServiceCd=730&Type=search", "url2": "https://chocolatusuki.com/" }, "geometry": { "type": "Point", "coordinates": [ 130.5237972, 31.5555935 ] } },
{ "type": "Feature", "properties": { "内容": "小規模多機能ホームすばる【小規模多機能型居宅介護】吉野3丁目9番2号", "url": "https://www.kaigokensaku.mhlw.go.jp/46/index.php?action_kouhyou_detail_004_kani=true&JigyosyoCd=4690101045-00&ServiceCd=730&Type=search", "url2": "http://www.meikikai.com" }, "geometry": { "type": "Point", "coordinates": [ 130.570463482278456, 31.653796646777817 ] } },
{ "type": "Feature", "properties": { "内容": "小規模多機能ホームひばり【小規模多機能型居宅介護】吉野町2042", "url": "https://www.kaigokensaku.mhlw.go.jp/46/index.php?action_kouhyou_detail_004_kani=true&JigyosyoCd=4690100146-00&ServiceCd=730&Type=search", "url2": "http://www.meikikai.com" }, "geometry": { "type": "Point", "coordinates": [ 130.56934380000007, 31.6368747 ] } },
{ "type": "Feature", "properties": { "内容": "小規模多機能ホーム城西【小規模多機能型居宅介護】薬師２丁目６番１６号", "url": "https://www.kaigokensaku.mhlw.go.jp/46/index.php?action_kouhyou_detail_004_kani=true&JigyosyoCd=4690100567-00&ServiceCd=730&Type=search", "url2": "https://jifukai.jp/takinouhomejousei/" }, "geometry": { "type": "Point", "coordinates": [ 130.537066624047839, 31.591062825134728 ] } },
{ "type": "Feature", "properties": { "内容": "小規模多機能ホーム　アルテンハイム鹿児島【小規模多機能型居宅介護】鹿児島市与次郎１丁目４番１８号アルテンハイム鹿児島6階", "url": "https://www.kaigokensaku.mhlw.go.jp/46/index.php?action_kouhyou_detail_004_kani=true&JigyosyoCd=4690101276-00&ServiceCd=730&Type=search", "url2": "http://www.nonohanakai.or.jp" }, "geometry": { "type": "Point", "coordinates": [ 130.559583100000026, 31.5671653 ] } },
{ "type": "Feature", "properties": { "内容": "小規模多機能ホーム　エデンの丘【小規模多機能型居宅介護】鹿児島県鹿児島市坂元町１６１番地４号", "url": "https://www.kaigokensaku.mhlw.go.jp/46/index.php?action_kouhyou_detail_004_kani=true&JigyosyoCd=4690100542-00&ServiceCd=730&Type=search", "url2": "http://www.hakuyukai-group.jp" }, "geometry": { "type": "Point", "coordinates": [ 130.5516288, 31.6216732 ] } },
{ "type": "Feature", "properties": { "内容": "小規模多機能ホーム　ひだまり【小規模多機能型居宅介護】鹿児島県鹿児島市下福元町7505-2", "url": "https://www.kaigokensaku.mhlw.go.jp/46/index.php?action_kouhyou_detail_004_kani=true&JigyosyoCd=4690100344-00&ServiceCd=730&Type=search", "url2": "http://tanpoponosato.jp" }, "geometry": { "type": "Point", "coordinates": [ 130.499645288885517, 31.485314594213129 ] } },
{ "type": "Feature", "properties": { "内容": "小規模多機能型居宅介護事業所年輪【小規模多機能型居宅介護】鹿児島県鹿屋市串良町下小原3105-2小規模多機能型居宅介護事業所年輪", "url": "https://www.kaigokensaku.mhlw.go.jp/46/index.php?action_kouhyou_detail_004_kani=true&JigyosyoCd=4690300217-00&ServiceCd=730&Type=search", "url2": "http://iwakikai.org" }, "geometry": { "type": "Point", "coordinates": [ 130.9319726, 31.3973317 ] } },
{ "type": "Feature", "properties": { "内容": "小規模多機能ホーム　哲ちゃん家【小規模多機能型居宅介護】鹿児島県鹿屋市上祓川町8469番地1", "url": "https://www.kaigokensaku.mhlw.go.jp/46/index.php?action_kouhyou_detail_004_kani=true&JigyosyoCd=4690300035-00&ServiceCd=730&Type=search", "url2": "http://www.kanoya-choujuen.jp/" }, "geometry": { "type": "Point", "coordinates": [ 130.856886800000012, 31.4382329 ] } },
{ "type": "Feature", "properties": { "内容": "小規模多機能ホームあいわ【小規模多機能型居宅介護】鹿児島県鹿屋市吾平町麓3635-1", "url": "https://www.kaigokensaku.mhlw.go.jp/46/index.php?action_kouhyou_detail_004_kani=true&JigyosyoCd=4690300290-00&ServiceCd=730&Type=search", "url2": "http://www.aikohkai.com/" }, "geometry": { "type": "Point", "coordinates": [ 130.9132356, 31.2682687 ] } },
{ "type": "Feature", "properties": { "内容": "小規模多機能ホーム花海家長寿園【小規模多機能型居宅介護】鹿児島県鹿屋市花岡町6265番地", "url": "https://www.kaigokensaku.mhlw.go.jp/46/index.php?action_kouhyou_detail_004_kani=true&JigyosyoCd=4690300274-00&ServiceCd=730&Type=search", "url2": "http://www.kanoya-choujuen.jp" }, "geometry": { "type": "Point", "coordinates": [ 130.771904233065811, 31.415153017461087 ] } },
{ "type": "Feature", "properties": { "内容": "小規模多機能ホームはぁと【小規模多機能型居宅介護】鹿児島県鹿屋市横山町1865番地", "url": "https://www.kaigokensaku.mhlw.go.jp/46/index.php?action_kouhyou_detail_004_kani=true&JigyosyoCd=4690300225-00&ServiceCd=730&Type=search", "url2": null }, "geometry": { "type": "Point", "coordinates": [ 130.836023800000021, 31.3461587 ] } },
{ "type": "Feature", "properties": { "内容": "小規模多機能ホーム　サポートセンターおぐら24【小規模多機能型居宅介護】鹿児島県鹿屋市笠之原町29番39号", "url": "https://www.kaigokensaku.mhlw.go.jp/46/index.php?action_kouhyou_detail_004_kani=true&JigyosyoCd=4690300084-00&ServiceCd=730&Type=search", "url2": "SUPPORT-C@KOSHINKAI.OR.JP" }, "geometry": { "type": "Point", "coordinates": [ 130.88314390000005, 31.3868368 ] } },
{ "type": "Feature", "properties": { "内容": "小規模多機能型居宅介護事業所　花渡川【小規模多機能型居宅介護】枕崎市中央町219番地", "url": "https://www.kaigokensaku.mhlw.go.jp/46/index.php?action_kouhyou_detail_004_kani=true&JigyosyoCd=4690400017-00&ServiceCd=730&Type=search", "url2": "https://koseifukushikai.ko-seikai.jp/kedogawa/" }, "geometry": { "type": "Point", "coordinates": [ 130.283845780950998, 31.272934115009761 ] } },
{ "type": "Feature", "properties": { "内容": "小規模多機能型居宅介護「愛」【小規模多機能型居宅介護】枕崎市住吉町14ｻｻﾞﾝ・ヒルズ2階", "url": "https://www.kaigokensaku.mhlw.go.jp/46/index.php?action_kouhyou_detail_004_kani=true&JigyosyoCd=4690400025-00&ServiceCd=730&Type=search", "url2": "nanpouen-01@po5.synapse.ne.jp" }, "geometry": { "type": "Point", "coordinates": [ 130.2982525, 31.2717303 ] } },
{ "type": "Feature", "properties": { "内容": "小規模多機能型居宅介護事業所　火の神【小規模多機能型居宅介護】枕崎市火之神町725番地", "url": "https://www.kaigokensaku.mhlw.go.jp/46/index.php?action_kouhyou_detail_004_kani=true&JigyosyoCd=4690400108-00&ServiceCd=730&Type=search", "url2": "https://koseifukushikai.ko-seikai.jp/" }, "geometry": { "type": "Point", "coordinates": [ 130.2774795, 31.2529359 ] } },
{ "type": "Feature", "properties": { "内容": "小規模多機能ホーム　希望の杜脇本【小規模多機能型居宅介護】鹿児島県阿久根市脇本1920-1", "url": "https://www.kaigokensaku.mhlw.go.jp/46/index.php?action_kouhyou_detail_004_kani=true&JigyosyoCd=4690600038-00&ServiceCd=730&Type=search", "url2": "http://nposantiti.jp/index.html" }, "geometry": { "type": "Point", "coordinates": [ 130.207293950090047, 32.087196614665928 ] } },
{ "type": "Feature", "properties": { "内容": "小規模多機能ホーム　コミュニティの杜【小規模多機能型居宅介護】鹿児島県阿久根市山下156-1", "url": "https://www.kaigokensaku.mhlw.go.jp/46/index.php?action_kouhyou_detail_004_kani=true&JigyosyoCd=4690600020-00&ServiceCd=730&Type=search", "url2": "http://nposantiti.jp/index.html" }, "geometry": { "type": "Point", "coordinates": [ 130.213777950264785, 32.006664418967965 ] } },
{ "type": "Feature", "properties": { "内容": "小規模多機能ホーム　昴和苑【小規模多機能型居宅介護】阿久根市波留589番地2", "url": "https://www.kaigokensaku.mhlw.go.jp/46/index.php?action_kouhyou_detail_004_kani=true&JigyosyoCd=4690600012-00&ServiceCd=730&Type=search", "url2": "https://kouwakai-uchiyama.or.jp/" }, "geometry": { "type": "Point", "coordinates": [ 130.201392199999987, 32.0213775 ] } },
{ "type": "Feature", "properties": { "内容": "小規模多機能型居宅介護マイポートいずみ【小規模多機能型居宅介護】鹿児島県出水市大野原町1074-2", "url": "https://www.kaigokensaku.mhlw.go.jp/46/index.php?action_kouhyou_detail_004_kani=true&JigyosyoCd=4690800166-00&ServiceCd=730&Type=search", "url2": "http://rehaship-ai.com/" }, "geometry": { "type": "Point", "coordinates": [ 130.332457799999986, 32.0764101 ] } },
{ "type": "Feature", "properties": { "内容": "小規模多機能ホームてまり【小規模多機能型居宅介護】鹿児島県出水市野田町上名８３０番4", "url": "https://www.kaigokensaku.mhlw.go.jp/46/index.php?action_kouhyou_detail_004_kani=true&JigyosyoCd=4690800182-00&ServiceCd=730&Type=search", "url2": null }, "geometry": { "type": "Point", "coordinates": [ 130.270315900000014, 32.0556126 ] } },
{ "type": "Feature", "properties": { "内容": "社会福祉法人出水市社会福祉協議会小規模多機能型居宅介護事業所暖らん【小規模多機能型居宅介護】出水市高尾野町下水流2759-20", "url": "https://www.kaigokensaku.mhlw.go.jp/46/index.php?action_kouhyou_detail_004_kani=true&JigyosyoCd=4690800067-00&ServiceCd=730&Type=search", "url2": "http://www.shakyo.or.jp/hp/1735/" }, "geometry": { "type": "Point", "coordinates": [ 130.300564799999961, 32.0869496 ] } },
{ "type": "Feature", "properties": { "内容": "小規模多機能ホーム伝【小規模多機能型居宅介護】鹿児島県指宿市十町2386-3", "url": "https://www.kaigokensaku.mhlw.go.jp/46/index.php?action_kouhyou_detail_004_kani=true&JigyosyoCd=4691000063-00&ServiceCd=730&Type=search", "url2": "https://aioinosato.com/s-den" }, "geometry": { "type": "Point", "coordinates": [ 130.633492499999988, 31.2515897 ] } },
{ "type": "Feature", "properties": { "内容": "小規模多機能型居宅介護　徒然館【小規模多機能型居宅介護】鹿児島県指宿市大牟礼４丁目４番１９号", "url": "https://www.kaigokensaku.mhlw.go.jp/46/index.php?action_kouhyou_detail_004_kani=true&JigyosyoCd=4691000121-00&ServiceCd=730&Type=search", "url2": "https://ibusuki-carenet.or.jp" }, "geometry": { "type": "Point", "coordinates": [ 130.646547, 31.2454129 ] } },
{ "type": "Feature", "properties": { "内容": "ケアホーム　合歓の木【小規模多機能型居宅介護】山川金生町46番地", "url": "https://www.kaigokensaku.mhlw.go.jp/46/index.php?action_kouhyou_detail_004_kani=true&JigyosyoCd=4691000105-00&ServiceCd=730&Type=search", "url2": "https://ibusuki-kouzenkai.jp/facility/kanrenshisetsu/nemnoki/" }, "geometry": { "type": "Point", "coordinates": [ 130.635651340475505, 31.204412724067964 ] } },
{ "type": "Feature", "properties": { "内容": "小規模多機能型居宅介護施設　ケアホームゆとり【小規模多機能型居宅介護】鹿児島県指宿市西方4915-2", "url": "https://www.kaigokensaku.mhlw.go.jp/46/index.php?action_kouhyou_detail_004_kani=true&JigyosyoCd=4691000238-00&ServiceCd=730&Type=search", "url2": "https://imamiya-yutori.jp" }, "geometry": { "type": "Point", "coordinates": [ 130.6170922, 31.2745884 ] } },
{ "type": "Feature", "properties": { "内容": "小規模多機能ホームあいおい【小規模多機能型居宅介護】鹿児島県指宿市十二町８８番地１５", "url": "https://www.kaigokensaku.mhlw.go.jp/46/index.php?action_kouhyou_detail_004_kani=true&JigyosyoCd=4691000212-00&ServiceCd=730&Type=search", "url2": "http://aioinosato.com" }, "geometry": { "type": "Point", "coordinates": [ 130.6351454, 31.2455625 ] } },
{ "type": "Feature", "properties": { "内容": "小規模多機能ホーム　恵典の泉【小規模多機能型居宅介護】鹿児島県垂水市新城732-1", "url": "https://www.kaigokensaku.mhlw.go.jp/46/index.php?action_kouhyou_detail_004_kani=true&JigyosyoCd=4691400123-00&ServiceCd=730&Type=search", "url2": "wakiaiai2018.com" }, "geometry": { "type": "Point", "coordinates": [ 130.733732, 31.4497185 ] } },
{ "type": "Feature", "properties": { "内容": "医療法人浩愛会　小規模多機能ホーム　ひまわりの里【小規模多機能型居宅介護】錦江町1番地239", "url": "https://www.kaigokensaku.mhlw.go.jp/46/index.php?action_kouhyou_detail_004_kani=true&JigyosyoCd=4691400073-00&ServiceCd=730&Type=search", "url2": null }, "geometry": { "type": "Point", "coordinates": [ 130.695278566270417, 31.492439482845096 ] } },
{ "type": "Feature", "properties": { "内容": "小規模多機能ホーム　くぬきの里【小規模多機能型居宅介護】垂水市柊原625-1", "url": "https://www.kaigokensaku.mhlw.go.jp/46/index.php?action_kouhyou_detail_004_kani=true&JigyosyoCd=4691400065-00&ServiceCd=730&Type=search", "url2": "kunugi@po4.synapse.ne.jp" }, "geometry": { "type": "Point", "coordinates": [ 130.713306815344254, 31.458247557977217 ] } },
{ "type": "Feature", "properties": { "内容": "小規模多機能ホームほほえみ【小規模多機能型居宅介護】鹿児島県垂水市海潟502番地1", "url": "https://www.kaigokensaku.mhlw.go.jp/46/index.php?action_kouhyou_detail_004_kani=true&JigyosyoCd=4691400081-00&ServiceCd=730&Type=search", "url2": "https://www.hohoemi.trmz.jp" }, "geometry": { "type": "Point", "coordinates": [ 130.700433400000094, 31.5243218 ] } },
{ "type": "Feature", "properties": { "内容": "小規模多機能型居宅介護鳥丸【小規模多機能型居宅介護】鹿児島県薩摩川内市東郷町宍野１４２９番地２", "url": "https://www.kaigokensaku.mhlw.go.jp/46/index.php?action_kouhyou_detail_004_kani=true&JigyosyoCd=4691500179-00&ServiceCd=730&Type=search", "url2": "https://ajisaien-kagoshima.com" }, "geometry": { "type": "Point", "coordinates": [ 130.333234313036286, 31.890406684079249 ] } },
{ "type": "Feature", "properties": { "内容": "小規模　大小路【小規模多機能型居宅介護】鹿児島県薩摩川内市大小路町52番6号", "url": "https://www.kaigokensaku.mhlw.go.jp/46/index.php?action_kouhyou_detail_004_kani=true&JigyosyoCd=4691500187-00&ServiceCd=730&Type=search", "url2": "https://doujunkai.or.jp/" }, "geometry": { "type": "Point", "coordinates": [ 130.303328430757915, 31.823271362732985 ] } },
{ "type": "Feature", "properties": { "内容": "小規模多機能ホーム　せせらぎ【小規模多機能型居宅介護】鹿児島県薩摩川内市祁答院町上手５００番地７", "url": "https://www.kaigokensaku.mhlw.go.jp/46/index.php?action_kouhyou_detail_004_kani=true&JigyosyoCd=4690200169-00&ServiceCd=730&Type=search", "url2": "http://www.mikurakai.or.jp" }, "geometry": { "type": "Point", "coordinates": [ 130.5138594, 31.8668962 ] } },
{ "type": "Feature", "properties": { "内容": "小規模多機能ホーム　風光舎【小規模多機能型居宅介護】薩摩川内市入来町浦之名566‐2", "url": "https://www.kaigokensaku.mhlw.go.jp/46/index.php?action_kouhyou_detail_004_kani=true&JigyosyoCd=4690200193-00&ServiceCd=730&Type=search", "url2": "http://www.ichihuku.jp/" }, "geometry": { "type": "Point", "coordinates": [ 130.426744099999951, 31.7981878 ] } },
{ "type": "Feature", "properties": { "内容": "小規模多機能施設　水光舎【小規模多機能型居宅介護】原田町8番1号", "url": "https://www.kaigokensaku.mhlw.go.jp/46/index.php?action_kouhyou_detail_004_kani=true&JigyosyoCd=4690200136-00&ServiceCd=730&Type=search", "url2": "http://www.takushokai.com" }, "geometry": { "type": "Point", "coordinates": [ 130.306869634948725, 31.827434111354844 ] } },
{ "type": "Feature", "properties": { "内容": "小規模多機能ホーム　とうごう苑さくら荘【小規模多機能型居宅介護】鹿児島県薩摩川内市東郷町斧渕2029番地", "url": "https://www.kaigokensaku.mhlw.go.jp/46/index.php?action_kouhyou_detail_004_kani=true&JigyosyoCd=4690200060-00&ServiceCd=730&Type=search", "url2": "http://tougouen.jp" }, "geometry": { "type": "Point", "coordinates": [ 130.361124099999984, 31.8596824 ] } },
{ "type": "Feature", "properties": { "内容": "久保内科小規模多機能ホーム【小規模多機能型居宅介護】鹿児島県日置市伊集院町郡１１９９番地３", "url": "https://www.kaigokensaku.mhlw.go.jp/46/index.php?action_kouhyou_detail_004_kani=true&JigyosyoCd=4691500021-00&ServiceCd=730&Type=search", "url2": "https://kubonaikakaigosisetu2.jimdofree.com/" }, "geometry": { "type": "Point", "coordinates": [ 130.404056344703122, 31.636899142003692 ] } },
{ "type": "Feature", "properties": { "内容": "小規模多機能ホーム百佑【小規模多機能型居宅介護】吹上町小野1478ふきあげタウン", "url": "https://www.kaigokensaku.mhlw.go.jp/46/index.php?action_kouhyou_detail_004_kani=true&JigyosyoCd=4691500047-00&ServiceCd=730&Type=search", "url2": "http://www.seishin-kai.org/" }, "geometry": { "type": "Point", "coordinates": [ 130.338284199999947, 31.5374245 ] } },
{ "type": "Feature", "properties": { "内容": "小規模多機能ホーム　やぼのさと【小規模多機能型居宅介護】鹿児島県日置市東市来町長里5213-2", "url": "https://www.kaigokensaku.mhlw.go.jp/46/index.php?action_kouhyou_detail_004_kani=true&JigyosyoCd=4691500237-00&ServiceCd=730&Type=search", "url2": "ｈｔｔｐｓ：//ｗｗｗ.seishin-kai.org/" }, "geometry": { "type": "Point", "coordinates": [ 130.366843099999983, 31.6626744 ] } },
{ "type": "Feature", "properties": { "内容": "小規模多機能ホーム　ひおきの丘【小規模多機能型居宅介護】日吉町日置407-1", "url": "https://www.kaigokensaku.mhlw.go.jp/46/index.php?action_kouhyou_detail_004_kani=true&JigyosyoCd=4691500062-00&ServiceCd=730&Type=search", "url2": "http://www.miyuki-clinic.net/" }, "geometry": { "type": "Point", "coordinates": [ 130.345756100000017, 31.5900172 ] } },
{ "type": "Feature", "properties": { "内容": "おおすみ日輪館【小規模多機能型居宅介護】鹿児島県曽於市大隅町坂元４０３１－５おおすみ日輪館", "url": "https://www.kaigokensaku.mhlw.go.jp/46/index.php?action_kouhyou_detail_004_kani=true&JigyosyoCd=4691600169-00&ServiceCd=730&Type=search", "url2": null }, "geometry": { "type": "Point", "coordinates": [ 130.905711500000052, 31.6103019 ] } },
{ "type": "Feature", "properties": { "内容": "小規模多機能ホーム　高松みどりの里【小規模多機能型居宅介護】鹿児島県曽於市末吉町諏訪方6875番地", "url": "https://www.kaigokensaku.mhlw.go.jp/46/index.php?action_kouhyou_detail_004_kani=true&JigyosyoCd=4691600060-00&ServiceCd=730&Type=search", "url2": "http://hakujyukai-kagoshima.jp/oosumien" }, "geometry": { "type": "Point", "coordinates": [ 130.993412600000056, 31.6498158 ] } },
{ "type": "Feature", "properties": { "内容": "小規模多機能ホーム　より愛さかもと【小規模多機能型居宅介護】鹿児島県曽於市大隅町中之内4035番地11", "url": "https://www.kaigokensaku.mhlw.go.jp/46/index.php?action_kouhyou_detail_004_kani=true&JigyosyoCd=4691600011-00&ServiceCd=730&Type=search", "url2": "http://soo-shakyo.or.jp/" }, "geometry": { "type": "Point", "coordinates": [ 130.898799516898436, 31.647893933381532 ] } },
{ "type": "Feature", "properties": { "内容": "小規模多機能ホームひまわり【小規模多機能型居宅介護】鹿児島県霧島市牧園町宿窪田１６９－２２", "url": "https://www.kaigokensaku.mhlw.go.jp/46/index.php?action_kouhyou_detail_004_kani=true&JigyosyoCd=4691200135-00&ServiceCd=730&Type=search", "url2": null }, "geometry": { "type": "Point", "coordinates": [ 130.734602200000012, 31.868038800000011 ] } },
{ "type": "Feature", "properties": { "内容": "地域サポートセンター　よいどこい【小規模多機能型居宅介護】霧島市国分府中町１７－８", "url": "https://www.kaigokensaku.mhlw.go.jp/46/index.php?action_kouhyou_detail_004_kani=true&JigyosyoCd=4691200333-00&ServiceCd=730&Type=search", "url2": "http://www.yokaanbe.com/" }, "geometry": { "type": "Point", "coordinates": [ 130.759197500000028, 31.7443346 ] } },
{ "type": "Feature", "properties": { "内容": "小規模多機能ホーム　一休庵きりしま【小規模多機能型居宅介護】霧島市霧島田口578-1", "url": "https://www.kaigokensaku.mhlw.go.jp/46/index.php?action_kouhyou_detail_004_kani=true&JigyosyoCd=4691200150-00&ServiceCd=730&Type=search", "url2": "htt://www.keijuen.net" }, "geometry": { "type": "Point", "coordinates": [ 130.840479499999987, 31.831761 ] } },
{ "type": "Feature", "properties": { "内容": "小規模多機能ホーム敷根【小規模多機能型居宅介護】鹿児島県霧島市国分敷根１０２８－２", "url": "https://www.kaigokensaku.mhlw.go.jp/46/index.php?action_kouhyou_detail_004_kani=true&JigyosyoCd=4691200358-00&ServiceCd=730&Type=search", "url2": "http://www.seitenkai.jp/" }, "geometry": { "type": "Point", "coordinates": [ 130.795040200000017, 31.7022553 ] } },
{ "type": "Feature", "properties": { "内容": "小規模多機能ホームうのき【小規模多機能型居宅介護】霧島市国分中央三丁目19-8", "url": "https://www.kaigokensaku.mhlw.go.jp/46/index.php?action_kouhyou_detail_004_kani=true&JigyosyoCd=4691200325-00&ServiceCd=730&Type=search", "url2": "http://syunseikai-unoki.jp/" }, "geometry": { "type": "Point", "coordinates": [ 130.769460900000013, 31.7370603 ] } },
{ "type": "Feature", "properties": { "内容": "小規模多機能ホーム陽だまり【小規模多機能型居宅介護】鹿児島県霧島市国分広瀬2丁目28-16-1", "url": "https://www.kaigokensaku.mhlw.go.jp/46/index.php?action_kouhyou_detail_004_kani=true&JigyosyoCd=4691200465-00&ServiceCd=730&Type=search", "url2": "http://www.seiikai.com/" }, "geometry": { "type": "Point", "coordinates": [ 130.754124400000023, 31.718855 ] } },
{ "type": "Feature", "properties": { "内容": "小規模多機能ホーム　よいやんせ【小規模多機能型居宅介護】霧島市溝辺町崎森2759-1", "url": "https://www.kaigokensaku.mhlw.go.jp/46/index.php?action_kouhyou_detail_004_kani=true&JigyosyoCd=4691200028-00&ServiceCd=730&Type=search", "url2": "http://yoiyanse.jp" }, "geometry": { "type": "Point", "coordinates": [ 130.7002271, 31.7795103 ] } },
{ "type": "Feature", "properties": { "内容": "小規模多機能ホームオアシスケア神宮【小規模多機能型居宅介護】鹿児島県霧島市隼人町神宮三丁目３番５－１号", "url": "https://www.kaigokensaku.mhlw.go.jp/46/index.php?action_kouhyou_detail_004_kani=true&JigyosyoCd=4691200440-00&ServiceCd=730&Type=search", "url2": "oasiscare.jp" }, "geometry": { "type": "Point", "coordinates": [ 130.741777035582032, 31.751643345403192 ] } },
{ "type": "Feature", "properties": { "内容": "小規模多機能ホームおあしす福山【小規模多機能型居宅介護】鹿児島県霧島市福山町福山5410番地26", "url": "https://www.kaigokensaku.mhlw.go.jp/46/index.php?action_kouhyou_detail_004_kani=true&JigyosyoCd=4691200226-00&ServiceCd=730&Type=search", "url2": "http://www.medicorp.co.jp" }, "geometry": { "type": "Point", "coordinates": [ 130.855552699999947, 31.6676491 ] } },
{ "type": "Feature", "properties": { "内容": "小規模多機能ホームおあしす国分【小規模多機能型居宅介護】鹿児島県霧島市国分福島三丁目61番3号", "url": "https://www.kaigokensaku.mhlw.go.jp/46/index.php?action_kouhyou_detail_004_kani=true&JigyosyoCd=4691200341-00&ServiceCd=730&Type=search", "url2": "www.medicorp.co.jp" }, "geometry": { "type": "Point", "coordinates": [ 130.763436599999977, 31.7304219 ] } },
{ "type": "Feature", "properties": { "内容": "小規模多機能ホームふもとの家【小規模多機能型居宅介護】鹿児島県霧島市溝辺町麓２６１７番地", "url": "https://www.kaigokensaku.mhlw.go.jp/46/index.php?action_kouhyou_detail_004_kani=true&JigyosyoCd=4691200267-00&ServiceCd=730&Type=search", "url2": "https://www.flowerh.jp/" }, "geometry": { "type": "Point", "coordinates": [ 130.702566192555651, 31.816860805915265 ] } },
{ "type": "Feature", "properties": { "内容": "小規模多機能あんず庵【小規模多機能型居宅介護】鹿児島県霧島市国分中央4丁目17番15号", "url": "https://www.kaigokensaku.mhlw.go.jp/46/index.php?action_kouhyou_detail_004_kani=true&JigyosyoCd=4691200564-00&ServiceCd=730&Type=search", "url2": "https://anzu-an1101.jimdofree.com/" }, "geometry": { "type": "Point", "coordinates": [ 130.773001974204988, 31.733210888997739 ] } },
{ "type": "Feature", "properties": { "内容": "株式会社　遠友舎　小規模多機能ホーム　がんばろ家【小規模多機能型居宅介護】隼人町松永3135-2", "url": "https://www.kaigokensaku.mhlw.go.jp/46/index.php?action_kouhyou_detail_004_kani=true&JigyosyoCd=4691200473-00&ServiceCd=730&Type=search", "url2": "https://enyusya.com/" }, "geometry": { "type": "Point", "coordinates": [ 130.761620499999907, 31.7821559 ] } },
{ "type": "Feature", "properties": { "内容": "小規模多機能ホームまーる【小規模多機能型居宅介護】国分城山町６－１６", "url": "https://www.kaigokensaku.mhlw.go.jp/46/index.php?action_kouhyou_detail_004_kani=true&JigyosyoCd=4691200556-00&ServiceCd=730&Type=search", "url2": "https://www.en-marl.com/" }, "geometry": { "type": "Point", "coordinates": [ 130.77672050000001, 31.7439463 ] } },
{ "type": "Feature", "properties": { "内容": "小規模多機能ホームおあしす重久【小規模多機能型居宅介護】鹿児島県霧島市国分重久411番地3", "url": "https://www.kaigokensaku.mhlw.go.jp/46/index.php?action_kouhyou_detail_004_kani=true&JigyosyoCd=4691200168-00&ServiceCd=730&Type=search", "url2": "http://www.medicorp.co.jp/" }, "geometry": { "type": "Point", "coordinates": [ 130.776134, 31.7674826 ] } },
{ "type": "Feature", "properties": { "内容": "小規模多機能ホーム　実恩【小規模多機能型居宅介護】鹿児島県いちき串木野市湊町2744番地1", "url": "https://www.kaigokensaku.mhlw.go.jp/46/index.php?action_kouhyou_detail_004_kani=true&JigyosyoCd=4690500022-00&ServiceCd=730&Type=search", "url2": "http://www.seishin-kai.org/ke/" }, "geometry": { "type": "Point", "coordinates": [ 130.292530400000032, 31.6915225 ] } },
{ "type": "Feature", "properties": { "内容": "小規模多機能ホーム尊丘之家【小規模多機能型居宅介護】南さつま市坊津町久志２１５８番地小規模多機能ホーム尊丘之家", "url": "https://www.kaigokensaku.mhlw.go.jp/46/index.php?action_kouhyou_detail_004_kani=true&JigyosyoCd=4691100079-00&ServiceCd=730&Type=search", "url2": null }, "geometry": { "type": "Point", "coordinates": [ 130.227854100000059, 31.3061498 ] } },
{ "type": "Feature", "properties": { "内容": "小規模多機能ホーム街の家【小規模多機能型居宅介護】鹿児島県南さつま市加世田本町11-2和光ビル1階", "url": "https://www.kaigokensaku.mhlw.go.jp/46/index.php?action_kouhyou_detail_004_kani=true&JigyosyoCd=4691100152-00&ServiceCd=730&Type=search", "url2": null }, "geometry": { "type": "Point", "coordinates": [ 130.320824200000061, 31.4208809 ] } },
{ "type": "Feature", "properties": { "内容": "小規模多機能型居宅介護ガレリアルナ【小規模多機能型居宅介護】南さつま市加世田東本町8-10ケアタウンカーサブランカ", "url": "https://www.kaigokensaku.mhlw.go.jp/46/index.php?action_kouhyou_detail_004_kani=true&JigyosyoCd=4691100095-00&ServiceCd=730&Type=search", "url2": "http：//www5.synapse.ne.jp./nonohana" }, "geometry": { "type": "Point", "coordinates": [ 130.3242017, 31.4198144 ] } },
{ "type": "Feature", "properties": { "内容": "小規模多機能ホーム桑の実【小規模多機能型居宅介護】鹿児島県南さつま市金峰町中津野564番地", "url": "https://www.kaigokensaku.mhlw.go.jp/46/index.php?action_kouhyou_detail_004_kani=true&JigyosyoCd=4691100061-00&ServiceCd=730&Type=search", "url2": null }, "geometry": { "type": "Point", "coordinates": [ 130.3446927, 31.4494187 ] } },
{ "type": "Feature", "properties": { "内容": "小規模多機能ホームたぶせの里【小規模多機能型居宅介護】鹿児島県南さつま市金峰町390", "url": "https://www.kaigokensaku.mhlw.go.jp/46/index.php?action_kouhyou_detail_004_kani=true&JigyosyoCd=4691100160-00&ServiceCd=730&Type=search", "url2": null }, "geometry": { "type": "Point", "coordinates": [ 130.343439600000011, 31.460470200000024 ] } },
{ "type": "Feature", "properties": { "内容": "小規模多機能介護施設　みどりの風【小規模多機能型居宅介護】鹿児島県志布志市松山町泰野3964-1", "url": "https://www.kaigokensaku.mhlw.go.jp/46/index.php?action_kouhyou_detail_004_kani=true&JigyosyoCd=4691700050-00&ServiceCd=730&Type=search", "url2": null }, "geometry": { "type": "Point", "coordinates": [ 131.067779, 31.5634606 ] } },
{ "type": "Feature", "properties": { "内容": "小規模多機能ホーム　ひなたぼっこ【小規模多機能型居宅介護】鹿児島県志布志市志布志町志布志2-28-12小規模多機能ホームひなたぼっこ", "url": "https://www.kaigokensaku.mhlw.go.jp/46/index.php?action_kouhyou_detail_004_kani=true&JigyosyoCd=4691700043-00&ServiceCd=730&Type=search", "url2": "http://www.sayuukai.or.jp/kyouyuukai/" }, "geometry": { "type": "Point", "coordinates": [ 131.099425099999962, 31.4734334 ] } },
{ "type": "Feature", "properties": { "内容": "あおぞら小規模多機能事業所【小規模多機能型居宅介護】鹿児島県奄美市名瀬幸町20-17シダマビル2階", "url": "https://www.kaigokensaku.mhlw.go.jp/46/index.php?action_kouhyou_detail_004_kani=true&JigyosyoCd=4690700051-00&ServiceCd=730&Type=search", "url2": null }, "geometry": { "type": "Point", "coordinates": [ 129.493265899999983, 28.3778731 ] } },
{ "type": "Feature", "properties": { "内容": "小規模多機能ホーム　家族の家かさり【小規模多機能型居宅介護】鹿児島県奄美市笠利町辺留37-1", "url": "https://www.kaigokensaku.mhlw.go.jp/46/index.php?action_kouhyou_detail_004_kani=true&JigyosyoCd=4690700176-00&ServiceCd=730&Type=search", "url2": null }, "geometry": { "type": "Point", "coordinates": [ 129.697783, 28.4835367 ] } },
{ "type": "Feature", "properties": { "内容": "ふれ愛やすらぎの郷【小規模多機能型居宅介護】鹿児島県南九州市頴娃町上別府4627番地", "url": "https://www.kaigokensaku.mhlw.go.jp/46/index.php?action_kouhyou_detail_004_kani=true&JigyosyoCd=4694300023-00&ServiceCd=730&Type=search", "url2": null }, "geometry": { "type": "Point", "coordinates": [ 130.459360299999958, 31.2967272 ] } },
{ "type": "Feature", "properties": { "内容": "ひらやまのお家【小規模多機能型居宅介護】川辺町平山3294", "url": "https://www.kaigokensaku.mhlw.go.jp/46/index.php?action_kouhyou_detail_004_kani=true&JigyosyoCd=4694300080-00&ServiceCd=730&Type=search", "url2": "https://www.168abc.jp" }, "geometry": { "type": "Point", "coordinates": [ 130.392286942327928, 31.38890469579809 ] } },
{ "type": "Feature", "properties": { "内容": "よりあい処　いろり【小規模多機能型居宅介護】大口堂崎５５９番地２", "url": "https://www.kaigokensaku.mhlw.go.jp/46/index.php?action_kouhyou_detail_004_kani=true&JigyosyoCd=4694400039-00&ServiceCd=730&Type=search", "url2": "www.daiichikai.or.jp" }, "geometry": { "type": "Point", "coordinates": [ 130.597840200000064, 32.0346601 ] } },
{ "type": "Feature", "properties": { "内容": "小規模多機能ホーム　まごんて【小規模多機能型居宅介護】鹿児島県伊佐市菱刈重留1137", "url": "https://www.kaigokensaku.mhlw.go.jp/46/index.php?action_kouhyou_detail_004_kani=true&JigyosyoCd=4694400096-00&ServiceCd=730&Type=search", "url2": null }, "geometry": { "type": "Point", "coordinates": [ 130.633789, 32.0355436 ] } },
{ "type": "Feature", "properties": { "内容": "小規模多機能ホーム　さざんか【小規模多機能型居宅介護】鹿児島県姶良市東餅田3353", "url": "https://www.kaigokensaku.mhlw.go.jp/46/index.php?action_kouhyou_detail_004_kani=true&JigyosyoCd=4695300022-00&ServiceCd=730&Type=search", "url2": "sazankaen@ml.j-bee.com" }, "geometry": { "type": "Point", "coordinates": [ 130.633374, 31.7253979 ] } },
{ "type": "Feature", "properties": { "内容": "共生ホーム　よかあんべ【小規模多機能型居宅介護】姶良市加治木町反土2378ー", "url": "https://www.kaigokensaku.mhlw.go.jp/46/index.php?action_kouhyou_detail_004_kani=true&JigyosyoCd=4694500036-00&ServiceCd=730&Type=search", "url2": "http://www.yokaanbe." }, "geometry": { "type": "Point", "coordinates": [ 130.661566099999959, 31.7432569 ] } },
{ "type": "Feature", "properties": { "内容": "小規模多機能ホームやすらぎの里【小規模多機能型居宅介護】姶良市下名2992", "url": "https://www.kaigokensaku.mhlw.go.jp/46/index.php?action_kouhyou_detail_004_kani=true&JigyosyoCd=4694500242-00&ServiceCd=730&Type=search", "url2": "https://www.aira-yasuragi.com/service/multifunctional-home/" }, "geometry": { "type": "Point", "coordinates": [ 130.6190958, 31.7676758 ] } },
{ "type": "Feature", "properties": { "内容": "小規模多機能ホーム　みどりのお家　はっぴい【小規模多機能型居宅介護】鹿児島県姶良市加治木町反土2156-1", "url": "https://www.kaigokensaku.mhlw.go.jp/46/index.php?action_kouhyou_detail_004_kani=true&JigyosyoCd=4694500135-00&ServiceCd=730&Type=search", "url2": "www.fukushi-greencoop.or.jp" }, "geometry": { "type": "Point", "coordinates": [ 130.664840599999962, 31.746458100000023 ] } },
{ "type": "Feature", "properties": { "内容": "小規模多機能ホームやまぼうし【小規模多機能型居宅介護】鹿児島県姶良市加治木町小山田1419－1やまぼうし", "url": "https://www.kaigokensaku.mhlw.go.jp/46/index.php?action_kouhyou_detail_004_kani=true&JigyosyoCd=4694500275-00&ServiceCd=730&Type=search", "url2": null }, "geometry": { "type": "Point", "coordinates": [ 130.673409514155566, 31.760012556961239 ] } },
{ "type": "Feature", "properties": { "内容": "小規模多機能ホームたから【小規模多機能型居宅介護】鹿児島県鹿児島郡十島村宝島38番地", "url": "https://www.kaigokensaku.mhlw.go.jp/46/index.php?action_kouhyou_detail_004_kani=true&JigyosyoCd=4691800025-00&ServiceCd=730&Type=search", "url2": null }, "geometry": { "type": "Point", "coordinates": [ 129.205163, 29.152673 ] } },
{ "type": "Feature", "properties": { "内容": "ＪＡ北さつま小規模多機能ホーム【小規模多機能型居宅介護】鹿児島県薩摩郡さつま町田原１８９－１", "url": "https://www.kaigokensaku.mhlw.go.jp/46/index.php?action_kouhyou_detail_004_kani=true&JigyosyoCd=4693900054-00&ServiceCd=730&Type=search", "url2": null }, "geometry": { "type": "Point", "coordinates": [ 130.484377, 31.919217 ] } },
{ "type": "Feature", "properties": { "内容": "小規模多機能ホーム　よかよかん【小規模多機能型居宅介護】鹿児島県薩摩郡さつま町虎居1553-2", "url": "https://www.kaigokensaku.mhlw.go.jp/46/index.php?action_kouhyou_detail_004_kani=true&JigyosyoCd=4693900047-00&ServiceCd=730&Type=search", "url2": "http://yokayokan.jp/" }, "geometry": { "type": "Point", "coordinates": [ 130.445062900000039, 31.9080173 ] } },
{ "type": "Feature", "properties": { "内容": "達者の家いろどり【小規模多機能型居宅介護】鹿児島県出水郡長島町指江343‐1", "url": "https://www.kaigokensaku.mhlw.go.jp/46/index.php?action_kouhyou_detail_004_kani=true&JigyosyoCd=4695000069-00&ServiceCd=730&Type=search", "url2": "http://carecraftsman.com" }, "geometry": { "type": "Point", "coordinates": [ 130.1401539, 32.1630576 ] } },
{ "type": "Feature", "properties": { "内容": "小規模多機能ホームともに【小規模多機能型居宅介護】鹿児島県肝属郡肝付町新富4994番地", "url": "https://www.kaigokensaku.mhlw.go.jp/46/index.php?action_kouhyou_detail_004_kani=true&JigyosyoCd=4697300053-00&ServiceCd=730&Type=search", "url2": "www.kk-thmm.com" }, "geometry": { "type": "Point", "coordinates": [ 130.953130499999986, 31.3474643 ] } },
{ "type": "Feature", "properties": { "内容": "小規模多機能ホーム　南の空【小規模多機能型居宅介護】鹿児島県肝属郡肝付町富山１７９１番地１", "url": "https://www.kaigokensaku.mhlw.go.jp/46/index.php?action_kouhyou_detail_004_kani=true&JigyosyoCd=4697300012-00&ServiceCd=730&Type=search", "url2": "http://www.minaminotaiyo.co.jp" }, "geometry": { "type": "Point", "coordinates": [ 130.899270200000046, 31.3890259 ] } },
{ "type": "Feature", "properties": { "内容": "小規模多機能ホーム　こころ【小規模多機能型居宅介護】鹿児島県熊毛郡中種子町野間11279番地小規模多機能ホームこころ", "url": "https://www.kaigokensaku.mhlw.go.jp/46/index.php?action_kouhyou_detail_004_kani=true&JigyosyoCd=4698000017-00&ServiceCd=730&Type=search", "url2": "http://www2.synapse.ne.jp/home-akari/c-index.html" }, "geometry": { "type": "Point", "coordinates": [ 130.95947190000004, 30.5333251 ] } },
{ "type": "Feature", "properties": { "内容": "小規模多機能ホームあかり【小規模多機能型居宅介護】鹿児島県熊毛郡南種子町中之下1858番地1", "url": "https://www.kaigokensaku.mhlw.go.jp/46/index.php?action_kouhyou_detail_004_kani=true&JigyosyoCd=4698100015-00&ServiceCd=730&Type=search", "url2": "http://www2.synapse.ne.jp/home-akari" }, "geometry": { "type": "Point", "coordinates": [ 130.896466, 30.4137792 ] } },
{ "type": "Feature", "properties": { "内容": "有限会社　岡村　ひまわりのお家【小規模多機能型居宅介護】鹿児島県熊毛郡屋久島町宮之浦2384-10", "url": "https://www.kaigokensaku.mhlw.go.jp/46/index.php?action_kouhyou_detail_004_kani=true&JigyosyoCd=4698200013-00&ServiceCd=730&Type=search", "url2": "http：//www.himawarino-ouchi.com/" }, "geometry": { "type": "Point", "coordinates": [ 130.57248437116391, 30.41967477344734 ] } },
{ "type": "Feature", "properties": { "内容": "小規模多機能ホーム　おやこ【小規模多機能型居宅介護】鹿児島県大島郡瀬戸内町薩川243", "url": "https://www.kaigokensaku.mhlw.go.jp/46/index.php?action_kouhyou_detail_004_kani=true&JigyosyoCd=4698600113-00&ServiceCd=730&Type=search", "url2": null }, "geometry": { "type": "Point", "coordinates": [ 129.20219349748379, 28.180446674433856 ] } },
{ "type": "Feature", "properties": { "内容": "小規模多機能型居宅介護支援事業所ルリカケス【小規模多機能型居宅介護】鹿児島県大島郡瀬戸内町久慈539-1", "url": "https://www.kaigokensaku.mhlw.go.jp/46/index.php?action_kouhyou_detail_004_kani=true&JigyosyoCd=4698600089-00&ServiceCd=730&Type=search", "url2": null }, "geometry": { "type": "Point", "coordinates": [ 129.251894200000038, 28.2307259 ] } },
{ "type": "Feature", "properties": { "内容": "小規模多機能ホームほこらしゃ【小規模多機能型居宅介護】鹿児島県大島郡瀬戸内町渡連136", "url": "https://www.kaigokensaku.mhlw.go.jp/46/index.php?action_kouhyou_detail_004_kani=true&JigyosyoCd=4698600097-00&ServiceCd=730&Type=search", "url2": null }, "geometry": { "type": "Point", "coordinates": [ 129.336483600000065, 28.1095384 ] } },
{ "type": "Feature", "properties": { "内容": "小規模多機能　ひなた【小規模多機能型居宅介護】鹿児島県大島郡龍郷町瀬留297-1番地", "url": "https://www.kaigokensaku.mhlw.go.jp/46/index.php?action_kouhyou_detail_004_kani=true&JigyosyoCd=4698800028-00&ServiceCd=730&Type=search", "url2": null }, "geometry": { "type": "Point", "coordinates": [ 129.5888802, 28.4154786 ] } },
{ "type": "Feature", "properties": { "内容": "小規模多機能ホーム　　十五夜【小規模多機能型居宅介護】鹿児島県大島郡喜界町坂嶺２０５９番地", "url": "https://www.kaigokensaku.mhlw.go.jp/46/index.php?action_kouhyou_detail_004_kani=true&JigyosyoCd=4699000016-00&ServiceCd=730&Type=search", "url2": null }, "geometry": { "type": "Point", "coordinates": [ 129.97044, 28.3391847 ] } },
{ "type": "Feature", "properties": { "内容": "小規模多機能南風園【小規模多機能型居宅介護】鹿児島県大島郡徳之島町亀津2882番地1総合施設　南風園　２階", "url": "https://www.kaigokensaku.mhlw.go.jp/46/index.php?action_kouhyou_detail_004_kani=true&JigyosyoCd=4699100030-00&ServiceCd=730&Type=search", "url2": "https://www.nanpuuen.org/" }, "geometry": { "type": "Point", "coordinates": [ 129.017424500000061, 27.7282171 ] } },
{ "type": "Feature", "properties": { "内容": "小規模多機能花徳　南風園【小規模多機能型居宅介護】鹿児島県大島郡徳之島町花徳624-1", "url": "https://www.kaigokensaku.mhlw.go.jp/46/index.php?action_kouhyou_detail_004_kani=true&JigyosyoCd=4699100022-00&ServiceCd=730&Type=search", "url2": "https：//www.nanpuuen.org/" }, "geometry": { "type": "Point", "coordinates": [ 128.9511518, 27.820358 ] } },
{ "type": "Feature", "properties": { "内容": "ホーム　賀寿丸【小規模多機能型居宅介護】鹿児島県大島郡伊仙町面縄大当2117番地１", "url": "https://www.kaigokensaku.mhlw.go.jp/46/index.php?action_kouhyou_detail_004_kani=true&JigyosyoCd=4699300036-00&ServiceCd=730&Type=search", "url2": null }, "geometry": { "type": "Point", "coordinates": [ 128.974898086430358, 27.676311772242823 ] } },
{ "type": "Feature", "properties": { "内容": "小規模多機能ホームぐすく【小規模多機能型居宅介護】鹿児島県大島郡和泊町内城５２９－１小規模多機能ホームぐすく", "url": "https://www.kaigokensaku.mhlw.go.jp/46/index.php?action_kouhyou_detail_004_kani=true&JigyosyoCd=4699400075-00&ServiceCd=730&Type=search", "url2": null }, "geometry": { "type": "Point", "coordinates": [ 128.608561449707054, 27.382074246136646 ] } },
{ "type": "Feature", "properties": { "内容": "さくら園ゆらりの里【小規模多機能型居宅介護】鹿児島県大島郡知名町徳時１３１７番地", "url": "https://www.kaigokensaku.mhlw.go.jp/46/index.php?action_kouhyou_detail_004_kani=true&JigyosyoCd=4699500023-00&ServiceCd=730&Type=search", "url2": null }, "geometry": { "type": "Point", "coordinates": [ 128.543507299999987, 27.3519511 ] } },
{ "type": "Feature", "properties": { "内容": "小規模多機能ホーム　笑顔の虹【小規模多機能型居宅介護】鹿児島県大島郡知名町下平川719番地１", "url": "https://www.kaigokensaku.mhlw.go.jp/46/index.php?action_kouhyou_detail_004_kani=true&JigyosyoCd=4699500056-00&ServiceCd=730&Type=search", "url2": "https：//www.ikoinomori-erabu.com" }, "geometry": { "type": "Point", "coordinates": [ 128.597198059246779, 27.358591042079357 ] } },
{ "type": "Feature", "properties": { "内容": "フローラルホーム　花の家【小規模多機能型居宅介護】鹿児島県大島郡知名町知名160", "url": "https://www.kaigokensaku.mhlw.go.jp/46/index.php?action_kouhyou_detail_004_kani=true&JigyosyoCd=4699500072-00&ServiceCd=730&Type=search", "url2": null }, "geometry": { "type": "Point", "coordinates": [ 128.573901799999987, 27.3363302 ] } },
{ "type": "Feature", "properties": { "内容": "小規模多機能ホーム　フゥイ・ドゥール【小規模多機能型居宅介護】鹿児島県大島郡与論町大字茶花2607番地1", "url": "https://www.kaigokensaku.mhlw.go.jp/46/index.php?action_kouhyou_detail_004_kani=true&JigyosyoCd=4699600013-00&ServiceCd=730&Type=search", "url2": null }, "geometry": { "type": "Point", "coordinates": [ 128.419254099999989, 27.0493203 ] } }
]
}
