{
"type": "FeatureCollection",
"name": "geo_46_特別支援学校",
"crs": { "type": "name", "properties": { "name": "urn:ogc:def:crs:EPSG::6668" } },
"features": [
{ "type": "Feature", "properties": { "P29_001": "46201", "P29_002": "E146110000010", "P29_003": "16012", "P29_004": "鹿児島大学教育学部附属特別支援学校", "P29_005": "鹿児島県鹿児島市下伊敷1-10-1", "P29_006": "1", "P29_007": "0", "P29_008": "00", "P29_009": null }, "geometry": { "type": "Point", "coordinates": [ 130.535451585709922, 31.610589054237238 ] } },
{ "type": "Feature", "properties": { "P29_001": "46201", "P29_002": "E146210000018", "P29_003": "16012", "P29_004": "鹿児島県立鹿児島盲学校", "P29_005": "鹿児島県鹿児島市西谷山1-3-3", "P29_006": "2", "P29_007": "0", "P29_008": "00", "P29_009": null }, "geometry": { "type": "Point", "coordinates": [ 130.50633239421623, 31.524227290713849 ] } },
{ "type": "Feature", "properties": { "P29_001": "46201", "P29_002": "E146210000027", "P29_003": "16012", "P29_004": "鹿児島県立鹿児島聾学校", "P29_005": "鹿児島県鹿児島市下伊敷1-52-27", "P29_006": "2", "P29_007": "0", "P29_008": "00", "P29_009": null }, "geometry": { "type": "Point", "coordinates": [ 130.533768866678741, 31.614743872207406 ] } },
{ "type": "Feature", "properties": { "P29_001": "46201", "P29_002": "E146210000036", "P29_003": "16012", "P29_004": "鹿児島県立鹿児島特別支援学校", "P29_005": "鹿児島県鹿児島市吉野1-42-1", "P29_006": "2", "P29_007": "0", "P29_008": "00", "P29_009": null }, "geometry": { "type": "Point", "coordinates": [ 130.567272205777471, 31.651029994888066 ] } },
{ "type": "Feature", "properties": { "P29_001": "46219", "P29_002": "E146210000054", "P29_003": "16012", "P29_004": "鹿児島県立串木野特別支援学校", "P29_005": "鹿児島県いちき串木野市八房1041", "P29_006": "2", "P29_007": "0", "P29_008": "00", "P29_009": null }, "geometry": { "type": "Point", "coordinates": [ 130.289067224829296, 31.704940773700354 ] } },
{ "type": "Feature", "properties": { "P29_001": "46210", "P29_002": "E146210000063", "P29_003": "16012", "P29_004": "鹿児島県立指宿特別支援学校", "P29_005": "鹿児島県指宿市十二町4193-2", "P29_006": "2", "P29_007": "0", "P29_008": "00", "P29_009": null }, "geometry": { "type": "Point", "coordinates": [ 130.643358477560497, 31.221026553724986 ] } },
{ "type": "Feature", "properties": { "P29_001": "46225", "P29_002": "E146210000072", "P29_003": "16012", "P29_004": "鹿児島県立加治木特別支援学校", "P29_005": "鹿児島県姶良市加治木町木田1784", "P29_006": "2", "P29_007": "0", "P29_008": "00", "P29_009": null }, "geometry": { "type": "Point", "coordinates": [ 130.643165965437163, 31.728965195740546 ] } },
{ "type": "Feature", "properties": { "P29_001": "46501", "P29_002": "E146210000081", "P29_003": "16012", "P29_004": "鹿児島県立中種子特別支援学校", "P29_005": "鹿児島県熊毛郡中種子町野間6584-4", "P29_006": "2", "P29_007": "0", "P29_008": "00", "P29_009": null }, "geometry": { "type": "Point", "coordinates": [ 130.953696669621223, 30.519680857175619 ] } },
{ "type": "Feature", "properties": { "P29_001": "46203", "P29_002": "E146210000090", "P29_003": "16012", "P29_004": "鹿児島県立鹿屋特別支援学校", "P29_005": "鹿児島県鹿屋市大浦町14000", "P29_006": "2", "P29_007": "0", "P29_008": "00", "P29_009": null }, "geometry": { "type": "Point", "coordinates": [ 130.839065635153673, 31.406020162599862 ] } },
{ "type": "Feature", "properties": { "P29_001": "46527", "P29_002": "E146210000107", "P29_003": "16012", "P29_004": "鹿児島県立大島特別支援学校", "P29_005": "鹿児島県大島郡龍郷町芦徳1912-1", "P29_006": "2", "P29_007": "0", "P29_008": "00", "P29_009": null }, "geometry": { "type": "Point", "coordinates": [ 129.619980084260845, 28.412792651338979 ] } },
{ "type": "Feature", "properties": { "P29_001": "46201", "P29_002": "E146210000116", "P29_003": "16012", "P29_004": "鹿児島県立武岡台特別支援学校", "P29_005": "鹿児島県鹿児島市小野町2760", "P29_006": "2", "P29_007": "0", "P29_008": "00", "P29_009": null }, "geometry": { "type": "Point", "coordinates": [ 130.509985874978724, 31.604582062746793 ] } },
{ "type": "Feature", "properties": { "P29_001": "46201", "P29_002": "E146210000125", "P29_003": "16012", "P29_004": "鹿児島県立皆与志特別支援学校", "P29_005": "鹿児島県鹿児島市皆与志町1782-1", "P29_006": "2", "P29_007": "0", "P29_008": "00", "P29_009": null }, "geometry": { "type": "Point", "coordinates": [ 130.515069169287528, 31.655396821810452 ] } },
{ "type": "Feature", "properties": { "P29_001": "46218", "P29_002": "E146210000134", "P29_003": "16012", "P29_004": "鹿児島県立牧之原特別支援学校", "P29_005": "鹿児島県霧島市福山町福山6140-1", "P29_006": "2", "P29_007": "0", "P29_008": "00", "P29_009": null }, "geometry": { "type": "Point", "coordinates": [ 130.845703059926279, 31.665556404724018 ] } },
{ "type": "Feature", "properties": { "P29_001": "46220", "P29_002": "E146210000143", "P29_003": "16012", "P29_004": "鹿児島県立南薩特別支援学校", "P29_005": "鹿児島県南さつま市金峰町尾下326", "P29_006": "2", "P29_007": "0", "P29_008": "00", "P29_009": null }, "geometry": { "type": "Point", "coordinates": [ 130.346829611996668, 31.45905541839722 ] } },
{ "type": "Feature", "properties": { "P29_001": "46208", "P29_002": "E146210000152", "P29_003": "16012", "P29_004": "鹿児島県立出水特別支援学校", "P29_005": "鹿児島県出水市文化町966", "P29_006": "2", "P29_007": "0", "P29_008": "00", "P29_009": null }, "geometry": { "type": "Point", "coordinates": [ 130.343319279706066, 32.091002837552729 ] } },
{ "type": "Feature", "properties": { "P29_001": "46201", "P29_002": "E146210000161", "P29_003": "16012", "P29_004": "鹿児島高等特別支援学校", "P29_005": "鹿児島県鹿児島市東坂元3-28-1", "P29_006": "2", "P29_007": "0", "P29_008": "00", "P29_009": null }, "geometry": { "type": "Point", "coordinates": [ 130.563149392059614, 31.622808341281154 ] } },
{ "type": "Feature", "properties": { "P29_001": "46201", "P29_002": "E146210000171", "P29_003": "16012", "P29_004": "鹿児島県立鹿児島南特別支援学校", "P29_005": "鹿児島県鹿児島市西谷山2-5-3", "P29_006": "2", "P29_007": "0", "P29_008": "00", "P29_009": null }, "geometry": { "type": "Point", "coordinates": [ 130.506463842098015, 31.522286618203843 ] } }
]
}
