{
"type": "FeatureCollection",
"name": "geo_46_短期入所生活介護",
"crs": { "type": "name", "properties": { "name": "urn:ogc:def:crs:OGC:1.3:CRS84" } },
"features": [
{ "type": "Feature", "properties": { "内容": "グランパソ【短期入所生活介護】鹿児島県鹿児島市中山二丁目13-15パソ中山総合福祉施設", "url": "https://www.kaigokensaku.mhlw.go.jp/46/index.php?action_kouhyou_detail_004_kani=true&JigyosyoCd=4670110099-00&ServiceCd=210&Type=search", "url2": "http://www/keiseikai-kagosima.jp/" }, "geometry": { "type": "Point", "coordinates": [ 130.509649599999989, 31.544992 ] } },
{ "type": "Feature", "properties": { "内容": "特別養護老人ホーム　はっぴー園【短期入所生活介護】鹿児島県鹿児島市下福元町９５６３番地", "url": "https://www.kaigokensaku.mhlw.go.jp/46/index.php?action_kouhyou_detail_004_kani=true&JigyosyoCd=4670101197-00&ServiceCd=210&Type=search", "url2": "http://happy-en.jp/facility/happyen.html" }, "geometry": { "type": "Point", "coordinates": [ 130.48879409999995, 31.5039061 ] } },
{ "type": "Feature", "properties": { "内容": "特別養護老人ホーム　下田苑【短期入所生活介護】鹿児島市下田町３５３番地", "url": "https://www.kaigokensaku.mhlw.go.jp/46/index.php?action_kouhyou_detail_004_kani=true&JigyosyoCd=4670102864-00&ServiceCd=210&Type=search", "url2": "http:/www.shimodaen.jp" }, "geometry": { "type": "Point", "coordinates": [ 130.550739, 31.6399521 ] } },
{ "type": "Feature", "properties": { "内容": "特別養護老人ホーム慈眼寺園【短期入所生活介護】鹿児島市錦江台１丁目20-20", "url": "https://www.kaigokensaku.mhlw.go.jp/46/index.php?action_kouhyou_detail_004_kani=true&JigyosyoCd=4670103599-00&ServiceCd=210&Type=search", "url2": "https://jigenjien.org/" }, "geometry": { "type": "Point", "coordinates": [ 130.4959407, 31.5062117 ] } },
{ "type": "Feature", "properties": { "内容": "特別養護老人ホーム錦江園【短期入所生活介護】鹿児島市平川町２５３０番地１", "url": "https://www.kaigokensaku.mhlw.go.jp/46/index.php?action_kouhyou_detail_004_kani=true&JigyosyoCd=4670101114-00&ServiceCd=210&Type=search", "url2": "https://www.kinkouen.jp/" }, "geometry": { "type": "Point", "coordinates": [ 130.514939357099934, 31.461081877170901 ] } },
{ "type": "Feature", "properties": { "内容": "短期入所生活介護事業所　桜島苑【短期入所生活介護】鹿児島市桜島横山町１７２２－４５", "url": "https://www.kaigokensaku.mhlw.go.jp/46/index.php?action_kouhyou_detail_004_kani=true&JigyosyoCd=4671600023-00&ServiceCd=210&Type=search", "url2": "https://sakurajimaen.com/" }, "geometry": { "type": "Point", "coordinates": [ 130.602123, 31.5901132 ] } },
{ "type": "Feature", "properties": { "内容": "特別養護老人ホーム　ふれあいの街ねむの里【短期入所生活介護】鹿児島市山田町2405番地1", "url": "https://www.kaigokensaku.mhlw.go.jp/46/index.php?action_kouhyou_detail_004_kani=true&JigyosyoCd=4670106402-00&ServiceCd=210&Type=search", "url2": "http://nemunosato.jp" }, "geometry": { "type": "Point", "coordinates": [ 130.498228199999971, 31.562259399999988 ] } },
{ "type": "Feature", "properties": { "内容": "特別養護老人ホーム　オアシスケア城西【短期入所生活介護】鹿児島県鹿児島市永吉町二丁目37番14号", "url": "https://www.kaigokensaku.mhlw.go.jp/46/index.php?action_kouhyou_detail_004_kani=true&JigyosyoCd=4670111808-00&ServiceCd=210&Type=search", "url2": "http://johsei.org/index.html" }, "geometry": { "type": "Point", "coordinates": [ 130.532641900000044, 31.6088321 ] } },
{ "type": "Feature", "properties": { "内容": "特別養護老人ホーム健生苑【短期入所生活介護】鹿児島県鹿児島市石谷町３５２３番地", "url": "https://www.kaigokensaku.mhlw.go.jp/46/index.php?action_kouhyou_detail_004_kani=true&JigyosyoCd=4673100030-00&ServiceCd=210&Type=search", "url2": "http:/syafukuseijyukai.com/" }, "geometry": { "type": "Point", "coordinates": [ 130.4517558, 31.625111 ] } },
{ "type": "Feature", "properties": { "内容": "特別養護老人ホームにじの郷たにやま【短期入所生活介護】鹿児島市中山町5028-80", "url": "https://www.kaigokensaku.mhlw.go.jp/46/index.php?action_kouhyou_detail_004_kani=true&JigyosyoCd=4670101247-00&ServiceCd=210&Type=search", "url2": "http://nizinosato.com/" }, "geometry": { "type": "Point", "coordinates": [ 130.503125700000027, 31.5397843 ] } },
{ "type": "Feature", "properties": { "内容": "特別養護老人ホーム　旭ヶ丘園　（予防）短期入所生活介護【短期入所生活介護】鹿児島市平川町1382番地", "url": "https://www.kaigokensaku.mhlw.go.jp/46/index.php?action_kouhyou_detail_004_kani=true&JigyosyoCd=4670101171-00&ServiceCd=210&Type=search", "url2": "https://kyokuseikai.com/" }, "geometry": { "type": "Point", "coordinates": [ 130.5037873, 31.46621 ] } },
{ "type": "Feature", "properties": { "内容": "医療法人徳洲会　光徳苑ショートステイ【短期入所生活介護】谷山中央2-4515", "url": "https://www.kaigokensaku.mhlw.go.jp/46/index.php?action_kouhyou_detail_004_kani=true&JigyosyoCd=4670112467-00&ServiceCd=210&Type=search", "url2": "https://www.tokushukai.or.jp" }, "geometry": { "type": "Point", "coordinates": [ 130.51941, 31.5230934 ] } },
{ "type": "Feature", "properties": { "内容": "特別養護老人ホーム美樹園【短期入所生活介護】鹿児島市下福元町１９２６番地６", "url": "https://www.kaigokensaku.mhlw.go.jp/46/index.php?action_kouhyou_detail_004_kani=true&JigyosyoCd=4670101122-00&ServiceCd=210&Type=search", "url2": "https://mikien.or.jp/" }, "geometry": { "type": "Point", "coordinates": [ 130.488033099999939, 31.5229243 ] } },
{ "type": "Feature", "properties": { "内容": "特別養護老人ホーム清谿園【短期入所生活介護】鹿児島市山田町3828番地", "url": "https://www.kaigokensaku.mhlw.go.jp/46/index.php?action_kouhyou_detail_004_kani=true&JigyosyoCd=4670101106-00&ServiceCd=210&Type=search", "url2": "http://www.seikeien.com" }, "geometry": { "type": "Point", "coordinates": [ 130.492112, 31.5732637 ] } },
{ "type": "Feature", "properties": { "内容": "寿康園短期入所事業所【短期入所生活介護】本名町234番地", "url": "https://www.kaigokensaku.mhlw.go.jp/46/index.php?action_kouhyou_detail_004_kani=true&JigyosyoCd=4671500017-00&ServiceCd=210&Type=search", "url2": "http://www.jukouen.jp" }, "geometry": { "type": "Point", "coordinates": [ 130.546619177246157, 31.69523611133873 ] } },
{ "type": "Feature", "properties": { "内容": "特別養護老人ホームみやび【短期入所生活介護】鹿児島市谷山中央1丁目4319番", "url": "https://www.kaigokensaku.mhlw.go.jp/46/index.php?action_kouhyou_detail_004_kani=true&JigyosyoCd=4670103888-00&ServiceCd=210&Type=search", "url2": "https://miyabi.synapse.kagoshima.jp/" }, "geometry": { "type": "Point", "coordinates": [ 130.515002399999958, 31.5243885 ] } },
{ "type": "Feature", "properties": { "内容": "特別養護老人ホーム　あけぼの【短期入所生活介護】鹿児島県鹿児島市山田町２０２１番地", "url": "https://www.kaigokensaku.mhlw.go.jp/46/index.php?action_kouhyou_detail_004_kani=true&JigyosyoCd=4670102955-00&ServiceCd=210&Type=search", "url2": "http://www.kakuyokai.com/" }, "geometry": { "type": "Point", "coordinates": [ 130.506932399999982, 31.5633509 ] } },
{ "type": "Feature", "properties": { "内容": "愛泉園短期入所生活介護事業所【短期入所生活介護】鹿児島県鹿児島市川田町1090番地", "url": "https://www.kaigokensaku.mhlw.go.jp/46/index.php?action_kouhyou_detail_004_kani=true&JigyosyoCd=4673200020-00&ServiceCd=210&Type=search", "url2": "syoueikai.or.jp" }, "geometry": { "type": "Point", "coordinates": [ 130.5035666, 31.6730643 ] } },
{ "type": "Feature", "properties": { "内容": "特別養護老人ホーム松恵園【短期入所生活介護】鹿児島市西別府町1920番地", "url": "https://www.kaigokensaku.mhlw.go.jp/46/index.php?action_kouhyou_detail_004_kani=true&JigyosyoCd=4670101163-00&ServiceCd=210&Type=search", "url2": "https://syoukeien.jp" }, "geometry": { "type": "Point", "coordinates": [ 130.4856777, 31.5993447 ] } },
{ "type": "Feature", "properties": { "内容": "ケアガーデンてらやま【短期入所生活介護】吉野町１０８７７番地１８", "url": "https://www.kaigokensaku.mhlw.go.jp/46/index.php?action_kouhyou_detail_004_kani=true&JigyosyoCd=4670101213-00&ServiceCd=210&Type=search", "url2": "http://www.care-garden.or.jp/" }, "geometry": { "type": "Point", "coordinates": [ 130.6030161, 31.6557373 ] } },
{ "type": "Feature", "properties": { "内容": "特別養護老人ホームとそ清風園【短期入所生活介護】田上台1丁目43番1号", "url": "https://www.kaigokensaku.mhlw.go.jp/46/index.php?action_kouhyou_detail_004_kani=true&JigyosyoCd=4670100678-00&ServiceCd=210&Type=search", "url2": "http://www.tososeifuen.com" }, "geometry": { "type": "Point", "coordinates": [ 130.528766671025096, 31.567212799683265 ] } },
{ "type": "Feature", "properties": { "内容": "特別養護老人ホーム　睦園【短期入所生活介護】鹿児島市吉野町６０７７番地５６睦園", "url": "https://www.kaigokensaku.mhlw.go.jp/46/index.php?action_kouhyou_detail_004_kani=true&JigyosyoCd=4670105537-00&ServiceCd=210&Type=search", "url2": "https://www.mutumien.com" }, "geometry": { "type": "Point", "coordinates": [ 130.592502016532876, 31.650325229671878 ] } },
{ "type": "Feature", "properties": { "内容": "短期入所生活介護三船園【短期入所生活介護】鹿児島市吉野町10005番地", "url": "https://www.kaigokensaku.mhlw.go.jp/46/index.php?action_kouhyou_detail_004_kani=true&JigyosyoCd=4670101098-00&ServiceCd=210&Type=search", "url2": "http://mifuneen.net" }, "geometry": { "type": "Point", "coordinates": [ 130.601356, 31.6334059 ] } },
{ "type": "Feature", "properties": { "内容": "特別養護老人ホーム　くすの木グリーンハイツ【短期入所生活介護】鹿児島市犬迫町７７７１番地", "url": "https://www.kaigokensaku.mhlw.go.jp/46/index.php?action_kouhyou_detail_004_kani=true&JigyosyoCd=4670100645-00&ServiceCd=210&Type=search", "url2": "http://www.kusunokikai.jp" }, "geometry": { "type": "Point", "coordinates": [ 130.48323449999998, 31.6263971 ] } },
{ "type": "Feature", "properties": { "内容": "特別養護老人ホーム賀寿園（従来型）【短期入所生活介護】鹿児島県志布志市志布志町安楽2903番地1", "url": "https://www.kaigokensaku.mhlw.go.jp/46/index.php?action_kouhyou_detail_004_kani=true&JigyosyoCd=4671700344-00&ServiceCd=210&Type=search", "url2": "http://www.ryuai.jp" }, "geometry": { "type": "Point", "coordinates": [ 131.087409100000059, 31.5013806 ] } },
{ "type": "Feature", "properties": { "内容": "特別養護老人ホーム高喜苑（短期入所生活介護・介護予防短期入所生活介護）【短期入所生活介護】武岡5丁目51番10号", "url": "https://www.kaigokensaku.mhlw.go.jp/46/index.php?action_kouhyou_detail_004_kani=true&JigyosyoCd=4670101189-00&ServiceCd=210&Type=search", "url2": "http:www.saiseikai-kg.jp" }, "geometry": { "type": "Point", "coordinates": [ 130.509841599999959, 31.5997163 ] } },
{ "type": "Feature", "properties": { "内容": "ぶれーす喜入ショートステイ【短期入所生活介護】鹿児島県鹿児島市喜入町8234-1", "url": "https://www.kaigokensaku.mhlw.go.jp/46/index.php?action_kouhyou_detail_004_kani=true&JigyosyoCd=4670108010-00&ServiceCd=210&Type=search", "url2": "http://brace-kiire.jp" }, "geometry": { "type": "Point", "coordinates": [ 130.536961833729464, 31.367611755979503 ] } },
{ "type": "Feature", "properties": { "内容": "特別養護老人ホーム泰山荘【短期入所生活介護】鹿児島市皆与志町2261番地1", "url": "https://www.kaigokensaku.mhlw.go.jp/46/index.php?action_kouhyou_detail_004_kani=true&JigyosyoCd=4670100660-00&ServiceCd=210&Type=search", "url2": "https://taizansou.jp" }, "geometry": { "type": "Point", "coordinates": [ 130.5291985, 31.6656241 ] } },
{ "type": "Feature", "properties": { "内容": "特別養護老人ホーム泰山荘（ユニット型）【短期入所生活介護】鹿児島県鹿児島市皆与志町2261番地1", "url": "https://www.kaigokensaku.mhlw.go.jp/46/index.php?action_kouhyou_detail_004_kani=true&JigyosyoCd=4670108192-00&ServiceCd=210&Type=search", "url2": "https://taizansou.jp" }, "geometry": { "type": "Point", "coordinates": [ 130.528978558860786, 31.66581129748317 ] } },
{ "type": "Feature", "properties": { "内容": "特別養護老人ホーム　ひまわり園【短期入所生活介護】鹿児島市犬迫町５４０７番地２", "url": "https://www.kaigokensaku.mhlw.go.jp/46/index.php?action_kouhyou_detail_004_kani=true&JigyosyoCd=4670100652-00&ServiceCd=210&Type=search", "url2": "https://www.himawarien.jp" }, "geometry": { "type": "Point", "coordinates": [ 130.496877499999982, 31.6334048 ] } },
{ "type": "Feature", "properties": { "内容": "特別養護老人ホーム　ひだまりの里【短期入所生活介護】鹿児島県鹿児島市川上町1041番地1", "url": "https://www.kaigokensaku.mhlw.go.jp/46/index.php?action_kouhyou_detail_004_kani=true&JigyosyoCd=4670101239-00&ServiceCd=210&Type=search", "url2": null }, "geometry": { "type": "Point", "coordinates": [ 130.561765499999979, 31.6586394 ] } },
{ "type": "Feature", "properties": { "内容": "びわやまの里【短期入所生活介護】喜入町６９８７", "url": "https://www.kaigokensaku.mhlw.go.jp/46/index.php?action_kouhyou_detail_004_kani=true&JigyosyoCd=4670108572-00&ServiceCd=210&Type=search", "url2": "http://www.shofukai-kagoshima.com/" }, "geometry": { "type": "Point", "coordinates": [ 130.540989099999933, 31.3741986 ] } },
{ "type": "Feature", "properties": { "内容": "介護老人福祉施設七福神【短期入所生活介護】鹿児島県鹿児島市西伊敷3丁目14－3", "url": "https://www.kaigokensaku.mhlw.go.jp/46/index.php?action_kouhyou_detail_004_kani=true&JigyosyoCd=4670110586-00&ServiceCd=210&Type=search", "url2": "http://www.729729.jp" }, "geometry": { "type": "Point", "coordinates": [ 130.5298008, 31.6397869 ] } },
{ "type": "Feature", "properties": { "内容": "特別養護老人ホームオアシスケア清水【短期入所生活介護】鹿児島県鹿児島市稲荷町１７番３５号", "url": "https://www.kaigokensaku.mhlw.go.jp/46/index.php?action_kouhyou_detail_004_kani=true&JigyosyoCd=4670113143-00&ServiceCd=210&Type=search", "url2": "https://johsei.org/" }, "geometry": { "type": "Point", "coordinates": [ 130.569711399999989, 31.6105012 ] } },
{ "type": "Feature", "properties": { "内容": "特別養護老人ホーム　シルクロード七福神【短期入所生活介護】鹿児島県鹿児島市紫原5丁目13-18", "url": "https://www.kaigokensaku.mhlw.go.jp/46/index.php?action_kouhyou_detail_004_kani=true&JigyosyoCd=4670112780-00&ServiceCd=210&Type=search", "url2": "http://729729.jp/" }, "geometry": { "type": "Point", "coordinates": [ 130.5278987, 31.5624795 ] } },
{ "type": "Feature", "properties": { "内容": "特別養護老人ホーム愛心苑【短期入所生活介護】鹿児島市和田3丁目40-1", "url": "https://www.kaigokensaku.mhlw.go.jp/46/index.php?action_kouhyou_detail_004_kani=true&JigyosyoCd=4670107657-00&ServiceCd=210&Type=search", "url2": "http://aisinkai.w.kobira.co.jp/" }, "geometry": { "type": "Point", "coordinates": [ 130.514277799999945, 31.5092175 ] } },
{ "type": "Feature", "properties": { "内容": "さかもと園【短期入所生活介護】鹿児島県鹿児島市坂元町502番地", "url": "https://www.kaigokensaku.mhlw.go.jp/46/index.php?action_kouhyou_detail_004_kani=true&JigyosyoCd=4670102328-00&ServiceCd=210&Type=search", "url2": "http://www.sakamotoen.jp" }, "geometry": { "type": "Point", "coordinates": [ 130.557279708966007, 31.618217386274235 ] } },
{ "type": "Feature", "properties": { "内容": "城山苑【短期入所生活介護】鹿児島市長田町32番1号", "url": "https://www.kaigokensaku.mhlw.go.jp/46/index.php?action_kouhyou_detail_004_kani=true&JigyosyoCd=4670101221-00&ServiceCd=210&Type=search", "url2": "http://www.shiroyamakai.com/" }, "geometry": { "type": "Point", "coordinates": [ 130.548982799999976, 31.6010305 ] } },
{ "type": "Feature", "properties": { "内容": "特別養護老人ホーム花水木【短期入所生活介護】郡元三丁目4番15号", "url": "https://www.kaigokensaku.mhlw.go.jp/46/index.php?action_kouhyou_detail_004_kani=true&JigyosyoCd=4670108317-00&ServiceCd=210&Type=search", "url2": "http://www.hana-sanaikai.or.jp" }, "geometry": { "type": "Point", "coordinates": [ 130.548917399999937, 31.5603463 ] } },
{ "type": "Feature", "properties": { "内容": "特別養護老人ホームうすきの里【短期入所生活介護】宇宿二丁目16番地2", "url": "https://www.kaigokensaku.mhlw.go.jp/46/index.php?action_kouhyou_detail_004_kani=true&JigyosyoCd=4670113721-00&ServiceCd=210&Type=search", "url2": "htttps//kiire.jp" }, "geometry": { "type": "Point", "coordinates": [ 130.540809599999989, 31.5428023 ] } },
{ "type": "Feature", "properties": { "内容": "特別養護老人ホームかもいけ【短期入所生活介護】鹿児島県鹿児島市東郡元町11-6", "url": "https://www.kaigokensaku.mhlw.go.jp/46/index.php?action_kouhyou_detail_004_kani=true&JigyosyoCd=4670112228-00&ServiceCd=210&Type=search", "url2": "https://kamoikecare.jifukai.jp/" }, "geometry": { "type": "Point", "coordinates": [ 130.5497732, 31.554034 ] } },
{ "type": "Feature", "properties": { "内容": "喜入の里（ユニット型）【短期入所生活介護】鹿児島県鹿児島市喜入前之浜町７７８８番地", "url": "https://www.kaigokensaku.mhlw.go.jp/46/index.php?action_kouhyou_detail_004_kani=true&JigyosyoCd=4670109802-00&ServiceCd=210&Type=search", "url2": "http://kiire.jp" }, "geometry": { "type": "Point", "coordinates": [ 130.553921217813098, 31.35000731627936 ] } },
{ "type": "Feature", "properties": { "内容": "喜入の里【短期入所生活介護】喜入前之浜町7788番地", "url": "https://www.kaigokensaku.mhlw.go.jp/46/index.php?action_kouhyou_detail_004_kani=true&JigyosyoCd=4671900043-00&ServiceCd=210&Type=search", "url2": "https://kiire.jp" }, "geometry": { "type": "Point", "coordinates": [ 130.553829583991927, 31.350587815899161 ] } },
{ "type": "Feature", "properties": { "内容": "特別養護老人ホーム　たにやまの里【短期入所生活介護】谷山中央４丁目4817-3", "url": "https://www.kaigokensaku.mhlw.go.jp/46/index.php?action_kouhyou_detail_004_kani=true&JigyosyoCd=4670114216-00&ServiceCd=210&Type=search", "url2": "https://kiire.jp/" }, "geometry": { "type": "Point", "coordinates": [ 130.51753, 31.517042 ] } },
{ "type": "Feature", "properties": { "内容": "特別養護老人ホーム陵幸園【短期入所生活介護】鹿屋市吾平町麓3805番地", "url": "https://www.kaigokensaku.mhlw.go.jp/46/index.php?action_kouhyou_detail_004_kani=true&JigyosyoCd=4677500078-00&ServiceCd=210&Type=search", "url2": "https://ryoukoukai1987.com" }, "geometry": { "type": "Point", "coordinates": [ 130.892956599999934, 31.3220883 ] } },
{ "type": "Feature", "properties": { "内容": "特別養護老人ホーム悠々【短期入所生活介護】鹿児島県鹿屋市大浦町１４０２８番６", "url": "https://www.kaigokensaku.mhlw.go.jp/46/index.php?action_kouhyou_detail_004_kani=true&JigyosyoCd=4670300617-00&ServiceCd=210&Type=search", "url2": "http://www.fk-yuyu.net" }, "geometry": { "type": "Point", "coordinates": [ 130.8427828, 31.4039701 ] } },
{ "type": "Feature", "properties": { "内容": "朋愛園【短期入所生活介護】鹿屋市寿２丁目２番１号", "url": "https://www.kaigokensaku.mhlw.go.jp/46/index.php?action_kouhyou_detail_004_kani=true&JigyosyoCd=4670300229-00&ServiceCd=210&Type=search", "url2": "http://houaien.jp/" }, "geometry": { "type": "Point", "coordinates": [ 130.860179300000027, 31.3870722 ] } },
{ "type": "Feature", "properties": { "内容": "特別養護老人ホーム慈恵園【短期入所生活介護】大姶良町２２６番地", "url": "https://www.kaigokensaku.mhlw.go.jp/46/index.php?action_kouhyou_detail_004_kani=true&JigyosyoCd=4670300211-00&ServiceCd=210&Type=search", "url2": "http://zikeien.org" }, "geometry": { "type": "Point", "coordinates": [ 130.83373, 31.3325489 ] } },
{ "type": "Feature", "properties": { "内容": "以和貴苑指定短期入所生活介護【短期入所生活介護】鹿児島県鹿屋市串良町細山田5902番地3", "url": "https://www.kaigokensaku.mhlw.go.jp/46/index.php?action_kouhyou_detail_004_kani=true&JigyosyoCd=4677100051-00&ServiceCd=210&Type=search", "url2": "http://iwakikai.org" }, "geometry": { "type": "Point", "coordinates": [ 130.890633, 31.4498859 ] } },
{ "type": "Feature", "properties": { "内容": "介護老人福祉施設　グリーンバード【短期入所生活介護】輝北町市成2121番地3介護老人福祉施設　グリーンバード", "url": "https://www.kaigokensaku.mhlw.go.jp/46/index.php?action_kouhyou_detail_004_kani=true&JigyosyoCd=4676400064-00&ServiceCd=210&Type=search", "url2": "http://shuhokai.info" }, "geometry": { "type": "Point", "coordinates": [ 130.862008699999933, 31.586378 ] } },
{ "type": "Feature", "properties": { "内容": "ショートステイいきいき館【短期入所生活介護】鹿児島県鹿屋市笠之原町３５７９番地１デイサービス・ショートステイいきいき館", "url": "https://www.kaigokensaku.mhlw.go.jp/46/index.php?action_kouhyou_detail_004_kani=true&JigyosyoCd=4670301631-00&ServiceCd=210&Type=search", "url2": "ss-ikiiki＠rose.ocn.ne.jp" }, "geometry": { "type": "Point", "coordinates": [ 130.878012459116349, 31.395828303307336 ] } },
{ "type": "Feature", "properties": { "内容": "花岡の里【短期入所生活介護】鹿児島県鹿屋市花岡町３９７９番地１", "url": "https://www.kaigokensaku.mhlw.go.jp/46/index.php?action_kouhyou_detail_004_kani=true&JigyosyoCd=4670300237-00&ServiceCd=210&Type=search", "url2": "http://hanaokanosato.jp/" }, "geometry": { "type": "Point", "coordinates": [ 130.780676099999937, 31.409369600000016 ] } },
{ "type": "Feature", "properties": { "内容": "特別養護老人ホーム鹿屋長寿園【短期入所生活介護】鹿屋市下祓川町1800番地", "url": "https://www.kaigokensaku.mhlw.go.jp/46/index.php?action_kouhyou_detail_004_kani=true&JigyosyoCd=4670300203-00&ServiceCd=210&Type=search", "url2": "http://www.kanoya-choujuen.jp/" }, "geometry": { "type": "Point", "coordinates": [ 130.852626399999963, 31.4128113 ] } },
{ "type": "Feature", "properties": { "内容": "社会福祉法人　明星福祉会　特別養護老人ホーム　南方園【短期入所生活介護】鹿児島県枕崎市まかや町678番地", "url": "https://www.kaigokensaku.mhlw.go.jp/46/index.php?action_kouhyou_detail_004_kani=true&JigyosyoCd=4670400094-00&ServiceCd=210&Type=search", "url2": "http//www2.synapse.ne.jp/nanpouen/" }, "geometry": { "type": "Point", "coordinates": [ 130.360589900000036, 31.2901473 ] } },
{ "type": "Feature", "properties": { "内容": "ピースフル立神短期入所生活介護事業所【短期入所生活介護】鹿児島県枕崎市火之神町７２５番地", "url": "https://www.kaigokensaku.mhlw.go.jp/46/index.php?action_kouhyou_detail_004_kani=true&JigyosyoCd=4670400102-00&ServiceCd=210&Type=search", "url2": "https://koseifukushikai.ko-seikai.jp/" }, "geometry": { "type": "Point", "coordinates": [ 130.277695699999981, 31.2531154 ] } },
{ "type": "Feature", "properties": { "内容": "特別養護老人ホーム桜ヶ丘荘【短期入所生活介護】赤瀬川265番地", "url": "https://www.kaigokensaku.mhlw.go.jp/46/index.php?action_kouhyou_detail_004_kani=true&JigyosyoCd=4670600057-00&ServiceCd=210&Type=search", "url2": "https://www.ohjin-kai.com" }, "geometry": { "type": "Point", "coordinates": [ 130.201658800000018, 32.0254855 ] } },
{ "type": "Feature", "properties": { "内容": "特別養護老人ホーム野田の郷【短期入所生活介護】鹿児島県出水市野田町下名４，９７５番地２", "url": "https://www.kaigokensaku.mhlw.go.jp/46/index.php?action_kouhyou_detail_004_kani=true&JigyosyoCd=4674700028-00&ServiceCd=210&Type=search", "url2": "https://nodanosato.jp/" }, "geometry": { "type": "Point", "coordinates": [ 130.25955053433222, 32.062425061858086 ] } },
{ "type": "Feature", "properties": { "内容": "特別養護老人ホーム鶴寿園【短期入所生活介護】汐見町93番地", "url": "https://www.kaigokensaku.mhlw.go.jp/46/index.php?action_kouhyou_detail_004_kani=true&JigyosyoCd=4670800079-00&ServiceCd=210&Type=search", "url2": "kakujuen@dream.ocn.ne.jp" }, "geometry": { "type": "Point", "coordinates": [ 130.314585599999987, 32.114819 ] } },
{ "type": "Feature", "properties": { "内容": "介護付有料老人ホームいずみ【短期入所生活介護】境町1840-1", "url": "https://www.kaigokensaku.mhlw.go.jp/46/index.php?action_kouhyou_detail_004_kani=true&JigyosyoCd=4670800582-00&ServiceCd=210&Type=search", "url2": "http://ikkoushoji.com/" }, "geometry": { "type": "Point", "coordinates": [ 130.360545199999933, 32.1664809 ] } },
{ "type": "Feature", "properties": { "内容": "特別養護老人ホーム　鶴寿会たかおの【短期入所生活介護】高尾野町大久保600番地", "url": "https://www.kaigokensaku.mhlw.go.jp/46/index.php?action_kouhyou_detail_004_kani=true&JigyosyoCd=4670800814-00&ServiceCd=210&Type=search", "url2": null }, "geometry": { "type": "Point", "coordinates": [ 130.310959, 32.0625246 ] } },
{ "type": "Feature", "properties": { "内容": "特別養護老人ホーム出水の里【短期入所生活介護】鹿児島県出水市境町1822", "url": "https://www.kaigokensaku.mhlw.go.jp/46/index.php?action_kouhyou_detail_004_kani=true&JigyosyoCd=4670800087-00&ServiceCd=210&Type=search", "url2": "http://www.izumi-kouseikai.or.jp" }, "geometry": { "type": "Point", "coordinates": [ 130.359767599999941, 32.1661337 ] } },
{ "type": "Feature", "properties": { "内容": "特別養護老人ホーム　湯之里園【短期入所生活介護】東方８２８番地ロ", "url": "https://www.kaigokensaku.mhlw.go.jp/46/index.php?action_kouhyou_detail_004_kani=true&JigyosyoCd=4671000075-00&ServiceCd=210&Type=search", "url2": "http://www.kinkoukai.jp/" }, "geometry": { "type": "Point", "coordinates": [ 130.620810300000016, 31.249723 ] } },
{ "type": "Feature", "properties": { "内容": "特別養護老人ホーム　徳光苑【短期入所生活介護】鹿児島県指宿市山川岡児ヶ水1212番地1", "url": "https://www.kaigokensaku.mhlw.go.jp/46/index.php?action_kouhyou_detail_004_kani=true&JigyosyoCd=4672000041-00&ServiceCd=210&Type=search", "url2": "http://www.tokkoen.or.jp" }, "geometry": { "type": "Point", "coordinates": [ 130.575657, 31.1731151 ] } },
{ "type": "Feature", "properties": { "内容": "地域密着型特別養護老人ホームサンピアよつ葉【短期入所生活介護】鹿児島県指宿市東方10235番地1", "url": "https://www.kaigokensaku.mhlw.go.jp/46/index.php?action_kouhyou_detail_004_kani=true&JigyosyoCd=4671000851-00&ServiceCd=210&Type=search", "url2": "https://www.ibusuki-carenet.or.jp/" }, "geometry": { "type": "Point", "coordinates": [ 130.65283, 31.2534235 ] } },
{ "type": "Feature", "properties": { "内容": "特別養護老人ホーム薩摩富士荘【短期入所生活介護】鹿児島県指宿市開聞仙田６５２９番地１", "url": "https://www.kaigokensaku.mhlw.go.jp/46/index.php?action_kouhyou_detail_004_kani=true&JigyosyoCd=4672200021-00&ServiceCd=210&Type=search", "url2": "http://k-yuwakai.jp/" }, "geometry": { "type": "Point", "coordinates": [ 130.5397041, 31.1984765 ] } },
{ "type": "Feature", "properties": { "内容": "ショートステイ　百合砂苑【短期入所生活介護】鹿児島県西之表市西之表6087番地", "url": "https://www.kaigokensaku.mhlw.go.jp/46/index.php?action_kouhyou_detail_004_kani=true&JigyosyoCd=4671300186-00&ServiceCd=210&Type=search", "url2": "www.yurisa.jp" }, "geometry": { "type": "Point", "coordinates": [ 131.003617399999939, 30.7478607 ] } },
{ "type": "Feature", "properties": { "内容": "ショートステイやまびこ【短期入所生活介護】鹿児島県西之表市西之表１４８８９番地５", "url": "https://www.kaigokensaku.mhlw.go.jp/46/index.php?action_kouhyou_detail_004_kani=true&JigyosyoCd=4671300467-00&ServiceCd=210&Type=search", "url2": null }, "geometry": { "type": "Point", "coordinates": [ 130.993820170391814, 30.713354923490744 ] } },
{ "type": "Feature", "properties": { "内容": "ショートステイ　現和苑【短期入所生活介護】鹿児島県西之表市現和5944番地21", "url": "https://www.kaigokensaku.mhlw.go.jp/46/index.php?action_kouhyou_detail_004_kani=true&JigyosyoCd=4671300384-00&ServiceCd=210&Type=search", "url2": "https://yurisa.jp/" }, "geometry": { "type": "Point", "coordinates": [ 131.064529099999959, 30.6944619 ] } },
{ "type": "Feature", "properties": { "内容": "特別養護老人ホームわかさ園【短期入所生活介護】鹿児島県西之表市西之表16347番地", "url": "https://www.kaigokensaku.mhlw.go.jp/46/index.php?action_kouhyou_detail_004_kani=true&JigyosyoCd=4671300061-00&ServiceCd=210&Type=search", "url2": null }, "geometry": { "type": "Point", "coordinates": [ 130.9793373, 30.721304 ] } },
{ "type": "Feature", "properties": { "内容": "特別養護老人ホーム恵光園【短期入所生活介護】鹿児島県垂水市本城221番地", "url": "https://www.kaigokensaku.mhlw.go.jp/46/index.php?action_kouhyou_detail_004_kani=true&JigyosyoCd=4671400069-00&ServiceCd=210&Type=search", "url2": "http://www.city-tarumizu-keikouen.com" }, "geometry": { "type": "Point", "coordinates": [ 130.717444915344231, 31.482898046587657 ] } },
{ "type": "Feature", "properties": { "内容": "特別養護老人ホーム恵光園ユニット【短期入所生活介護】鹿児島県垂水市本城２２１番地", "url": "https://www.kaigokensaku.mhlw.go.jp/46/index.php?action_kouhyou_detail_004_kani=true&JigyosyoCd=4671400291-00&ServiceCd=210&Type=search", "url2": "http://www.city-tarumizu-keikouen.com" }, "geometry": { "type": "Point", "coordinates": [ 130.717495496295157, 31.482822421084464 ] } },
{ "type": "Feature", "properties": { "内容": "特別養護老人ホーム　幸せの里【短期入所生活介護】薩摩川内市　永利町　4311番地5", "url": "https://www.kaigokensaku.mhlw.go.jp/46/index.php?action_kouhyou_detail_004_kani=true&JigyosyoCd=4670200189-00&ServiceCd=210&Type=search", "url2": "shiawase@ml.j-bee.com" }, "geometry": { "type": "Point", "coordinates": [ 130.352705199999946, 31.8017112 ] } },
{ "type": "Feature", "properties": { "内容": "特別養護老人ホームのぞみ園【短期入所生活介護】鹿児島県薩摩川内市祁答院町藺牟田2153番地1", "url": "https://www.kaigokensaku.mhlw.go.jp/46/index.php?action_kouhyou_detail_004_kani=true&JigyosyoCd=4674200037-00&ServiceCd=210&Type=search", "url2": "http//tokuyou-nozomien-1974.jp" }, "geometry": { "type": "Point", "coordinates": [ 130.484694900000022, 31.8094071 ] } },
{ "type": "Feature", "properties": { "内容": "特別養護老人ホームやしの実【短期入所生活介護】薩摩川内市勝目町4174番1", "url": "https://www.kaigokensaku.mhlw.go.jp/46/index.php?action_kouhyou_detail_004_kani=true&JigyosyoCd=4670201047-00&ServiceCd=210&Type=search", "url2": "https://yasinomi.jp/" }, "geometry": { "type": "Point", "coordinates": [ 130.314597099999986, 31.7860449 ] } },
{ "type": "Feature", "properties": { "内容": "特別養護老人ホーム　白寿園【短期入所生活介護】鹿児島県薩摩川内市中福良町2911番地1特別養護老人ホーム白寿園", "url": "https://www.kaigokensaku.mhlw.go.jp/46/index.php?action_kouhyou_detail_004_kani=true&JigyosyoCd=4670200163-00&ServiceCd=210&Type=search", "url2": "https://hakujyuen.info" }, "geometry": { "type": "Point", "coordinates": [ 130.295218467459108, 31.786678136940257 ] } },
{ "type": "Feature", "properties": { "内容": "特別養護老人ホーム　つきみ園【短期入所生活介護】薩摩川内市祁答院町上手５００番地８", "url": "https://www.kaigokensaku.mhlw.go.jp/46/index.php?action_kouhyou_detail_004_kani=true&JigyosyoCd=4671501395-00&ServiceCd=210&Type=search", "url2": "http://www.mikurakai.or.jp/" }, "geometry": { "type": "Point", "coordinates": [ 130.514392976196291, 31.867175118307728 ] } },
{ "type": "Feature", "properties": { "内容": "ショートステイ　和【短期入所生活介護】鹿児島県薩摩川内市永利町４１０７番地５", "url": "https://www.kaigokensaku.mhlw.go.jp/46/index.php?action_kouhyou_detail_004_kani=true&JigyosyoCd=4671501403-00&ServiceCd=210&Type=search", "url2": "http://ichihuku.jp/" }, "geometry": { "type": "Point", "coordinates": [ 130.350124796295205, 31.797625884038517 ] } },
{ "type": "Feature", "properties": { "内容": "とうごう苑　ショートステイ【短期入所生活介護】薩摩川内市東郷町斧渕２５０１番地", "url": "https://www.kaigokensaku.mhlw.go.jp/46/index.php?action_kouhyou_detail_004_kani=true&JigyosyoCd=4673800035-00&ServiceCd=210&Type=search", "url2": "http://tougouen.jp" }, "geometry": { "type": "Point", "coordinates": [ 130.362974099999974, 31.857005 ] } },
{ "type": "Feature", "properties": { "内容": "特別養護老人ホーム　翠泉苑【短期入所生活介護】鹿児島県薩摩川内市樋脇町市比野3200番地118", "url": "https://www.kaigokensaku.mhlw.go.jp/46/index.php?action_kouhyou_detail_004_kani=true&JigyosyoCd=4673600021-00&ServiceCd=210&Type=search", "url2": "http://ichihuku.jp/index.html" }, "geometry": { "type": "Point", "coordinates": [ 130.394963599999983, 31.7870434 ] } },
{ "type": "Feature", "properties": { "内容": "特別養護老人ホーム　永利【短期入所生活介護】永利町2531番地", "url": "https://www.kaigokensaku.mhlw.go.jp/46/index.php?action_kouhyou_detail_004_kani=true&JigyosyoCd=4670201369-00&ServiceCd=210&Type=search", "url2": "http://tokuyou-nozomien-1974.jp/" }, "geometry": { "type": "Point", "coordinates": [ 130.346187822090087, 31.806760357975367 ] } },
{ "type": "Feature", "properties": { "内容": "特別養護老人ホーム　はまかぜ園【短期入所生活介護】薩摩川内市西方町3111番地", "url": "https://www.kaigokensaku.mhlw.go.jp/46/index.php?action_kouhyou_detail_004_kani=true&JigyosyoCd=4670200197-00&ServiceCd=210&Type=search", "url2": "www.hamakazeen.com" }, "geometry": { "type": "Point", "coordinates": [ 130.234554800000069, 31.9155673 ] } },
{ "type": "Feature", "properties": { "内容": "特別養護老人ホームこしき園【短期入所生活介護】鹿児島県薩摩川内市上甑町中甑1236番地特別養護老人ホームこしき園", "url": "https://www.kaigokensaku.mhlw.go.jp/46/index.php?action_kouhyou_detail_004_kani=true&JigyosyoCd=4674400025-00&ServiceCd=210&Type=search", "url2": null }, "geometry": { "type": "Point", "coordinates": [ 129.8595095, 31.8402804 ] } },
{ "type": "Feature", "properties": { "内容": "特別養護老人ホーム　博愛園【短期入所生活介護】鹿児島県薩摩川内市入来町浦之名695番地", "url": "https://www.kaigokensaku.mhlw.go.jp/46/index.php?action_kouhyou_detail_004_kani=true&JigyosyoCd=4673700037-00&ServiceCd=210&Type=search", "url2": null }, "geometry": { "type": "Point", "coordinates": [ 130.429718800000046, 31.7999405 ] } },
{ "type": "Feature", "properties": { "内容": "特別養護老人ホーム鹿島園【短期入所生活介護】鹿島町藺牟田1443番地1", "url": "https://www.kaigokensaku.mhlw.go.jp/46/index.php?action_kouhyou_detail_004_kani=true&JigyosyoCd=4670200965-00&ServiceCd=210&Type=search", "url2": null }, "geometry": { "type": "Point", "coordinates": [ 129.789453500000036, 31.7778164 ] } },
{ "type": "Feature", "properties": { "内容": "薩摩川内市社会福祉協議会甑島敬老園【短期入所生活介護】鹿児島県薩摩川内市下甑町長浜1185番地2", "url": "https://www.kaigokensaku.mhlw.go.jp/46/index.php?action_kouhyou_detail_004_kani=true&JigyosyoCd=4670201328-00&ServiceCd=210&Type=search", "url2": null }, "geometry": { "type": "Point", "coordinates": [ 129.7389829, 31.7061877 ] } },
{ "type": "Feature", "properties": { "内容": "特別養護老人ホーム秋光園【短期入所生活介護】東市来町長里360-1", "url": "https://www.kaigokensaku.mhlw.go.jp/46/index.php?action_kouhyou_detail_004_kani=true&JigyosyoCd=4672900067-00&ServiceCd=210&Type=search", "url2": null }, "geometry": { "type": "Point", "coordinates": [ 130.348883846696481, 31.662517568101386 ] } },
{ "type": "Feature", "properties": { "内容": "特別養護老人ホーム青松苑【短期入所生活介護】鹿児島県日置市伊集院町妙円寺一丁目１番地８", "url": "https://www.kaigokensaku.mhlw.go.jp/46/index.php?action_kouhyou_detail_004_kani=true&JigyosyoCd=4671501023-00&ServiceCd=210&Type=search", "url2": "https://seishin-kai.org/seishouen" }, "geometry": { "type": "Point", "coordinates": [ 130.395272320642249, 31.639940823567823 ] } },
{ "type": "Feature", "properties": { "内容": "寿福園【短期入所生活介護】鹿児島県日置市伊集院町下神殿224番地2", "url": "https://www.kaigokensaku.mhlw.go.jp/46/index.php?action_kouhyou_detail_004_kani=true&JigyosyoCd=4673000032-00&ServiceCd=210&Type=search", "url2": "https://www.swc-meiwakai.or.jp" }, "geometry": { "type": "Point", "coordinates": [ 130.4158774, 31.6632167 ] } },
{ "type": "Feature", "properties": { "内容": "喜楽奈村【短期入所生活介護】鹿児島県日置市吹上町湯之浦2781番地", "url": "https://www.kaigokensaku.mhlw.go.jp/46/index.php?action_kouhyou_detail_004_kani=true&JigyosyoCd=4673400067-00&ServiceCd=210&Type=search", "url2": "http://www.akebonofukushikai.jp/" }, "geometry": { "type": "Point", "coordinates": [ 130.371796600000039, 31.5041757 ] } },
{ "type": "Feature", "properties": { "内容": "介護老人福祉施設　やはずの里【短期入所生活介護】鹿児島県日置市伊集院町飯牟礼369番1号", "url": "https://www.kaigokensaku.mhlw.go.jp/46/index.php?action_kouhyou_detail_004_kani=true&JigyosyoCd=4673000123-00&ServiceCd=210&Type=search", "url2": "http://www.yahazunosato.com/" }, "geometry": { "type": "Point", "coordinates": [ 130.385734899999989, 31.6179683 ] } },
{ "type": "Feature", "properties": { "内容": "喜楽奈家空床型指定短期入所生活介護【短期入所生活介護】鹿児島県日置市吹上町湯之浦2758", "url": "https://www.kaigokensaku.mhlw.go.jp/46/index.php?action_kouhyou_detail_004_kani=true&JigyosyoCd=4671501288-00&ServiceCd=210&Type=search", "url2": null }, "geometry": { "type": "Point", "coordinates": [ 130.3707115, 31.5042459 ] } },
{ "type": "Feature", "properties": { "内容": "タンキニュウショセイカツカイゴジギョウショ　ハルカゼノサト【短期入所生活介護】鹿児島県曽於市末吉町二之方3076番地2", "url": "https://www.kaigokensaku.mhlw.go.jp/46/index.php?action_kouhyou_detail_004_kani=true&JigyosyoCd=4671600304-00&ServiceCd=210&Type=search", "url2": "https://hakufu-kai.or.jp/" }, "geometry": { "type": "Point", "coordinates": [ 131.0403968, 31.6356901 ] } },
{ "type": "Feature", "properties": { "内容": "特別養護老人ホーム　おおすみ苑【短期入所生活介護】鹿児島県曽於市大隅町月野1045番地", "url": "https://www.kaigokensaku.mhlw.go.jp/46/index.php?action_kouhyou_detail_004_kani=true&JigyosyoCd=4676300157-00&ServiceCd=210&Type=search", "url2": "https://hakujyukai-kagoshima.jp/" }, "geometry": { "type": "Point", "coordinates": [ 131.034373599999981, 31.5746505 ] } },
{ "type": "Feature", "properties": { "内容": "特別養護老人ホーム　財部寿豊苑【短期入所生活介護】財部町下財部2061番地1", "url": "https://www.kaigokensaku.mhlw.go.jp/46/index.php?action_kouhyou_detail_004_kani=true&JigyosyoCd=4671600593-00&ServiceCd=210&Type=search", "url2": "http//www.houei-group.or.jp" }, "geometry": { "type": "Point", "coordinates": [ 131.016319399999986, 31.7276091 ] } },
{ "type": "Feature", "properties": { "内容": "短期入所生活介護　おおすみ竹山園【短期入所生活介護】鹿児島県曽於市大隅町月野１５８２番地", "url": "https://www.kaigokensaku.mhlw.go.jp/46/index.php?action_kouhyou_detail_004_kani=true&JigyosyoCd=4676300033-00&ServiceCd=210&Type=search", "url2": "https://osumikai.net" }, "geometry": { "type": "Point", "coordinates": [ 131.014100699999972, 31.5763 ] } },
{ "type": "Feature", "properties": { "内容": "特別養護老人ホーム輪光無量寿園【短期入所生活介護】曽於市末吉町岩崎971-1", "url": "https://www.kaigokensaku.mhlw.go.jp/46/index.php?action_kouhyou_detail_004_kani=true&JigyosyoCd=4676600036-00&ServiceCd=210&Type=search", "url2": "http://www.rinkou1964.or.jp" }, "geometry": { "type": "Point", "coordinates": [ 130.9988492, 31.5962083 ] } },
{ "type": "Feature", "properties": { "内容": "ショートステイまつながの里【短期入所生活介護】鹿児島県霧島市隼人町松永1152番地6ショートステイまつながの里", "url": "https://www.kaigokensaku.mhlw.go.jp/46/index.php?action_kouhyou_detail_004_kani=true&JigyosyoCd=4671201129-00&ServiceCd=210&Type=search", "url2": "http://ｗｗｗ.h-miyukien.info" }, "geometry": { "type": "Point", "coordinates": [ 130.759440300000051, 31.7746096 ] } },
{ "type": "Feature", "properties": { "内容": "特別養護老人ホーム　牧之原むつみ園【短期入所生活介護】霧島市福山町福沢4611番地", "url": "https://www.kaigokensaku.mhlw.go.jp/46/index.php?action_kouhyou_detail_004_kani=true&JigyosyoCd=4676200043-00&ServiceCd=210&Type=search", "url2": "http://www.mutumi-en.com" }, "geometry": { "type": "Point", "coordinates": [ 130.865735699999959, 31.6580864 ] } },
{ "type": "Feature", "properties": { "内容": "フラワーホームショートステイ【短期入所生活介護】鹿児島県霧島市溝辺町麓6丁目4番地", "url": "https://www.kaigokensaku.mhlw.go.jp/46/index.php?action_kouhyou_detail_004_kani=true&JigyosyoCd=4675500039-00&ServiceCd=210&Type=search", "url2": "www.flowerh.jp" }, "geometry": { "type": "Point", "coordinates": [ 130.707547299999959, 31.7919369 ] } },
{ "type": "Feature", "properties": { "内容": "嘉祥園短期入所生活介護【短期入所生活介護】国分清水５丁目１番４９号", "url": "https://www.kaigokensaku.mhlw.go.jp/46/index.php?action_kouhyou_detail_004_kani=true&JigyosyoCd=4671200121-00&ServiceCd=210&Type=search", "url2": "https://seitenkai.jp/" }, "geometry": { "type": "Point", "coordinates": [ 130.790513799999985, 31.760386 ] } },
{ "type": "Feature", "properties": { "内容": "介護付有料老人ホーム今日館【短期入所生活介護】隼人町住吉188番地", "url": "https://www.kaigokensaku.mhlw.go.jp/46/index.php?action_kouhyou_detail_004_kani=true&JigyosyoCd=4671201046-00&ServiceCd=210&Type=search", "url2": "https://www.yoshimitsu-group.com" }, "geometry": { "type": "Point", "coordinates": [ 130.747232586044333, 31.723811135253868 ] } },
{ "type": "Feature", "properties": { "内容": "みゆき苑【短期入所生活介護】鹿児島県霧島市隼人町松永895番地3", "url": "https://www.kaigokensaku.mhlw.go.jp/46/index.php?action_kouhyou_detail_004_kani=true&JigyosyoCd=4676100086-00&ServiceCd=210&Type=search", "url2": "http://www.h-miyukien.info/" }, "geometry": { "type": "Point", "coordinates": [ 130.771393244180331, 31.774542616525391 ] } },
{ "type": "Feature", "properties": { "内容": "ユニット型地域密着型介護老人福祉施設ソ・ウェルこくぶちゅうおう【短期入所生活介護】鹿児島県霧島市国分中央3丁目12番29号ソ・ウェルこくぶちゅうおう", "url": "https://www.kaigokensaku.mhlw.go.jp/46/index.php?action_kouhyou_detail_004_kani=true&JigyosyoCd=4671201632-00&ServiceCd=210&Type=search", "url2": "http://www.misakikai.or.jp/sowel/" }, "geometry": { "type": "Point", "coordinates": [ 130.769010799999933, 31.7398101 ] } },
{ "type": "Feature", "properties": { "内容": "特別養護老人ホーム翔朋園【短期入所生活介護】霧島田口２７３７番地３６", "url": "https://www.kaigokensaku.mhlw.go.jp/46/index.php?action_kouhyou_detail_004_kani=true&JigyosyoCd=4676000047-00&ServiceCd=210&Type=search", "url2": "kirishimakai.jp" }, "geometry": { "type": "Point", "coordinates": [ 130.859468961901825, 31.841661913419586 ] } },
{ "type": "Feature", "properties": { "内容": "地域密着型特別養護老人ホームみどりの里【短期入所生活介護】鹿児島県霧島市横川町中ノ5645番地1", "url": "https://www.kaigokensaku.mhlw.go.jp/46/index.php?action_kouhyou_detail_004_kani=true&JigyosyoCd=4671201020-00&ServiceCd=210&Type=search", "url2": "https://www.kibo-ryokufuen.com/" }, "geometry": { "type": "Point", "coordinates": [ 130.694584600000013, 31.887353500000035 ] } },
{ "type": "Feature", "properties": { "内容": "特別養護老人ホーム　吹上園【短期入所生活介護】いちき串木野市大里９９２番地", "url": "https://www.kaigokensaku.mhlw.go.jp/46/index.php?action_kouhyou_detail_004_kani=true&JigyosyoCd=4672800028-00&ServiceCd=210&Type=search", "url2": "jiko-kai.or.jp" }, "geometry": { "type": "Point", "coordinates": [ 130.315343943516638, 31.671948885591924 ] } },
{ "type": "Feature", "properties": { "内容": "吹上園ふもと【短期入所生活介護】鹿児島県いちき串木野市麓２７７５番地５", "url": "https://www.kaigokensaku.mhlw.go.jp/46/index.php?action_kouhyou_detail_004_kani=true&JigyosyoCd=4670500372-00&ServiceCd=210&Type=search", "url2": null }, "geometry": { "type": "Point", "coordinates": [ 130.2874607, 31.7250079 ] } },
{ "type": "Feature", "properties": { "内容": "特別養護老人ホーム潮風園【短期入所生活介護】いちき串木野市別府３５７０", "url": "https://www.kaigokensaku.mhlw.go.jp/46/index.php?action_kouhyou_detail_004_kani=true&JigyosyoCd=4670500059-00&ServiceCd=210&Type=search", "url2": "http://chofuen.terushima.com" }, "geometry": { "type": "Point", "coordinates": [ 130.285035725794955, 31.696196280698722 ] } },
{ "type": "Feature", "properties": { "内容": "ファミリーイン和楽苑【短期入所生活介護】鹿児島県南さつま市坊津町泊5756", "url": "https://www.kaigokensaku.mhlw.go.jp/46/index.php?action_kouhyou_detail_004_kani=true&JigyosyoCd=4674000155-00&ServiceCd=210&Type=search", "url2": "http://www.seishinfukushikai.jp/" }, "geometry": { "type": "Point", "coordinates": [ 130.241117, 31.2895253 ] } },
{ "type": "Feature", "properties": { "内容": "特別養護老人ホーム金峰苑【短期入所生活介護】鹿児島県南さつま市金峰町宮崎4019", "url": "https://www.kaigokensaku.mhlw.go.jp/46/index.php?action_kouhyou_detail_004_kani=true&JigyosyoCd=4673500023-00&ServiceCd=210&Type=search", "url2": null }, "geometry": { "type": "Point", "coordinates": [ 130.335844100000031, 31.4352288 ] } },
{ "type": "Feature", "properties": { "内容": "養徳園指定短期入所生活介護【短期入所生活介護】鹿児島県南さつま市加世田小湊５２８番地", "url": "https://www.kaigokensaku.mhlw.go.jp/46/index.php?action_kouhyou_detail_004_kani=true&JigyosyoCd=4671100057-00&ServiceCd=210&Type=search", "url2": "https://youtokuen.com/" }, "geometry": { "type": "Point", "coordinates": [ 130.292682748410016, 31.421317334897441 ] } },
{ "type": "Feature", "properties": { "内容": "介護老人福祉施設　アルテンハイム加世田【短期入所生活介護】南さつま市加世田武田13877", "url": "https://www.kaigokensaku.mhlw.go.jp/46/index.php?action_kouhyou_detail_004_kani=true&JigyosyoCd=4671100065-00&ServiceCd=210&Type=search", "url2": "http://www.nonohanakai.or.jp/" }, "geometry": { "type": "Point", "coordinates": [ 130.302328100000068, 31.4014637 ] } },
{ "type": "Feature", "properties": { "内容": "石垣の里【短期入所生活介護】鹿児島県南さつま市笠沙町片浦9878", "url": "https://www.kaigokensaku.mhlw.go.jp/46/index.php?action_kouhyou_detail_004_kani=true&JigyosyoCd=4672300037-00&ServiceCd=210&Type=search", "url2": "https://koujin-ayanokai.or.jp/" }, "geometry": { "type": "Point", "coordinates": [ 130.1688888, 31.4221221 ] } },
{ "type": "Feature", "properties": { "内容": "ひろうの樹【短期入所生活介護】鹿児島県志布志市有明町野井倉8031番地1", "url": "https://www.kaigokensaku.mhlw.go.jp/46/index.php?action_kouhyou_detail_004_kani=true&JigyosyoCd=4676900113-00&ServiceCd=210&Type=search", "url2": "http://www.birounoki.com" }, "geometry": { "type": "Point", "coordinates": [ 131.053849099999979, 31.4932674 ] } },
{ "type": "Feature", "properties": { "内容": "特別養護老人ホーム　小松の里【短期入所生活介護】鹿児島県志布志市有明町野井倉２００６番地１", "url": "https://www.kaigokensaku.mhlw.go.jp/46/index.php?action_kouhyou_detail_004_kani=true&JigyosyoCd=4676900048-00&ServiceCd=210&Type=search", "url2": "https://kinseikai.jp/" }, "geometry": { "type": "Point", "coordinates": [ 131.040539299999978, 31.4969806 ] } },
{ "type": "Feature", "properties": { "内容": "やっちく【短期入所生活介護】志布志市松山町泰野字松ヶ迫1111番地", "url": "https://www.kaigokensaku.mhlw.go.jp/46/index.php?action_kouhyou_detail_004_kani=true&JigyosyoCd=4676700034-00&ServiceCd=210&Type=search", "url2": "https://yattikukai.or.jp/" }, "geometry": { "type": "Point", "coordinates": [ 131.08141714805447, 31.574555417179941 ] } },
{ "type": "Feature", "properties": { "内容": "住用の園【短期入所生活介護】鹿児島県奄美市住用町大字摺勝字俊勝袋451番3", "url": "https://www.kaigokensaku.mhlw.go.jp/46/index.php?action_kouhyou_detail_004_kani=true&JigyosyoCd=4678700024-00&ServiceCd=210&Type=search", "url2": "http://sumiyounosono.jp/" }, "geometry": { "type": "Point", "coordinates": [ 129.441758061346491, 28.295050645626532 ] } },
{ "type": "Feature", "properties": { "内容": "奄美佳南園【短期入所生活介護】鹿児島県奄美市名瀬平田町7番15号", "url": "https://www.kaigokensaku.mhlw.go.jp/46/index.php?action_kouhyou_detail_004_kani=true&JigyosyoCd=4670700121-00&ServiceCd=210&Type=search", "url2": "amamikanaen@sis.seirei.jp" }, "geometry": { "type": "Point", "coordinates": [ 129.5042403, 28.3635442 ] } },
{ "type": "Feature", "properties": { "内容": "奄美佳南園（ユニット型）【短期入所生活介護】鹿児島県奄美市名瀬平田町7番15号", "url": "https://www.kaigokensaku.mhlw.go.jp/46/index.php?action_kouhyou_detail_004_kani=true&JigyosyoCd=4670701244-00&ServiceCd=210&Type=search", "url2": "http://www.seirei.or.jp/elderlyhome/amami/" }, "geometry": { "type": "Point", "coordinates": [ 129.5042403, 28.3635442 ] } },
{ "type": "Feature", "properties": { "内容": "特別養護老人ホーム　芦穂の里【短期入所生活介護】奄美市名瀬大字芦花部字不津1470番地", "url": "https://www.kaigokensaku.mhlw.go.jp/46/index.php?action_kouhyou_detail_004_kani=true&JigyosyoCd=4670700071-00&ServiceCd=210&Type=search", "url2": null }, "geometry": { "type": "Point", "coordinates": [ 129.54196520000005, 28.4405795 ] } },
{ "type": "Feature", "properties": { "内容": "特別養護老人ホーム笠寿園【短期入所生活介護】奄美市笠利町節田１５９０番地", "url": "https://www.kaigokensaku.mhlw.go.jp/46/index.php?action_kouhyou_detail_004_kani=true&JigyosyoCd=4670700832-00&ServiceCd=210&Type=search", "url2": null }, "geometry": { "type": "Point", "coordinates": [ 129.6827803, 28.4131725 ] } },
{ "type": "Feature", "properties": { "内容": "特別養護老人ホーム　川辺みどり園【短期入所生活介護】鹿児島県南九州市川辺町清水１０１３１－２川辺みどり園", "url": "https://www.kaigokensaku.mhlw.go.jp/46/index.php?action_kouhyou_detail_004_kani=true&JigyosyoCd=4672700053-00&ServiceCd=210&Type=search", "url2": "http://keijin-kai.org" }, "geometry": { "type": "Point", "coordinates": [ 130.462355, 31.4326101 ] } },
{ "type": "Feature", "properties": { "内容": "ちらん敬和の郷【短期入所生活介護】鹿児島県南九州市知覧町郡５９９８番地１", "url": "https://www.kaigokensaku.mhlw.go.jp/46/index.php?action_kouhyou_detail_004_kani=true&JigyosyoCd=4674300373-00&ServiceCd=210&Type=search", "url2": "http://kagoshima-keiwakai.jp/" }, "geometry": { "type": "Point", "coordinates": [ 130.4409617, 31.3773428 ] } },
{ "type": "Feature", "properties": { "内容": "憩いの里【短期入所生活介護】鹿児島県南九州市知覧町永里４５７７番地３", "url": "https://www.kaigokensaku.mhlw.go.jp/46/index.php?action_kouhyou_detail_004_kani=true&JigyosyoCd=4672600048-00&ServiceCd=210&Type=search", "url2": "https://ikoi-chiran.com/" }, "geometry": { "type": "Point", "coordinates": [ 130.449425, 31.3684026 ] } },
{ "type": "Feature", "properties": { "内容": "特別養護老人ホーム涼松【短期入所生活介護】鹿児島県南九州市頴娃町別府5539-1", "url": "https://www.kaigokensaku.mhlw.go.jp/46/index.php?action_kouhyou_detail_004_kani=true&JigyosyoCd=4672100072-00&ServiceCd=210&Type=search", "url2": "https://sotetsukai.com" }, "geometry": { "type": "Point", "coordinates": [ 130.427595, 31.2548201 ] } },
{ "type": "Feature", "properties": { "内容": "短期入所生活介護　ビハーラ【短期入所生活介護】鹿児島県南九州市頴娃町別府６６１６番地１", "url": "https://www.kaigokensaku.mhlw.go.jp/46/index.php?action_kouhyou_detail_004_kani=true&JigyosyoCd=4674300233-00&ServiceCd=210&Type=search", "url2": "https://ookawafukushikai.jp/" }, "geometry": { "type": "Point", "coordinates": [ 130.414671061901828, 31.256023255418807 ] } },
{ "type": "Feature", "properties": { "内容": "特別養護老人ホーム　音野舎【短期入所生活介護】鹿児島県南九州市知覧町郡2072番地2", "url": "https://www.kaigokensaku.mhlw.go.jp/46/index.php?action_kouhyou_detail_004_kani=true&JigyosyoCd=4672600055-00&ServiceCd=210&Type=search", "url2": "http:/www.nonnosya.com" }, "geometry": { "type": "Point", "coordinates": [ 130.432869200000027, 31.3543562 ] } },
{ "type": "Feature", "properties": { "内容": "望洋の里【短期入所生活介護】鹿児島県南九州市頴娃町牧之内３７７６番地８", "url": "https://www.kaigokensaku.mhlw.go.jp/46/index.php?action_kouhyou_detail_004_kani=true&JigyosyoCd=4672100064-00&ServiceCd=210&Type=search", "url2": "https://bouyou.synapse.kagoshima.jp/index.html" }, "geometry": { "type": "Point", "coordinates": [ 130.4947932, 31.2487708 ] } },
{ "type": "Feature", "properties": { "内容": "特別養護老人ホーム　千鳥園【短期入所生活介護】鹿児島県伊佐市菱刈徳辺２２０２番地１", "url": "https://www.kaigokensaku.mhlw.go.jp/46/index.php?action_kouhyou_detail_004_kani=true&JigyosyoCd=4675100020-00&ServiceCd=210&Type=search", "url2": "https://keimei.company-guide.jp" }, "geometry": { "type": "Point", "coordinates": [ 130.661875399999985, 32.0083423 ] } },
{ "type": "Feature", "properties": { "内容": "ことぶき園【短期入所生活介護】鹿児島県伊佐市大口青木3023番地14", "url": "https://www.kaigokensaku.mhlw.go.jp/46/index.php?action_kouhyou_detail_004_kani=true&JigyosyoCd=4670900044-00&ServiceCd=210&Type=search", "url2": "http://www.hayahito.com/" }, "geometry": { "type": "Point", "coordinates": [ 130.6334176, 32.0573383 ] } },
{ "type": "Feature", "properties": { "内容": "地域密着型特別養護老人ホーム光陽の杜【短期入所生活介護】鹿児島県姶良市西餅田３３０６－１地域密着型特別養護老人ホーム光陽の杜", "url": "https://www.kaigokensaku.mhlw.go.jp/46/index.php?action_kouhyou_detail_004_kani=true&JigyosyoCd=4674500642-00&ServiceCd=210&Type=search", "url2": "https://taiyounokaze.jp/" }, "geometry": { "type": "Point", "coordinates": [ 130.621920949073797, 31.71917501063492 ] } },
{ "type": "Feature", "properties": { "内容": "特別養護老人ホームやすらぎの里【短期入所生活介護】鹿児島県姶良市下名2992番地", "url": "https://www.kaigokensaku.mhlw.go.jp/46/index.php?action_kouhyou_detail_004_kani=true&JigyosyoCd=4674500865-00&ServiceCd=210&Type=search", "url2": "https://www.aira-yasuragi.com/" }, "geometry": { "type": "Point", "coordinates": [ 130.6190958, 31.7676758 ] } },
{ "type": "Feature", "properties": { "内容": "短期入所生活介護事業所　加治木望岳園【短期入所生活介護】鹿児島県姶良市加治木町木田４７００番地", "url": "https://www.kaigokensaku.mhlw.go.jp/46/index.php?action_kouhyou_detail_004_kani=true&JigyosyoCd=4675200101-00&ServiceCd=210&Type=search", "url2": "http://bougakuen.jp" }, "geometry": { "type": "Point", "coordinates": [ 130.6624964, 31.7501702 ] } },
{ "type": "Feature", "properties": { "内容": "特別養護老人ホームマモリエあいら【短期入所生活介護】平松３３６０", "url": "https://www.kaigokensaku.mhlw.go.jp/46/index.php?action_kouhyou_detail_004_kani=true&JigyosyoCd=4675300364-00&ServiceCd=210&Type=search", "url2": "http://www.qoler.jp" }, "geometry": { "type": "Point", "coordinates": [ 130.594722100000013, 31.7197646 ] } },
{ "type": "Feature", "properties": { "内容": "特別養護老人ホーム大楠苑【短期入所生活介護】姶良市蒲生町白男３２５番地１", "url": "https://www.kaigokensaku.mhlw.go.jp/46/index.php?action_kouhyou_detail_004_kani=true&JigyosyoCd=4675400057-00&ServiceCd=210&Type=search", "url2": "ookusuen.com" }, "geometry": { "type": "Point", "coordinates": [ 130.567120299999942, 31.7619634 ] } },
{ "type": "Feature", "properties": { "内容": "特別養護老人ホーム横川緑風園【短期入所生活介護】姶良市西餅田806-1", "url": "https://www.kaigokensaku.mhlw.go.jp/46/index.php?action_kouhyou_detail_004_kani=true&JigyosyoCd=4675600029-00&ServiceCd=210&Type=search", "url2": "https://www.kibo-ryokufuen.com/ryokufuen" }, "geometry": { "type": "Point", "coordinates": [ 130.621956847846093, 31.728705223458856 ] } },
{ "type": "Feature", "properties": { "内容": "アルテンハイム鶴宮園ショートステイ【短期入所生活介護】鹿児島県薩摩郡さつま町紫尾字下ノ原4077-1", "url": "https://www.kaigokensaku.mhlw.go.jp/46/index.php?action_kouhyou_detail_004_kani=true&JigyosyoCd=4674000049-00&ServiceCd=210&Type=search", "url2": "http://tsurumiyaen.jp/" }, "geometry": { "type": "Point", "coordinates": [ 130.434928, 31.950887 ] } },
{ "type": "Feature", "properties": { "内容": "さつま園【短期入所生活介護】鹿児島県薩摩郡さつま町求名13341番地1", "url": "https://www.kaigokensaku.mhlw.go.jp/46/index.php?action_kouhyou_detail_004_kani=true&JigyosyoCd=4674100047-00&ServiceCd=210&Type=search", "url2": "http://www.satsumaen.jp/" }, "geometry": { "type": "Point", "coordinates": [ 130.536606200000051, 31.9176492 ] } },
{ "type": "Feature", "properties": { "内容": "特別養護老人ホームマモリエ【短期入所生活介護】船木２３１５－１", "url": "https://www.kaigokensaku.mhlw.go.jp/46/index.php?action_kouhyou_detail_004_kani=true&JigyosyoCd=4673900058-00&ServiceCd=210&Type=search", "url2": "http://www.qoler.jp" }, "geometry": { "type": "Point", "coordinates": [ 130.440326300000038, 31.8739155 ] } },
{ "type": "Feature", "properties": { "内容": "特別養護老人ホーム　桃源郷【短期入所生活介護】鹿児島県出水郡長島町鷹巣７４０番地２", "url": "https://www.kaigokensaku.mhlw.go.jp/46/index.php?action_kouhyou_detail_004_kani=true&JigyosyoCd=4674900024-00&ServiceCd=210&Type=search", "url2": null }, "geometry": { "type": "Point", "coordinates": [ 130.179571500000065, 32.1964582 ] } },
{ "type": "Feature", "properties": { "内容": "特別養護老人ホームあかね園【短期入所生活介護】鹿児島県出水郡長島町城川内2331-8", "url": "https://www.kaigokensaku.mhlw.go.jp/46/index.php?action_kouhyou_detail_004_kani=true&JigyosyoCd=4675000014-00&ServiceCd=210&Type=search", "url2": null }, "geometry": { "type": "Point", "coordinates": [ 130.1192863, 32.1199304 ] } },
{ "type": "Feature", "properties": { "内容": "特別養護老人ホームグリーン光芳【短期入所生活介護】鹿児島県姶良郡湧水町米永2387番地", "url": "https://www.kaigokensaku.mhlw.go.jp/46/index.php?action_kouhyou_detail_004_kani=true&JigyosyoCd=4675700019-00&ServiceCd=210&Type=search", "url2": "http://greenkouhouyusui.ec-net.jp/" }, "geometry": { "type": "Point", "coordinates": [ 130.7211078, 31.9251652 ] } },
{ "type": "Feature", "properties": { "内容": "特別養護老人ホームつつはの園【短期入所生活介護】鹿児島県姶良郡湧水町般若寺３５８番地", "url": "https://www.kaigokensaku.mhlw.go.jp/46/index.php?action_kouhyou_detail_004_kani=true&JigyosyoCd=4675800033-00&ServiceCd=210&Type=search", "url2": null }, "geometry": { "type": "Point", "coordinates": [ 130.744555105557282, 32.039123433916444 ] } },
{ "type": "Feature", "properties": { "内容": "回生園ショートステイ【短期入所生活介護】鹿児島県曽於郡大崎町菱田家戸原3063番地", "url": "https://www.kaigokensaku.mhlw.go.jp/46/index.php?action_kouhyou_detail_004_kani=true&JigyosyoCd=4677000020-00&ServiceCd=210&Type=search", "url2": "http://www.kaiseien-sanpokai.jp/" }, "geometry": { "type": "Point", "coordinates": [ 131.021181580798384, 31.453616324475025 ] } },
{ "type": "Feature", "properties": { "内容": "介護老人福祉施設ルーピンの里【短期入所生活介護】鹿児島県肝属郡東串良町池之原２０７７番地１", "url": "https://www.kaigokensaku.mhlw.go.jp/46/index.php?action_kouhyou_detail_004_kani=true&JigyosyoCd=4677200059-00&ServiceCd=210&Type=search", "url2": "http://www.ru-pin.jp" }, "geometry": { "type": "Point", "coordinates": [ 130.978752500000041, 31.3941942 ] } },
{ "type": "Feature", "properties": { "内容": "特別養護老人ホーム青山荘【短期入所生活介護】鹿児島県肝属郡錦江町城元３７２４－１", "url": "https://www.kaigokensaku.mhlw.go.jp/46/index.php?action_kouhyou_detail_004_kani=true&JigyosyoCd=4677600043-00&ServiceCd=210&Type=search", "url2": "http://www.k-seizanso.jp" }, "geometry": { "type": "Point", "coordinates": [ 130.809057199999984, 31.2535296 ] } },
{ "type": "Feature", "properties": { "内容": "特別養護老人ホーム南松園【短期入所生活介護】鹿児島県肝属郡錦江町田代川原369番地", "url": "https://www.kaigokensaku.mhlw.go.jp/46/index.php?action_kouhyou_detail_004_kani=true&JigyosyoCd=4677800031-00&ServiceCd=210&Type=search", "url2": "http://nansyouen.jp" }, "geometry": { "type": "Point", "coordinates": [ 130.835848700000042, 31.1905602 ] } },
{ "type": "Feature", "properties": { "内容": "特別養護老人ホーム　蒼水園【短期入所生活介護】鹿児島県肝属郡南大隅町根占山本1250-1", "url": "https://www.kaigokensaku.mhlw.go.jp/46/index.php?action_kouhyou_detail_004_kani=true&JigyosyoCd=4677700066-00&ServiceCd=210&Type=search", "url2": "https://sousuien.org" }, "geometry": { "type": "Point", "coordinates": [ 130.774892099999988, 31.203528 ] } },
{ "type": "Feature", "properties": { "内容": "特別養護老人ホーム銀河の里【短期入所生活介護】北方５８８番地", "url": "https://www.kaigokensaku.mhlw.go.jp/46/index.php?action_kouhyou_detail_004_kani=true&JigyosyoCd=4677300024-00&ServiceCd=210&Type=search", "url2": "ginganosato@po5.synapse.ne.jp" }, "geometry": { "type": "Point", "coordinates": [ 131.0551279, 31.2791437 ] } },
{ "type": "Feature", "properties": { "内容": "花神荘【短期入所生活介護】後田5375番地", "url": "https://www.kaigokensaku.mhlw.go.jp/46/index.php?action_kouhyou_detail_004_kani=true&JigyosyoCd=4677400063-00&ServiceCd=210&Type=search", "url2": null }, "geometry": { "type": "Point", "coordinates": [ 130.92187, 31.3327513 ] } },
{ "type": "Feature", "properties": { "内容": "特別養護老人ホーム　南界園【短期入所生活介護】熊毛郡中種子町田島327-1", "url": "https://www.kaigokensaku.mhlw.go.jp/46/index.php?action_kouhyou_detail_004_kani=true&JigyosyoCd=4678000029-00&ServiceCd=210&Type=search", "url2": "https://nankaien.jiaikai-k.or.jp/short" }, "geometry": { "type": "Point", "coordinates": [ 130.940920600000027, 30.4812014 ] } },
{ "type": "Feature", "properties": { "内容": "特別養護老人ホーム芙蓉苑【短期入所生活介護】465021", "url": "https://www.kaigokensaku.mhlw.go.jp/46/index.php?action_kouhyou_detail_004_kani=true&JigyosyoCd=4678100027-00&ServiceCd=210&Type=search", "url2": null }, "geometry": { "type": "Point", "coordinates": [ 130.91025, 30.411999 ] } },
{ "type": "Feature", "properties": { "内容": "小規模特別養護老人ホーム　長谷の里【短期入所生活介護】鹿児島県熊毛郡南種子町中之上1702番地4", "url": "https://www.kaigokensaku.mhlw.go.jp/46/index.php?action_kouhyou_detail_004_kani=true&JigyosyoCd=4678100175-00&ServiceCd=210&Type=search", "url2": null }, "geometry": { "type": "Point", "coordinates": [ 130.913193699999965, 30.4359173 ] } },
{ "type": "Feature", "properties": { "内容": "ショートステイ・みなみ【短期入所生活介護】熊毛郡南種子町平山149", "url": "https://www.kaigokensaku.mhlw.go.jp/46/index.php?action_kouhyou_detail_004_kani=true&JigyosyoCd=4678100209-00&ServiceCd=210&Type=search", "url2": null }, "geometry": { "type": "Point", "coordinates": [ 130.957933700000012, 30.4338348 ] } },
{ "type": "Feature", "properties": { "内容": "特別養護老人ホーム　竜天園【短期入所生活介護】熊毛郡屋久島町船行1068番地3", "url": "https://www.kaigokensaku.mhlw.go.jp/46/index.php?action_kouhyou_detail_004_kani=true&JigyosyoCd=4678300031-00&ServiceCd=210&Type=search", "url2": null }, "geometry": { "type": "Point", "coordinates": [ 130.654690036801753, 30.343877034121327 ] } },
{ "type": "Feature", "properties": { "内容": "特別養護老人ホーム　縄文の郷【短期入所生活介護】鹿児島県熊毛郡屋久島町宮之浦2458番地2", "url": "https://www.kaigokensaku.mhlw.go.jp/46/index.php?action_kouhyou_detail_004_kani=true&JigyosyoCd=4678200033-00&ServiceCd=210&Type=search", "url2": "ai-jyo@wonder.ocn.ne.jp" }, "geometry": { "type": "Point", "coordinates": [ 130.586522100000025, 30.4169355 ] } },
{ "type": "Feature", "properties": { "内容": "大和村立特別養護老人ホーム大和の園【短期入所生活介護】鹿児島県大島郡大和村戸円1903番地", "url": "https://www.kaigokensaku.mhlw.go.jp/46/index.php?action_kouhyou_detail_004_kani=true&JigyosyoCd=4678400021-00&ServiceCd=210&Type=search", "url2": "http://www.vill.yamato.lg.jp/" }, "geometry": { "type": "Point", "coordinates": [ 129.31460576375423, 28.347172823207885 ] } },
{ "type": "Feature", "properties": { "内容": "特別養護老人ホーム　虹の園【短期入所生活介護】鹿児島県大島郡宇検村須古字美長良2番地4", "url": "https://www.kaigokensaku.mhlw.go.jp/46/index.php?action_kouhyou_detail_004_kani=true&JigyosyoCd=4678500036-00&ServiceCd=210&Type=search", "url2": null }, "geometry": { "type": "Point", "coordinates": [ 129.298531297514273, 28.271827321982123 ] } },
{ "type": "Feature", "properties": { "内容": "介護老人福祉施設　短期入所生活介護　奄美の園【短期入所生活介護】鹿児島県大島郡瀬戸内町古仁屋１２８３－２７介護老人福祉施設　短期入所生活介護　奄美の園", "url": "https://www.kaigokensaku.mhlw.go.jp/46/index.php?action_kouhyou_detail_004_kani=true&JigyosyoCd=4678600042-00&ServiceCd=210&Type=search", "url2": "amamien@wonder.ocn.no.jp" }, "geometry": { "type": "Point", "coordinates": [ 129.3206884, 28.138244400000023 ] } },
{ "type": "Feature", "properties": { "内容": "加計呂麻園短期入所生活介護事業所【短期入所生活介護】大島郡瀬戸内町伊子茂187番地1", "url": "https://www.kaigokensaku.mhlw.go.jp/46/index.php?action_kouhyou_detail_004_kani=true&JigyosyoCd=4678600075-00&ServiceCd=210&Type=search", "url2": "https//www.kakeromaen.jp" }, "geometry": { "type": "Point", "coordinates": [ 129.243878, 28.1085957 ] } },
{ "type": "Feature", "properties": { "内容": "特別養護老人ホーム愛寿園【短期入所生活介護】鹿児島県大島郡龍郷町浦1874番地", "url": "https://www.kaigokensaku.mhlw.go.jp/46/index.php?action_kouhyou_detail_004_kani=true&JigyosyoCd=4678800048-00&ServiceCd=210&Type=search", "url2": "ryusenkai.org" }, "geometry": { "type": "Point", "coordinates": [ 129.595450699999986, 28.4122002 ] } },
{ "type": "Feature", "properties": { "内容": "特別養護老人ホーム龍郷の里【短期入所生活介護】大島郡龍郷町嘉渡７８７龍郷の里", "url": "https://www.kaigokensaku.mhlw.go.jp/46/index.php?action_kouhyou_detail_004_kani=true&JigyosyoCd=4678800238-00&ServiceCd=210&Type=search", "url2": "http://ryofu-kai.com/" }, "geometry": { "type": "Point", "coordinates": [ 129.56826, 28.4522129 ] } },
{ "type": "Feature", "properties": { "内容": "特別養護老人ホームオアシスケア喜界【短期入所生活介護】鹿児島県大島郡喜界町大字赤連69番地", "url": "https://www.kaigokensaku.mhlw.go.jp/46/index.php?action_kouhyou_detail_004_kani=true&JigyosyoCd=4679000200-00&ServiceCd=210&Type=search", "url2": "http://johsei.org/" }, "geometry": { "type": "Point", "coordinates": [ 129.94253777116387, 28.318335403854825 ] } },
{ "type": "Feature", "properties": { "内容": "短期入所生活介護事業所南風園【短期入所生活介護】鹿児島県大島郡徳之島町花徳６２０番地", "url": "https://www.kaigokensaku.mhlw.go.jp/46/index.php?action_kouhyou_detail_004_kani=true&JigyosyoCd=4679100109-00&ServiceCd=210&Type=search", "url2": "https://www.nanpuuen.org/" }, "geometry": { "type": "Point", "coordinates": [ 128.9661946, 27.8198466 ] } },
{ "type": "Feature", "properties": { "内容": "特別養護老人ホーム徳寿園【短期入所生活介護】5546番地１", "url": "https://www.kaigokensaku.mhlw.go.jp/46/index.php?action_kouhyou_detail_004_kani=true&JigyosyoCd=4679100224-00&ServiceCd=210&Type=search", "url2": "https://kiyoto900021.wixsite.com/mysite" }, "geometry": { "type": "Point", "coordinates": [ 129.005514174330528, 27.72192734516485 ] } },
{ "type": "Feature", "properties": { "内容": "しらゆりの園短期入所介護事業所【短期入所生活介護】鹿児島県大島郡和泊町手々知名７８１番地", "url": "https://www.kaigokensaku.mhlw.go.jp/46/index.php?action_kouhyou_detail_004_kani=true&JigyosyoCd=4679400020-00&ServiceCd=210&Type=search", "url2": "http://kagoshimakuroshiokai.jp/sirayurinosono/" }, "geometry": { "type": "Point", "coordinates": [ 128.654155400000036, 27.4014195 ] } },
{ "type": "Feature", "properties": { "内容": "特別養護老人ホームさくら園【短期入所生活介護】鹿児島県大島郡知名町知名1952-1", "url": "https://www.kaigokensaku.mhlw.go.jp/46/index.php?action_kouhyou_detail_004_kani=true&JigyosyoCd=4679500043-00&ServiceCd=210&Type=search", "url2": null }, "geometry": { "type": "Point", "coordinates": [ 128.562900600000035, 27.3342422 ] } },
{ "type": "Feature", "properties": { "内容": "特別養護老人ホームヨロン園【短期入所生活介護】茶花2179番地", "url": "https://www.kaigokensaku.mhlw.go.jp/46/index.php?action_kouhyou_detail_004_kani=true&JigyosyoCd=4679600025-00&ServiceCd=210&Type=search", "url2": "https://www.yoronen-kouyokai.org" }, "geometry": { "type": "Point", "coordinates": [ 128.4158155, 27.04901 ] } }
]
}
