{
"type": "FeatureCollection",
"name": "geo_46_高校",
"crs": { "type": "name", "properties": { "name": "urn:ogc:def:crs:EPSG::6668" } },
"features": [
{ "type": "Feature", "properties": { "P29_001": "46201", "P29_002": "D146210000011", "P29_003": "16004", "P29_004": "鹿児島県立鶴丸高等学校", "P29_005": "鹿児島県鹿児島市薬師2-1-1", "P29_006": "2", "P29_007": "0", "P29_008": "00", "P29_009": null }, "geometry": { "type": "Point", "coordinates": [ 130.538326876035654, 31.589913706372357 ] } },
{ "type": "Feature", "properties": { "P29_001": "46201", "P29_002": "D146210000020", "P29_003": "16004", "P29_004": "鹿児島県立甲南高等学校", "P29_005": "鹿児島県鹿児島市上之園町23-1", "P29_006": "2", "P29_007": "0", "P29_008": "00", "P29_009": null }, "geometry": { "type": "Point", "coordinates": [ 130.546289005087402, 31.579392771003651 ] } },
{ "type": "Feature", "properties": { "P29_001": "46201", "P29_002": "D146210000039", "P29_003": "16004", "P29_004": "鹿児島県立鹿児島中央高等学校", "P29_005": "鹿児島県鹿児島市加治屋町10-1", "P29_006": "2", "P29_007": "0", "P29_008": "00", "P29_009": null }, "geometry": { "type": "Point", "coordinates": [ 130.549511238246367, 31.586347645991214 ] } },
{ "type": "Feature", "properties": { "P29_001": "46201", "P29_002": "D146210000048", "P29_003": "16004", "P29_004": "鹿児島県立鹿児島東高等学校", "P29_005": "鹿児島県鹿児島市東坂元3-28-1", "P29_006": "2", "P29_007": "0", "P29_008": "00", "P29_009": null }, "geometry": { "type": "Point", "coordinates": [ 130.563062893534408, 31.622504315734496 ] } },
{ "type": "Feature", "properties": { "P29_001": "46201", "P29_002": "D146210000057", "P29_003": "16004", "P29_004": "鹿児島県立鹿児島工業高等学校", "P29_005": "鹿児島県鹿児島市草牟田2-57-1", "P29_006": "2", "P29_007": "0", "P29_008": "00", "P29_009": null }, "geometry": { "type": "Point", "coordinates": [ 130.538231511715281, 31.608319022444846 ] } },
{ "type": "Feature", "properties": { "P29_001": "46201", "P29_002": "D146210000066", "P29_003": "16004", "P29_004": "鹿児島県立鹿児島南高等学校", "P29_005": "鹿児島県鹿児島市谷山中央8-4-1", "P29_006": "2", "P29_007": "0", "P29_008": "00", "P29_009": null }, "geometry": { "type": "Point", "coordinates": [ 130.510166026758611, 31.526611028031073 ] } },
{ "type": "Feature", "properties": { "P29_001": "46210", "P29_002": "D146210000075", "P29_003": "16004", "P29_004": "鹿児島県立指宿高等学校", "P29_005": "鹿児島県指宿市十町236", "P29_006": "2", "P29_007": "0", "P29_008": "00", "P29_009": null }, "geometry": { "type": "Point", "coordinates": [ 130.629120509451866, 31.251409686919008 ] } },
{ "type": "Feature", "properties": { "P29_001": "46210", "P29_002": "D146210000084", "P29_003": "16004", "P29_004": "鹿児島県立山川高等学校", "P29_005": "鹿児島県指宿市山川成川3423", "P29_006": "2", "P29_007": "0", "P29_008": "00", "P29_009": null }, "geometry": { "type": "Point", "coordinates": [ 130.611568474356005, 31.204816429956519 ] } },
{ "type": "Feature", "properties": { "P29_001": "46223", "P29_002": "D146210000093", "P29_003": "16004", "P29_004": "鹿児島県立頴娃高等学校", "P29_005": "鹿児島県南九州市頴娃町牧之内2000", "P29_006": "2", "P29_007": "0", "P29_008": "00", "P29_009": null }, "geometry": { "type": "Point", "coordinates": [ 130.493856369091247, 31.242510200060622 ] } },
{ "type": "Feature", "properties": { "P29_001": "46204", "P29_002": "D146210000100", "P29_003": "16004", "P29_004": "鹿児島県立枕崎高等学校", "P29_005": "鹿児島県枕崎市岩崎町3", "P29_006": "2", "P29_007": "0", "P29_008": "00", "P29_009": null }, "geometry": { "type": "Point", "coordinates": [ 130.288492039947329, 31.27856951295918 ] } },
{ "type": "Feature", "properties": { "P29_001": "46204", "P29_002": "D146210000119", "P29_003": "16004", "P29_004": "鹿児島県立鹿児島水産高等学校", "P29_005": "鹿児島県枕崎市板敷南町650", "P29_006": "2", "P29_007": "0", "P29_008": "00", "P29_009": null }, "geometry": { "type": "Point", "coordinates": [ 130.331772238747305, 31.258422586084635 ] } },
{ "type": "Feature", "properties": { "P29_001": "46220", "P29_002": "D146210000128", "P29_003": "16004", "P29_004": "鹿児島県立加世田高等学校", "P29_005": "鹿児島県南さつま市加世田川畑3200", "P29_006": "2", "P29_007": "0", "P29_008": "00", "P29_009": null }, "geometry": { "type": "Point", "coordinates": [ 130.324953358697996, 31.407960336412373 ] } },
{ "type": "Feature", "properties": { "P29_001": "46220", "P29_002": "D146210000137", "P29_003": "16004", "P29_004": "鹿児島県立加世田常潤高等学校", "P29_005": "鹿児島県南さつま市加世田武田14863", "P29_006": "2", "P29_007": "0", "P29_008": "00", "P29_009": null }, "geometry": { "type": "Point", "coordinates": [ 130.309123560581384, 31.408609222187462 ] } },
{ "type": "Feature", "properties": { "P29_001": "46223", "P29_002": "D146210000146", "P29_003": "16004", "P29_004": "鹿児島県立川辺高等学校", "P29_005": "鹿児島県南九州市川辺町田部田4150", "P29_006": "2", "P29_007": "0", "P29_008": "00", "P29_009": null }, "geometry": { "type": "Point", "coordinates": [ 130.388964548079912, 31.393225812124854 ] } },
{ "type": "Feature", "properties": { "P29_001": "46223", "P29_002": "D146210000155", "P29_003": "16004", "P29_004": "鹿児島県立薩南工業高等学校", "P29_005": "鹿児島県南九州市知覧町郡5232", "P29_006": "2", "P29_007": "0", "P29_008": "00", "P29_009": null }, "geometry": { "type": "Point", "coordinates": [ 130.437067271304159, 31.375035678107317 ] } },
{ "type": "Feature", "properties": { "P29_001": "46216", "P29_002": "D146210000164", "P29_003": "16004", "P29_004": "鹿児島県立吹上高等学校", "P29_005": "鹿児島県日置市吹上町今田1003", "P29_006": "2", "P29_007": "0", "P29_008": "00", "P29_009": null }, "geometry": { "type": "Point", "coordinates": [ 130.337376395514411, 31.511858344609873 ] } },
{ "type": "Feature", "properties": { "P29_001": "46216", "P29_002": "D146210000173", "P29_003": "16004", "P29_004": "鹿児島県立伊集院高等学校", "P29_005": "鹿児島県日置市伊集院町郡1984", "P29_006": "2", "P29_007": "0", "P29_008": "00", "P29_009": null }, "geometry": { "type": "Point", "coordinates": [ 130.400083528170512, 31.635754997711754 ] } },
{ "type": "Feature", "properties": { "P29_001": "46219", "P29_002": "D146210000182", "P29_003": "16004", "P29_004": "鹿児島県立市来農芸高等学校", "P29_005": "鹿児島県いちき串木野市湊町160", "P29_006": "2", "P29_007": "0", "P29_008": "00", "P29_009": null }, "geometry": { "type": "Point", "coordinates": [ 130.296403305977151, 31.690187472570024 ] } },
{ "type": "Feature", "properties": { "P29_001": "46219", "P29_002": "D146210000191", "P29_003": "16004", "P29_004": "鹿児島県立串木野高等学校", "P29_005": "鹿児島県いちき串木野市美住町65", "P29_006": "2", "P29_007": "0", "P29_008": "00", "P29_009": null }, "geometry": { "type": "Point", "coordinates": [ 130.268045349205693, 31.71069654615204 ] } },
{ "type": "Feature", "properties": { "P29_001": "46215", "P29_002": "D146210000208", "P29_003": "16004", "P29_004": "鹿児島県立川内高等学校", "P29_005": "鹿児島県薩摩川内市御陵下町6-3", "P29_006": "2", "P29_007": "0", "P29_008": "00", "P29_009": null }, "geometry": { "type": "Point", "coordinates": [ 130.298366789508037, 31.828904293808289 ] } },
{ "type": "Feature", "properties": { "P29_001": "46215", "P29_002": "D146210000217", "P29_003": "16004", "P29_004": "鹿児島県立川内商工高等学校", "P29_005": "鹿児島県薩摩川内市平佐町1835", "P29_006": "2", "P29_007": "0", "P29_008": "00", "P29_009": null }, "geometry": { "type": "Point", "coordinates": [ 130.322495006584404, 31.813513228116125 ] } },
{ "type": "Feature", "properties": { "P29_001": "46208", "P29_002": "D146210000226", "P29_003": "16004", "P29_004": "鹿児島県立野田女子高等学校", "P29_005": "鹿児島県出水市野田町下名5454", "P29_006": "2", "P29_007": "0", "P29_008": "00", "P29_009": null }, "geometry": { "type": "Point", "coordinates": [ 130.26634501859516, 32.064944565509599 ] } },
{ "type": "Feature", "properties": { "P29_001": "46208", "P29_002": "D146210000235", "P29_003": "16004", "P29_004": "鹿児島県立出水高等学校", "P29_005": "鹿児島県出水市西出水町1700", "P29_006": "2", "P29_007": "0", "P29_008": "00", "P29_009": null }, "geometry": { "type": "Point", "coordinates": [ 130.340626289222115, 32.071064713286759 ] } },
{ "type": "Feature", "properties": { "P29_001": "46208", "P29_002": "D146210000244", "P29_003": "16004", "P29_004": "鹿児島県立出水工業高等学校", "P29_005": "鹿児島県出水市五万石町358", "P29_006": "2", "P29_007": "0", "P29_008": "00", "P29_009": null }, "geometry": { "type": "Point", "coordinates": [ 130.342565624103457, 32.073546458316805 ] } },
{ "type": "Feature", "properties": { "P29_001": "46224", "P29_002": "D146210000253", "P29_003": "16004", "P29_004": "鹿児島県立大口高等学校", "P29_005": "鹿児島県伊佐市大口里2670", "P29_006": "2", "P29_007": "0", "P29_008": "00", "P29_009": null }, "geometry": { "type": "Point", "coordinates": [ 130.613922347914553, 32.065117327177319 ] } },
{ "type": "Feature", "properties": { "P29_001": "46224", "P29_002": "D146210000262", "P29_003": "16004", "P29_004": "鹿児島県立伊佐農林高等学校", "P29_005": "鹿児島県伊佐市大口原田574", "P29_006": "2", "P29_007": "0", "P29_008": "00", "P29_009": null }, "geometry": { "type": "Point", "coordinates": [ 130.626728292467874, 32.048323406303602 ] } },
{ "type": "Feature", "properties": { "P29_001": "46225", "P29_002": "D146210000271", "P29_003": "16004", "P29_004": "鹿児島県立蒲生高等学校", "P29_005": "鹿児島県姶良市蒲生町下久徳848-2", "P29_006": "2", "P29_007": "0", "P29_008": "00", "P29_009": null }, "geometry": { "type": "Point", "coordinates": [ 130.588422742646344, 31.758073020660863 ] } },
{ "type": "Feature", "properties": { "P29_001": "46225", "P29_002": "D146210000280", "P29_003": "16004", "P29_004": "鹿児島県立加治木高等学校", "P29_005": "鹿児島県姶良市加治木町仮屋町211", "P29_006": "2", "P29_007": "0", "P29_008": "00", "P29_009": null }, "geometry": { "type": "Point", "coordinates": [ 130.66578337189344, 31.742055637122931 ] } },
{ "type": "Feature", "properties": { "P29_001": "46225", "P29_002": "D146210000299", "P29_003": "16004", "P29_004": "鹿児島県立加治木工業高等学校", "P29_005": "鹿児島県姶良市加治木町新富町131", "P29_006": "2", "P29_007": "0", "P29_008": "00", "P29_009": null }, "geometry": { "type": "Point", "coordinates": [ 130.669421683799698, 31.74178417151737 ] } },
{ "type": "Feature", "properties": { "P29_001": "46218", "P29_002": "D146210000306", "P29_003": "16004", "P29_004": "鹿児島県立隼人工業高等学校", "P29_005": "鹿児島県霧島市隼人町内山田1-6-20", "P29_006": "2", "P29_007": "0", "P29_008": "00", "P29_009": null }, "geometry": { "type": "Point", "coordinates": [ 130.736530892199653, 31.742884765791267 ] } },
{ "type": "Feature", "properties": { "P29_001": "46218", "P29_002": "D146210000315", "P29_003": "16004", "P29_004": "鹿児島県立国分高等学校", "P29_005": "鹿児島県霧島市国分中央2-8-1", "P29_006": "2", "P29_007": "0", "P29_008": "00", "P29_009": null }, "geometry": { "type": "Point", "coordinates": [ 130.775325569990599, 31.739747544831904 ] } },
{ "type": "Feature", "properties": { "P29_001": "46221", "P29_002": "D146210000324", "P29_003": "16004", "P29_004": "鹿児島県立志布志高等学校", "P29_005": "鹿児島県志布志市志布志町安楽178", "P29_006": "2", "P29_007": "0", "P29_008": "00", "P29_009": null }, "geometry": { "type": "Point", "coordinates": [ 131.08941833591922, 31.469495426499524 ] } },
{ "type": "Feature", "properties": { "P29_001": "46203", "P29_002": "D146210000333", "P29_003": "16004", "P29_004": "鹿児島県立串良商業高等学校", "P29_005": "鹿児島県鹿屋市串良町岡崎2496-1", "P29_006": "2", "P29_007": "0", "P29_008": "00", "P29_009": null }, "geometry": { "type": "Point", "coordinates": [ 130.949808716376907, 31.39425674631492 ] } },
{ "type": "Feature", "properties": { "P29_001": "46203", "P29_002": "D146210000342", "P29_003": "16004", "P29_004": "鹿児島県立鹿屋高等学校", "P29_005": "鹿児島県鹿屋市白崎町13-1", "P29_006": "2", "P29_007": "0", "P29_008": "00", "P29_009": null }, "geometry": { "type": "Point", "coordinates": [ 130.857952416460932, 31.379145169415388 ] } },
{ "type": "Feature", "properties": { "P29_001": "46203", "P29_002": "D146210000351", "P29_003": "16004", "P29_004": "鹿児島県立鹿屋農業高等学校", "P29_005": "鹿児島県鹿屋市寿2-17-5", "P29_006": "2", "P29_007": "0", "P29_008": "00", "P29_009": null }, "geometry": { "type": "Point", "coordinates": [ 130.863252927212073, 31.390376703668899 ] } },
{ "type": "Feature", "properties": { "P29_001": "46203", "P29_002": "D146210000360", "P29_003": "16004", "P29_004": "鹿児島県立鹿屋工業高等学校", "P29_005": "鹿児島県鹿屋市川西町4490", "P29_006": "2", "P29_007": "0", "P29_008": "00", "P29_009": null }, "geometry": { "type": "Point", "coordinates": [ 130.866983113211717, 31.36442428858026 ] } },
{ "type": "Feature", "properties": { "P29_001": "46214", "P29_002": "D146210000379", "P29_003": "16004", "P29_004": "鹿児島県立垂水高等学校", "P29_005": "鹿児島県垂水市中央町14", "P29_006": "2", "P29_007": "0", "P29_008": "00", "P29_009": null }, "geometry": { "type": "Point", "coordinates": [ 130.703658841786648, 31.492058197162017 ] } },
{ "type": "Feature", "properties": { "P29_001": "46491", "P29_002": "D146210000388", "P29_003": "16004", "P29_004": "鹿児島県立南大隅高等学校", "P29_005": "鹿児島県肝属郡南大隅町根占川北413", "P29_006": "2", "P29_007": "0", "P29_008": "00", "P29_009": null }, "geometry": { "type": "Point", "coordinates": [ 130.768500115869358, 31.219807423890046 ] } },
{ "type": "Feature", "properties": { "P29_001": "46505", "P29_002": "D146210000397", "P29_003": "16004", "P29_004": "鹿児島県立屋久島高等学校", "P29_005": "鹿児島県熊毛郡屋久島町宮之浦2479-1", "P29_006": "2", "P29_007": "0", "P29_008": "00", "P29_009": null }, "geometry": { "type": "Point", "coordinates": [ 130.578779935909665, 30.420456286405347 ] } },
{ "type": "Feature", "properties": { "P29_001": "46222", "P29_002": "D146210000404", "P29_003": "16004", "P29_004": "鹿児島県立大島高等学校", "P29_005": "鹿児島県奄美市名瀬安勝町7-1", "P29_006": "2", "P29_007": "0", "P29_008": "00", "P29_009": null }, "geometry": { "type": "Point", "coordinates": [ 129.500624363417529, 28.375326947165174 ] } },
{ "type": "Feature", "properties": { "P29_001": "46535", "P29_002": "D146210000413", "P29_003": "16004", "P29_004": "鹿児島県立与論高等学校", "P29_005": "鹿児島県大島郡与論町茶花1234-1", "P29_006": "2", "P29_007": "0", "P29_008": "00", "P29_009": null }, "geometry": { "type": "Point", "coordinates": [ 128.426956312015108, 27.044457217473941 ] } },
{ "type": "Feature", "properties": { "P29_001": "46222", "P29_002": "D146210000422", "P29_003": "16004", "P29_004": "鹿児島県立奄美高等学校", "P29_005": "鹿児島県奄美市名瀬古田町1-1", "P29_006": "2", "P29_007": "0", "P29_008": "00", "P29_009": null }, "geometry": { "type": "Point", "coordinates": [ 129.498019231519379, 28.371629055804938 ] } },
{ "type": "Feature", "properties": { "P29_001": "46222", "P29_002": "D146210000431", "P29_003": "16004", "P29_004": "鹿児島県立大島北高等学校", "P29_005": "鹿児島県奄美市笠利町大字中金久356", "P29_006": "2", "P29_007": "0", "P29_008": "00", "P29_009": null }, "geometry": { "type": "Point", "coordinates": [ 129.676483501364118, 28.450322484967824 ] } },
{ "type": "Feature", "properties": { "P29_001": "46525", "P29_002": "D146210000440", "P29_003": "16004", "P29_004": "鹿児島県立古仁屋高等学校", "P29_005": "鹿児島県大島郡瀬戸内町古仁屋399-1", "P29_006": "2", "P29_007": "0", "P29_008": "00", "P29_009": null }, "geometry": { "type": "Point", "coordinates": [ 129.312121214984273, 28.151663896311568 ] } },
{ "type": "Feature", "properties": { "P29_001": "46529", "P29_002": "D146210000459", "P29_003": "16004", "P29_004": "鹿児島県立喜界高等学校", "P29_005": "鹿児島県大島郡喜界町大字赤連2536", "P29_006": "2", "P29_007": "0", "P29_008": "00", "P29_009": null }, "geometry": { "type": "Point", "coordinates": [ 129.948053215210336, 28.323265635028264 ] } },
{ "type": "Feature", "properties": { "P29_001": "46534", "P29_002": "D146210000468", "P29_003": "16004", "P29_004": "鹿児島県立沖永良部高等学校", "P29_005": "鹿児島県大島郡知名町余多241", "P29_006": "2", "P29_007": "0", "P29_008": "00", "P29_009": null }, "geometry": { "type": "Point", "coordinates": [ 128.616441048259105, 27.362368040680206 ] } },
{ "type": "Feature", "properties": { "P29_001": "46201", "P29_002": "D146210000477", "P29_003": "16004", "P29_004": "鹿児島市立鹿児島玉龍高等学校", "P29_005": "鹿児島県鹿児島市池之上町20-57", "P29_006": "3", "P29_007": "0", "P29_008": "00", "P29_009": null }, "geometry": { "type": "Point", "coordinates": [ 130.562283820619399, 31.6102454459017 ] } },
{ "type": "Feature", "properties": { "P29_001": "46201", "P29_002": "D146210000486", "P29_003": "16004", "P29_004": "鹿児島市立鹿児島商業高等学校", "P29_005": "鹿児島県鹿児島市西坂元町58-1", "P29_006": "3", "P29_007": "0", "P29_008": "00", "P29_009": null }, "geometry": { "type": "Point", "coordinates": [ 130.553028677583626, 31.61473908439595 ] } },
{ "type": "Feature", "properties": { "P29_001": "46201", "P29_002": "D146210000495", "P29_003": "16004", "P29_004": "鹿児島市立鹿児島女子高等学校", "P29_005": "鹿児島県鹿児島市玉里町27-1", "P29_006": "3", "P29_007": "0", "P29_008": "00", "P29_009": null }, "geometry": { "type": "Point", "coordinates": [ 130.539526786830692, 31.61273382819035 ] } },
{ "type": "Feature", "properties": { "P29_001": "46210", "P29_002": "D146210000501", "P29_003": "16004", "P29_004": "指宿市立指宿商業高等学校", "P29_005": "鹿児島県指宿市岩本2747", "P29_006": "3", "P29_007": "0", "P29_008": "00", "P29_009": null }, "geometry": { "type": "Point", "coordinates": [ 130.595383509323455, 31.292985490437847 ] } },
{ "type": "Feature", "properties": { "P29_001": "46208", "P29_002": "D146210000510", "P29_003": "16004", "P29_004": "出水市立出水商業高等学校", "P29_005": "鹿児島県出水市明神町200", "P29_006": "3", "P29_007": "0", "P29_008": "00", "P29_009": null }, "geometry": { "type": "Point", "coordinates": [ 130.336182865923064, 32.112330011775917 ] } },
{ "type": "Feature", "properties": { "P29_001": "46218", "P29_002": "D146210000529", "P29_003": "16004", "P29_004": "霧島市立国分中央高等学校", "P29_005": "鹿児島県霧島市国分中央1-10-1", "P29_006": "3", "P29_007": "0", "P29_008": "00", "P29_009": null }, "geometry": { "type": "Point", "coordinates": [ 130.76675632403078, 31.744888347400696 ] } },
{ "type": "Feature", "properties": { "P29_001": "46203", "P29_002": "D146210000538", "P29_003": "16004", "P29_004": "鹿屋市立鹿屋女子高等学校", "P29_005": "鹿児島県鹿屋市西原1-24-35", "P29_006": "3", "P29_007": "0", "P29_008": "00", "P29_009": null }, "geometry": { "type": "Point", "coordinates": [ 130.838603438147402, 31.384442931788563 ] } },
{ "type": "Feature", "properties": { "P29_001": "46201", "P29_002": "D146210000547", "P29_003": "16004", "P29_004": "鹿児島県立錦江湾高等学校", "P29_005": "鹿児島県鹿児島市平川町4047", "P29_006": "2", "P29_007": "0", "P29_008": "00", "P29_009": null }, "geometry": { "type": "Point", "coordinates": [ 130.506538453817313, 31.445715607392977 ] } },
{ "type": "Feature", "properties": { "P29_001": "46201", "P29_002": "D146210000556", "P29_003": "16004", "P29_004": "鹿児島県立松陽高等学校", "P29_005": "鹿児島県鹿児島市福山町573", "P29_006": "2", "P29_007": "0", "P29_008": "00", "P29_009": null }, "geometry": { "type": "Point", "coordinates": [ 130.453038301065845, 31.599446817138286 ] } },
{ "type": "Feature", "properties": { "P29_001": "46213", "P29_002": "D146210000565", "P29_003": "16004", "P29_004": "鹿児島県立種子島高等学校", "P29_005": "鹿児島県西之表市西之表9607-1", "P29_006": "2", "P29_007": "0", "P29_008": "00", "P29_009": null }, "geometry": { "type": "Point", "coordinates": [ 131.007618310249001, 30.728542910637632 ] } },
{ "type": "Feature", "properties": { "P29_001": "46530", "P29_002": "D146210000574", "P29_003": "16004", "P29_004": "鹿児島県立徳之島高等学校", "P29_005": "鹿児島県大島郡徳之島町亀津784", "P29_006": "2", "P29_007": "0", "P29_008": "00", "P29_009": null }, "geometry": { "type": "Point", "coordinates": [ 129.018265387794685, 27.733723602562705 ] } },
{ "type": "Feature", "properties": { "P29_001": "46215", "P29_002": "D146210000583", "P29_003": "16004", "P29_004": "鹿児島県立川薩清修館高等学校", "P29_005": "鹿児島県薩摩川内市入来町副田5961", "P29_006": "2", "P29_007": "0", "P29_008": "00", "P29_009": null }, "geometry": { "type": "Point", "coordinates": [ 130.436731628707804, 31.81812773791971 ] } },
{ "type": "Feature", "properties": { "P29_001": "46218", "P29_002": "D146210000592", "P29_003": "16004", "P29_004": "鹿児島県立霧島高等学校", "P29_005": "鹿児島県霧島市牧園町宿窪田330-5", "P29_006": "2", "P29_007": "0", "P29_008": "00", "P29_009": null }, "geometry": { "type": "Point", "coordinates": [ 130.737246755291494, 31.867841631052119 ] } },
{ "type": "Feature", "properties": { "P29_001": "46501", "P29_002": "D146210000609", "P29_003": "16004", "P29_004": "鹿児島県立種子島中央高等学校", "P29_005": "鹿児島県熊毛郡中種子町野間4258-1", "P29_006": "2", "P29_007": "0", "P29_008": "00", "P29_009": null }, "geometry": { "type": "Point", "coordinates": [ 130.96234857944583, 30.541209782758276 ] } },
{ "type": "Feature", "properties": { "P29_001": "46218", "P29_002": "D146210000618", "P29_003": "16004", "P29_004": "鹿児島県立福山高等学校", "P29_005": "鹿児島県霧島市福山町福山5399-1", "P29_006": "2", "P29_007": "0", "P29_008": "00", "P29_009": null }, "geometry": { "type": "Point", "coordinates": [ 130.855718321481191, 31.66491865318682 ] } },
{ "type": "Feature", "properties": { "P29_001": "46201", "P29_002": "D146210000627", "P29_003": "16004", "P29_004": "鹿児島県立武岡台高等学校", "P29_005": "鹿児島県鹿児島市小野町3175", "P29_006": "2", "P29_007": "0", "P29_008": "00", "P29_009": null }, "geometry": { "type": "Point", "coordinates": [ 130.50904911435461, 31.604112718268933 ] } },
{ "type": "Feature", "properties": { "P29_001": "46201", "P29_002": "D146210000636", "P29_003": "16004", "P29_004": "鹿児島県立開陽高等学校", "P29_005": "鹿児島県鹿児島市西谷山1-2-1", "P29_006": "2", "P29_007": "0", "P29_008": "00", "P29_009": null }, "geometry": { "type": "Point", "coordinates": [ 130.508490651055951, 31.524374512364659 ] } },
{ "type": "Feature", "properties": { "P29_001": "46392", "P29_002": "D146210000645", "P29_003": "16004", "P29_004": "鹿児島県立薩摩中央高等学校", "P29_005": "鹿児島県薩摩郡さつま町虎居1900", "P29_006": "2", "P29_007": "0", "P29_008": "00", "P29_009": null }, "geometry": { "type": "Point", "coordinates": [ 130.451784281955696, 31.914034530130841 ] } },
{ "type": "Feature", "properties": { "P29_001": "46206", "P29_002": "D146210000654", "P29_003": "16004", "P29_004": "鹿児島県立鶴翔高等学校", "P29_005": "鹿児島県阿久根市赤瀬川1800", "P29_006": "2", "P29_007": "0", "P29_008": "00", "P29_009": null }, "geometry": { "type": "Point", "coordinates": [ 130.205869196215787, 32.032210667143964 ] } },
{ "type": "Feature", "properties": { "P29_001": "46201", "P29_002": "D146210000663", "P29_003": "16004", "P29_004": "鹿児島県立明桜館高等学校", "P29_005": "鹿児島県鹿児島市郡山町100", "P29_006": "2", "P29_007": "0", "P29_008": "00", "P29_009": null }, "geometry": { "type": "Point", "coordinates": [ 130.480199519477196, 31.67763648750682 ] } },
{ "type": "Feature", "properties": { "P29_001": "46217", "P29_002": "D146210000672", "P29_003": "16004", "P29_004": "鹿児島県立曽於高等学校", "P29_005": "鹿児島県曽於市末吉町二之方6080", "P29_006": "2", "P29_007": "0", "P29_008": "00", "P29_009": null }, "geometry": { "type": "Point", "coordinates": [ 131.016923933236825, 31.646965438257737 ] } },
{ "type": "Feature", "properties": { "P29_001": "46492", "P29_002": "D146210000681", "P29_003": "16004", "P29_004": "鹿児島県立楠隼高等学校", "P29_005": "鹿児島県肝属郡肝付町前田5025", "P29_006": "2", "P29_007": "0", "P29_008": "00", "P29_009": null }, "geometry": { "type": "Point", "coordinates": [ 130.930278008344288, 31.345596436062785 ] } },
{ "type": "Feature", "properties": { "P29_001": "46201", "P29_002": "D146310000019", "P29_003": "16004", "P29_004": "鹿児島実業高等学校", "P29_005": "鹿児島県鹿児島市五ヶ別府町3591-3", "P29_006": "4", "P29_007": "0", "P29_008": "00", "P29_009": null }, "geometry": { "type": "Point", "coordinates": [ 130.494132448681171, 31.590150915613449 ] } },
{ "type": "Feature", "properties": { "P29_001": "46215", "P29_002": "D146310000028", "P29_003": "16004", "P29_004": "れいめい高等学校", "P29_005": "鹿児島県薩摩川内市隈之城町2205", "P29_006": "4", "P29_007": "0", "P29_008": "00", "P29_009": null }, "geometry": { "type": "Point", "coordinates": [ 130.305971985881001, 31.792551284594161 ] } },
{ "type": "Feature", "properties": { "P29_001": "46201", "P29_002": "D146310000037", "P29_003": "16004", "P29_004": "樟南高等学校", "P29_005": "鹿児島県鹿児島市武岡1-120-1", "P29_006": "4", "P29_007": "0", "P29_008": "00", "P29_009": null }, "geometry": { "type": "Point", "coordinates": [ 130.527441439350554, 31.585338158545561 ] } },
{ "type": "Feature", "properties": { "P29_001": "46531", "P29_002": "D146310000046", "P29_003": "16004", "P29_004": "樟南第二高等学校", "P29_005": "鹿児島県大島郡天城町天城297", "P29_006": "4", "P29_007": "0", "P29_008": "00", "P29_009": null }, "geometry": { "type": "Point", "coordinates": [ 128.895850954124256, 27.819228517154226 ] } },
{ "type": "Feature", "properties": { "P29_001": "46216", "P29_002": "D146310000055", "P29_003": "16004", "P29_004": "鹿児島城西高等学校", "P29_005": "鹿児島県日置市伊集院町清藤1938", "P29_006": "4", "P29_007": "0", "P29_008": "00", "P29_009": null }, "geometry": { "type": "Point", "coordinates": [ 130.412268050999415, 31.626318161365276 ] } },
{ "type": "Feature", "properties": { "P29_001": "46201", "P29_002": "D146310000064", "P29_003": "16004", "P29_004": "鹿児島高等学校", "P29_005": "鹿児島県鹿児島市薬師1-21-9", "P29_006": "4", "P29_007": "0", "P29_008": "00", "P29_009": null }, "geometry": { "type": "Point", "coordinates": [ 130.539835893250256, 31.592557264214257 ] } },
{ "type": "Feature", "properties": { "P29_001": "46201", "P29_002": "D146310000073", "P29_003": "16004", "P29_004": "鹿児島純心女子高等学校", "P29_005": "鹿児島県鹿児島市唐湊4-22-2", "P29_006": "4", "P29_007": "0", "P29_008": "00", "P29_009": null }, "geometry": { "type": "Point", "coordinates": [ 130.537567301599296, 31.564823028205609 ] } },
{ "type": "Feature", "properties": { "P29_001": "46201", "P29_002": "D146310000082", "P29_003": "16004", "P29_004": "鹿児島情報高等学校", "P29_005": "鹿児島県鹿児島市谷山中央2-4118", "P29_006": "4", "P29_007": "0", "P29_008": "00", "P29_009": null }, "geometry": { "type": "Point", "coordinates": [ 130.522104091042451, 31.527648876262464 ] } },
{ "type": "Feature", "properties": { "P29_001": "46201", "P29_002": "D146310000091", "P29_003": "16004", "P29_004": "ラ・サール高等学校", "P29_005": "鹿児島県鹿児島市小松原2-10-1", "P29_006": "4", "P29_007": "0", "P29_008": "00", "P29_009": null }, "geometry": { "type": "Point", "coordinates": [ 130.527449735474306, 31.530034478784064 ] } },
{ "type": "Feature", "properties": { "P29_001": "46225", "P29_002": "D146310000108", "P29_003": "16004", "P29_004": "龍桜高等学校", "P29_005": "鹿児島県姶良市加治木町木田5348", "P29_006": "4", "P29_007": "0", "P29_008": "00", "P29_009": null }, "geometry": { "type": "Point", "coordinates": [ 130.660517928173817, 31.732403705374349 ] } },
{ "type": "Feature", "properties": { "P29_001": "46220", "P29_002": "D146310000117", "P29_003": "16004", "P29_004": "鳳凰高等学校", "P29_005": "鹿児島県南さつま市加世田唐仁原1202", "P29_006": "4", "P29_007": "0", "P29_008": "00", "P29_009": null }, "geometry": { "type": "Point", "coordinates": [ 130.311716114643502, 31.421822442653756 ] } },
{ "type": "Feature", "properties": { "P29_001": "46219", "P29_002": "D146310000126", "P29_003": "16004", "P29_004": "神村学園高等部", "P29_005": "鹿児島県いちき串木野市別府4460", "P29_006": "4", "P29_007": "0", "P29_008": "00", "P29_009": null }, "geometry": { "type": "Point", "coordinates": [ 130.281644340582545, 31.70500292787294 ] } },
{ "type": "Feature", "properties": { "P29_001": "46208", "P29_002": "D146310000135", "P29_003": "16004", "P29_004": "出水中央高等学校", "P29_005": "鹿児島県出水市西出水町448", "P29_006": "4", "P29_007": "0", "P29_008": "00", "P29_009": null }, "geometry": { "type": "Point", "coordinates": [ 130.338748771772373, 32.077063619174027 ] } },
{ "type": "Feature", "properties": { "P29_001": "46224", "P29_002": "D146310000144", "P29_003": "16004", "P29_004": "大口明光学園高等学校", "P29_005": "鹿児島県伊佐市大口里1830", "P29_006": "4", "P29_007": "0", "P29_008": "00", "P29_009": null }, "geometry": { "type": "Point", "coordinates": [ 130.615386639258872, 32.053633570135545 ] } },
{ "type": "Feature", "properties": { "P29_001": "46218", "P29_002": "D146310000153", "P29_003": "16004", "P29_004": "鹿児島第一高等学校", "P29_005": "鹿児島県霧島市国分府中214", "P29_006": "4", "P29_007": "0", "P29_008": "00", "P29_009": null }, "geometry": { "type": "Point", "coordinates": [ 130.770019133327452, 31.749429689349828 ] } },
{ "type": "Feature", "properties": { "P29_001": "46203", "P29_002": "D146310000162", "P29_003": "16004", "P29_004": "鹿屋中央高等学校", "P29_005": "鹿児島県鹿屋市寿8-12-26", "P29_006": "4", "P29_007": "0", "P29_008": "00", "P29_009": null }, "geometry": { "type": "Point", "coordinates": [ 130.876190472397781, 31.383166032676538 ] } },
{ "type": "Feature", "properties": { "P29_001": "46221", "P29_002": "D146310000171", "P29_003": "16004", "P29_004": "尚志館高等学校", "P29_005": "鹿児島県志布志市志布志町安楽6200", "P29_006": "4", "P29_007": "0", "P29_008": "00", "P29_009": null }, "geometry": { "type": "Point", "coordinates": [ 131.068605463698987, 31.463076038061473 ] } },
{ "type": "Feature", "properties": { "P29_001": "46201", "P29_002": "D146310000180", "P29_003": "16004", "P29_004": "志學館高等部高等学校", "P29_005": "鹿児島県鹿児島市南郡元町32-1", "P29_006": "4", "P29_007": "0", "P29_008": "00", "P29_009": null }, "geometry": { "type": "Point", "coordinates": [ 130.543164106118269, 31.557842263530283 ] } },
{ "type": "Feature", "properties": { "P29_001": "46201", "P29_002": "D146310000199", "P29_003": "16004", "P29_004": "池田高等学校", "P29_005": "鹿児島県鹿児島市西別府町1680", "P29_006": "4", "P29_007": "0", "P29_008": "00", "P29_009": null }, "geometry": { "type": "Point", "coordinates": [ 130.483748109221466, 31.600595072509407 ] } },
{ "type": "Feature", "properties": { "P29_001": "46216", "P29_002": "D146310000206", "P29_003": "16004", "P29_004": "鹿児島育英館高等学校", "P29_005": "鹿児島県日置市伊集院町猪鹿倉550", "P29_006": "4", "P29_007": "0", "P29_008": "00", "P29_009": null }, "geometry": { "type": "Point", "coordinates": [ 130.408353120385499, 31.627860658226648 ] } },
{ "type": "Feature", "properties": { "P29_001": "46201", "P29_002": "D146310000215", "P29_003": "16004", "P29_004": "鹿児島修学館高等学校", "P29_005": "鹿児島県鹿児島市永吉2-9-1", "P29_006": "4", "P29_007": "0", "P29_008": "00", "P29_009": null }, "geometry": { "type": "Point", "coordinates": [ 130.535083465464112, 31.603330132643343 ] } },
{ "type": "Feature", "properties": { "P29_001": "46505", "P29_002": "D146310000224", "P29_003": "16004", "P29_004": "屋久島おおぞら高等学校", "P29_005": "鹿児島県熊毛郡屋久島町平内34-2", "P29_006": "4", "P29_007": "0", "P29_008": "00", "P29_009": null }, "geometry": { "type": "Point", "coordinates": [ 130.492243423203831, 30.230254082653214 ] } }
]
}
