{
"type": "FeatureCollection",
"name": "geo_46_福祉用具貸与",
"crs": { "type": "name", "properties": { "name": "urn:ogc:def:crs:OGC:1.3:CRS84" } },
"features": [
{ "type": "Feature", "properties": { "内容": "株式会社カインドネス真【福祉用具貸与】鹿児島県鹿児島市谷山中央二丁目４１６８番地", "url": "https://www.kaigokensaku.mhlw.go.jp/46/index.php?action_kouhyou_detail_004_kani=true&JigyosyoCd=4670110784-00&ServiceCd=170&Type=search", "url2": null }, "geometry": { "type": "Point", "coordinates": [ 130.52171101379372, 31.525815474716993 ] } },
{ "type": "Feature", "properties": { "内容": "きらりケアネット【福祉用具貸与】小松原１丁目５０番２２号上村ビル１０２号", "url": "https://www.kaigokensaku.mhlw.go.jp/46/index.php?action_kouhyou_detail_004_kani=true&JigyosyoCd=4670113325-00&ServiceCd=170&Type=search", "url2": null }, "geometry": { "type": "Point", "coordinates": [ 130.529628101375778, 31.534834554748684 ] } },
{ "type": "Feature", "properties": { "内容": "エミング【福祉用具貸与】錦江台1丁目65-8", "url": "https://www.kaigokensaku.mhlw.go.jp/46/index.php?action_kouhyou_detail_004_kani=true&JigyosyoCd=4670102948-00&ServiceCd=170&Type=search", "url2": null }, "geometry": { "type": "Point", "coordinates": [ 130.49300489999996, 31.5009703 ] } },
{ "type": "Feature", "properties": { "内容": "きいれんと【福祉用具貸与】鹿児島県鹿児島市喜入町7020番地1", "url": "https://www.kaigokensaku.mhlw.go.jp/46/index.php?action_kouhyou_detail_004_kani=true&JigyosyoCd=4670109752-00&ServiceCd=170&Type=search", "url2": null }, "geometry": { "type": "Point", "coordinates": [ 130.542908399999988, 31.3738792 ] } },
{ "type": "Feature", "properties": { "内容": "株式会社手摺本舗【福祉用具貸与】鹿児島市下福元町2892番地1", "url": "https://www.kaigokensaku.mhlw.go.jp/46/index.php?action_kouhyou_detail_004_kani=true&JigyosyoCd=4670112277-00&ServiceCd=170&Type=search", "url2": null }, "geometry": { "type": "Point", "coordinates": [ 130.489915600000018, 31.513118 ] } },
{ "type": "Feature", "properties": { "内容": "フィールド・ケア【福祉用具貸与】鹿児島市本名町1141-2", "url": "https://www.kaigokensaku.mhlw.go.jp/46/index.php?action_kouhyou_detail_004_kani=true&JigyosyoCd=4671500074-00&ServiceCd=170&Type=search", "url2": null }, "geometry": { "type": "Point", "coordinates": [ 130.5518098, 31.6850702 ] } },
{ "type": "Feature", "properties": { "内容": "つるまるケア【福祉用具貸与】明和1丁目25番11号", "url": "https://www.kaigokensaku.mhlw.go.jp/46/index.php?action_kouhyou_detail_004_kani=true&JigyosyoCd=4670113960-00&ServiceCd=170&Type=search", "url2": "https://tsuruhome.com/company/" }, "geometry": { "type": "Point", "coordinates": [ 130.5225678, 31.6026408 ] } },
{ "type": "Feature", "properties": { "内容": "株式会社　サンハート【福祉用具貸与】鹿児島県鹿児島市向陽2丁目11-10", "url": "https://www.kaigokensaku.mhlw.go.jp/46/index.php?action_kouhyou_detail_004_kani=true&JigyosyoCd=4670102393-00&ServiceCd=170&Type=search", "url2": "https://www.hinata-scs.com/" }, "geometry": { "type": "Point", "coordinates": [ 130.519244546768505, 31.557012709263912 ] } },
{ "type": "Feature", "properties": { "内容": "パナソニック　エイジフリーショップ富士【福祉用具貸与】鹿児島県鹿児島市宇宿2丁目22-15", "url": "https://www.kaigokensaku.mhlw.go.jp/46/index.php?action_kouhyou_detail_004_kani=true&JigyosyoCd=4670111261-00&ServiceCd=170&Type=search", "url2": "https://sumai.panasonic.jp/agefree/map/detail.php?id=228" }, "geometry": { "type": "Point", "coordinates": [ 130.540843900000027, 31.5388511 ] } },
{ "type": "Feature", "properties": { "内容": "株式会社ケアネスト【福祉用具貸与】鹿児島県鹿児島市小松原1丁目16-11", "url": "https://www.kaigokensaku.mhlw.go.jp/46/index.php?action_kouhyou_detail_004_kani=true&JigyosyoCd=4670109893-00&ServiceCd=170&Type=search", "url2": null }, "geometry": { "type": "Point", "coordinates": [ 130.533453, 31.537323499999985 ] } },
{ "type": "Feature", "properties": { "内容": "住まいるライフ株式会社【福祉用具貸与】鹿児島県鹿児島市武岡3丁目2-2", "url": "https://www.kaigokensaku.mhlw.go.jp/46/index.php?action_kouhyou_detail_004_kani=true&JigyosyoCd=4670112673-00&ServiceCd=170&Type=search", "url2": "https://smilelife.synapse-site.jp/" }, "geometry": { "type": "Point", "coordinates": [ 130.516788, 31.5908156 ] } },
{ "type": "Feature", "properties": { "内容": "有限会社　南州メディカル　鹿児島店【福祉用具貸与】鹿児島市下伊敷3丁目22番28号", "url": "https://www.kaigokensaku.mhlw.go.jp/46/index.php?action_kouhyou_detail_004_kani=true&JigyosyoCd=4670107764-00&ServiceCd=170&Type=search", "url2": "https://nansyu-m.co.jp/" }, "geometry": { "type": "Point", "coordinates": [ 130.537749299999973, 31.6205564 ] } },
{ "type": "Feature", "properties": { "内容": "有限会社　南州メディカル　谷山店【福祉用具貸与】鹿児島市谷山中央3丁目4642", "url": "https://www.kaigokensaku.mhlw.go.jp/46/index.php?action_kouhyou_detail_004_kani=true&JigyosyoCd=4670112301-00&ServiceCd=170&Type=search", "url2": "https://nansyu-m.co.jp/" }, "geometry": { "type": "Point", "coordinates": [ 130.518313300000045, 31.5186112 ] } },
{ "type": "Feature", "properties": { "内容": "あおぞらケアテクノロジー【福祉用具貸与】鹿児島県鹿児島市下荒田3−17−1レジデンス久野ビル3F", "url": "https://www.kaigokensaku.mhlw.go.jp/46/index.php?action_kouhyou_detail_004_kani=true&JigyosyoCd=4670113242-00&ServiceCd=170&Type=search", "url2": "https://www.aozora-gp.com/" }, "geometry": { "type": "Point", "coordinates": [ 130.552951, 31.5721152 ] } },
{ "type": "Feature", "properties": { "内容": "ケアネット・たから【福祉用具貸与】山田町2174-6", "url": "https://www.kaigokensaku.mhlw.go.jp/46/index.php?action_kouhyou_detail_004_kani=true&JigyosyoCd=4670106600-00&ServiceCd=170&Type=search", "url2": "http://tkr3a.co.jp/" }, "geometry": { "type": "Point", "coordinates": [ 130.5074962, 31.5650729 ] } },
{ "type": "Feature", "properties": { "内容": "ダスキンヘルスレント鹿児島ステーション【福祉用具貸与】鹿児島県鹿児島市新栄町32-36", "url": "https://www.kaigokensaku.mhlw.go.jp/46/index.php?action_kouhyou_detail_004_kani=true&JigyosyoCd=4670103391-00&ServiceCd=170&Type=search", "url2": "http://healthrent.duskin.jp/" }, "geometry": { "type": "Point", "coordinates": [ 130.552492478814685, 31.546889851138449 ] } },
{ "type": "Feature", "properties": { "内容": "株式会社フロンティア【福祉用具貸与】鹿児島県鹿児島市東谷山6丁目17番3号", "url": "https://www.kaigokensaku.mhlw.go.jp/46/index.php?action_kouhyou_detail_004_kani=true&JigyosyoCd=4670111568-00&ServiceCd=170&Type=search", "url2": "http://www.frontier-ph.com/" }, "geometry": { "type": "Point", "coordinates": [ 130.520762600000012, 31.5366402 ] } },
{ "type": "Feature", "properties": { "内容": "メディコープ・ケアプラザ【福祉用具貸与】鹿児島市谷山中央5丁目16番2号", "url": "https://www.kaigokensaku.mhlw.go.jp/46/index.php?action_kouhyou_detail_004_kani=true&JigyosyoCd=4670101320-00&ServiceCd=170&Type=search", "url2": "http://www.medicorp.co.jp/kaigo.html" }, "geometry": { "type": "Point", "coordinates": [ 130.512830600000029, 31.5180167 ] } },
{ "type": "Feature", "properties": { "内容": "株式会社　さくら医療器械【福祉用具貸与】鹿児島市新照院町17番11号", "url": "https://www.kaigokensaku.mhlw.go.jp/46/index.php?action_kouhyou_detail_004_kani=true&JigyosyoCd=4670100843-00&ServiceCd=170&Type=search", "url2": "http://www.sakurairyo.jp/" }, "geometry": { "type": "Point", "coordinates": [ 130.543921693254106, 31.594141006943872 ] } },
{ "type": "Feature", "properties": { "内容": "株式会社やさしい手　住環境事業本部鹿児島営業所【福祉用具貸与】鹿児島県鹿児島市荒田2-74-20園田ビル1階", "url": "https://www.kaigokensaku.mhlw.go.jp/46/index.php?action_kouhyou_detail_004_kani=true&JigyosyoCd=4670113085-00&ServiceCd=170&Type=search", "url2": "http://www.yasashiite.com" }, "geometry": { "type": "Point", "coordinates": [ 130.550837699999988, 31.5700152 ] } },
{ "type": "Feature", "properties": { "内容": "ケアサポート【福祉用具貸与】鹿児島市上谷口町２８６４－６", "url": "https://www.kaigokensaku.mhlw.go.jp/46/index.php?action_kouhyou_detail_004_kani=true&JigyosyoCd=4670104464-00&ServiceCd=170&Type=search", "url2": "https://www.caresupportkagoshima.com/" }, "geometry": { "type": "Point", "coordinates": [ 130.433874100000025, 31.606526 ] } },
{ "type": "Feature", "properties": { "内容": "サポート鹿児島【福祉用具貸与】大明丘二丁目23番12号", "url": "https://www.kaigokensaku.mhlw.go.jp/46/index.php?action_kouhyou_detail_004_kani=true&JigyosyoCd=4670106766-00&ServiceCd=170&Type=search", "url2": null }, "geometry": { "type": "Point", "coordinates": [ 130.5700607, 31.630094799999988 ] } },
{ "type": "Feature", "properties": { "内容": "有限会社　グランケア【福祉用具貸与】鹿児島市皇徳寺台5丁目27-1", "url": "https://www.kaigokensaku.mhlw.go.jp/46/index.php?action_kouhyou_detail_004_kani=true&JigyosyoCd=4670102401-00&ServiceCd=170&Type=search", "url2": "https://grancare.jp" }, "geometry": { "type": "Point", "coordinates": [ 130.480116051173354, 31.565053569703984 ] } },
{ "type": "Feature", "properties": { "内容": "有限会社　平成メディカル【福祉用具貸与】鹿児島市宮之浦町1424-1", "url": "https://www.kaigokensaku.mhlw.go.jp/46/index.php?action_kouhyou_detail_004_kani=true&JigyosyoCd=4670101957-00&ServiceCd=170&Type=search", "url2": "http://heisei-m.com" }, "geometry": { "type": "Point", "coordinates": [ 130.564242599999943, 31.6738158 ] } },
{ "type": "Feature", "properties": { "内容": "有限会社ウェルフェア【福祉用具貸与】鹿児島市下荒田1丁目8番11号松久保ビル2Ｆ", "url": "https://www.kaigokensaku.mhlw.go.jp/46/index.php?action_kouhyou_detail_004_kani=true&JigyosyoCd=4670103961-00&ServiceCd=170&Type=search", "url2": "http://welfare-kaigo.com" }, "geometry": { "type": "Point", "coordinates": [ 130.554818186508186, 31.576263738539939 ] } },
{ "type": "Feature", "properties": { "内容": "株式会社カクイックスウィング鹿児島中央営業所【福祉用具貸与】鹿児島県鹿児島市加治屋町3-1", "url": "https://www.kaigokensaku.mhlw.go.jp/46/index.php?action_kouhyou_detail_004_kani=true&JigyosyoCd=4670105388-00&ServiceCd=170&Type=search", "url2": "https:www.kakuix-wing.com" }, "geometry": { "type": "Point", "coordinates": [ 130.5473179, 31.5854606 ] } },
{ "type": "Feature", "properties": { "内容": "有限会社よしとく福祉【福祉用具貸与】鹿児島市吉野町3221番地5", "url": "https://www.kaigokensaku.mhlw.go.jp/46/index.php?action_kouhyou_detail_004_kani=true&JigyosyoCd=4670102492-00&ServiceCd=170&Type=search", "url2": "http://www.yoshitoku-wel.com" }, "geometry": { "type": "Point", "coordinates": [ 130.570607500000051, 31.641427 ] } },
{ "type": "Feature", "properties": { "内容": "かうぴり【福祉用具貸与】鹿児島県鹿児島市清和3丁目12-26シャルム松元A01", "url": "https://www.kaigokensaku.mhlw.go.jp/46/index.php?action_kouhyou_detail_004_kani=true&JigyosyoCd=4670113374-00&ServiceCd=170&Type=search", "url2": null }, "geometry": { "type": "Point", "coordinates": [ 130.508792699999987, 31.534519 ] } },
{ "type": "Feature", "properties": { "内容": "カクイックスウィング鹿児島営業所【福祉用具貸与】鹿児島市谷山港1－2－7", "url": "https://www.kaigokensaku.mhlw.go.jp/46/index.php?action_kouhyou_detail_004_kani=true&JigyosyoCd=4670100108-00&ServiceCd=170&Type=search", "url2": "httsp://www.kakuix-wing.com" }, "geometry": { "type": "Point", "coordinates": [ 130.522263400000043, 31.4993214 ] } },
{ "type": "Feature", "properties": { "内容": "株式会社　中礼義肢製作所【福祉用具貸与】鹿児島県鹿児島市加治屋町１１番３号", "url": "https://www.kaigokensaku.mhlw.go.jp/46/index.php?action_kouhyou_detail_004_kani=true&JigyosyoCd=4670101593-00&ServiceCd=170&Type=search", "url2": "http://www．ｃｈｕｒｅｉｇｉｓｈｉ．ｃｏ．ｊｐ" }, "geometry": { "type": "Point", "coordinates": [ 130.548999630688513, 31.586942917962677 ] } },
{ "type": "Feature", "properties": { "内容": "メイワ医科工業株式会社【福祉用具貸与】鹿児島市七ッ島一丁目４－８", "url": "https://www.kaigokensaku.mhlw.go.jp/46/index.php?action_kouhyou_detail_004_kani=true&JigyosyoCd=4670101940-00&ServiceCd=170&Type=search", "url2": "http://www.meiwaika.com" }, "geometry": { "type": "Point", "coordinates": [ 130.512978100000026, 31.4712042 ] } },
{ "type": "Feature", "properties": { "内容": "有限会社三井・メディックス　鹿児島営業所【福祉用具貸与】鹿児島市南栄5丁目10-4にわシティビル", "url": "https://www.kaigokensaku.mhlw.go.jp/46/index.php?action_kouhyou_detail_004_kani=true&JigyosyoCd=4670112137-00&ServiceCd=170&Type=search", "url2": "http.//mitsui-medix.co.jp/" }, "geometry": { "type": "Point", "coordinates": [ 130.519144, 31.5100842 ] } },
{ "type": "Feature", "properties": { "内容": "ＱＣＣ鹿児島【福祉用具貸与】鹿児島県鹿児島市吉野1丁目12番23号", "url": "https://www.kaigokensaku.mhlw.go.jp/46/index.php?action_kouhyou_detail_004_kani=true&JigyosyoCd=4670112533-00&ServiceCd=170&Type=search", "url2": "https://liberty-kaigo.com/" }, "geometry": { "type": "Point", "coordinates": [ 130.569101499999988, 31.6480149 ] } },
{ "type": "Feature", "properties": { "内容": "レンタル丸屋　鹿児島営業所【福祉用具貸与】鹿児島県鹿児島市西別府町3010-37", "url": "https://www.kaigokensaku.mhlw.go.jp/46/index.php?action_kouhyou_detail_004_kani=true&JigyosyoCd=4670112715-00&ServiceCd=170&Type=search", "url2": "http://www.rental-maruya.com" }, "geometry": { "type": "Point", "coordinates": [ 130.501086500000042, 31.5918807 ] } },
{ "type": "Feature", "properties": { "内容": "(株)ミライクル【福祉用具貸与】鹿児島県鹿児島市桜ヶ丘六丁目16番12-102号", "url": "https://www.kaigokensaku.mhlw.go.jp/46/index.php?action_kouhyou_detail_004_kani=true&JigyosyoCd=4670113648-00&ServiceCd=170&Type=search", "url2": null }, "geometry": { "type": "Point", "coordinates": [ 130.521199200000012, 31.5470956 ] } },
{ "type": "Feature", "properties": { "内容": "ケアプラス【福祉用具貸与】鹿児島県鹿児島市武岡四丁目20番10号", "url": "https://www.kaigokensaku.mhlw.go.jp/46/index.php?action_kouhyou_detail_004_kani=true&JigyosyoCd=4670110289-00&ServiceCd=170&Type=search", "url2": null }, "geometry": { "type": "Point", "coordinates": [ 130.510554927647348, 31.595110021184805 ] } },
{ "type": "Feature", "properties": { "内容": "福祉用具販売・レンタル☆まえむ【福祉用具貸与】鹿児島市吉野町8740-2", "url": "https://www.kaigokensaku.mhlw.go.jp/46/index.php?action_kouhyou_detail_004_kani=true&JigyosyoCd=4670106014-00&ServiceCd=170&Type=search", "url2": "https://maemugp.wixsite.com/maemu" }, "geometry": { "type": "Point", "coordinates": [ 130.577369966738047, 31.630728529088799 ] } },
{ "type": "Feature", "properties": { "内容": "えん【福祉用具貸与】鹿児島県鹿児島市吉野町11390-5", "url": "https://www.kaigokensaku.mhlw.go.jp/46/index.php?action_kouhyou_detail_004_kani=true&JigyosyoCd=4670114083-00&ServiceCd=170&Type=search", "url2": null }, "geometry": { "type": "Point", "coordinates": [ 130.5907034, 31.6594174 ] } },
{ "type": "Feature", "properties": { "内容": "株式会社エルシア【福祉用具貸与】西谷山二丁目11番１号", "url": "https://www.kaigokensaku.mhlw.go.jp/46/index.php?action_kouhyou_detail_004_kani=true&JigyosyoCd=4670107962-00&ServiceCd=170&Type=search", "url2": null }, "geometry": { "type": "Point", "coordinates": [ 130.508024061512884, 31.520455075898223 ] } },
{ "type": "Feature", "properties": { "内容": "有限会社　　結愛【福祉用具貸与】鹿屋市寿８丁目７２４４－８", "url": "https://www.kaigokensaku.mhlw.go.jp/46/index.php?action_kouhyou_detail_004_kani=true&JigyosyoCd=4670301508-00&ServiceCd=170&Type=search", "url2": "https://www.yuai-kanoya.com/" }, "geometry": { "type": "Point", "coordinates": [ 130.879975, 31.3789929 ] } },
{ "type": "Feature", "properties": { "内容": "株式会社トータルケア【福祉用具貸与】鹿児島県鹿屋市横山町２７６０番地1", "url": "https://www.kaigokensaku.mhlw.go.jp/46/index.php?action_kouhyou_detail_004_kani=true&JigyosyoCd=4670300781-00&ServiceCd=170&Type=search", "url2": null }, "geometry": { "type": "Point", "coordinates": [ 130.8213442, 31.3447887 ] } },
{ "type": "Feature", "properties": { "内容": "ＱＣＣ鹿屋【福祉用具貸与】笠之原町1912-1", "url": "https://www.kaigokensaku.mhlw.go.jp/46/index.php?action_kouhyou_detail_004_kani=true&JigyosyoCd=4670300401-00&ServiceCd=170&Type=search", "url2": "http://www.qcc-sc.com/gaiyou.html" }, "geometry": { "type": "Point", "coordinates": [ 130.887717436351977, 31.398849617675278 ] } },
{ "type": "Feature", "properties": { "内容": "株式会社カクイックスウィング鹿屋営業所【福祉用具貸与】鹿屋市王子町3961-4", "url": "https://www.kaigokensaku.mhlw.go.jp/46/index.php?action_kouhyou_detail_004_kani=true&JigyosyoCd=4670300369-00&ServiceCd=170&Type=search", "url2": "http://www.kakuix-wing.com/" }, "geometry": { "type": "Point", "coordinates": [ 130.86597, 31.4023182 ] } },
{ "type": "Feature", "properties": { "内容": "有限会社三井・メディックス【福祉用具貸与】鹿屋市上祓川町8469番地1", "url": "https://www.kaigokensaku.mhlw.go.jp/46/index.php?action_kouhyou_detail_004_kani=true&JigyosyoCd=4670300385-00&ServiceCd=170&Type=search", "url2": "http.//mitsui-medix.co.jp/" }, "geometry": { "type": "Point", "coordinates": [ 130.8567253, 31.4381202 ] } },
{ "type": "Feature", "properties": { "内容": "株式会社　鹿児島ヒューマンサービス【福祉用具貸与】鹿児島県鹿屋市新川町862番地", "url": "https://www.kaigokensaku.mhlw.go.jp/46/index.php?action_kouhyou_detail_004_kani=true&JigyosyoCd=4670300377-00&ServiceCd=170&Type=search", "url2": "http://www.miyazaki-human.co.jp" }, "geometry": { "type": "Point", "coordinates": [ 130.862401699999964, 31.3763871 ] } },
{ "type": "Feature", "properties": { "内容": "有限会社　南州メディカル　枕崎店【福祉用具貸与】枕崎市住吉町1番地三愛ビル1B", "url": "https://www.kaigokensaku.mhlw.go.jp/46/index.php?action_kouhyou_detail_004_kani=true&JigyosyoCd=4670400235-00&ServiceCd=170&Type=search", "url2": "https://nansyu-m.co.jp/" }, "geometry": { "type": "Point", "coordinates": [ 130.2982766, 31.2725947 ] } },
{ "type": "Feature", "properties": { "内容": "有限会社平成メディカル　福祉住宅体験型営業所まくらざき【福祉用具貸与】鹿児島県枕崎市中央町185", "url": "https://www.kaigokensaku.mhlw.go.jp/46/index.php?action_kouhyou_detail_004_kani=true&JigyosyoCd=4670400375-00&ServiceCd=170&Type=search", "url2": "https://heisei-m.com/" }, "geometry": { "type": "Point", "coordinates": [ 130.2838805, 31.2739408 ] } },
{ "type": "Feature", "properties": { "内容": "暖家【福祉用具貸与】鹿児島県阿久根市港町６５番地４株式会社太田電機工業所", "url": "https://www.kaigokensaku.mhlw.go.jp/46/index.php?action_kouhyou_detail_004_kani=true&JigyosyoCd=4670600396-00&ServiceCd=170&Type=search", "url2": "http://danke-care.com/" }, "geometry": { "type": "Point", "coordinates": [ 130.194898299999977, 32.0154029 ] } },
{ "type": "Feature", "properties": { "内容": "株式会社タートルシルバーショップ雅鹿児島店【福祉用具貸与】赤瀬川2660-1", "url": "https://www.kaigokensaku.mhlw.go.jp/46/index.php?action_kouhyou_detail_004_kani=true&JigyosyoCd=4670600040-00&ServiceCd=170&Type=search", "url2": "https://turtle.main.jp/" }, "geometry": { "type": "Point", "coordinates": [ 130.2134271, 32.036085 ] } },
{ "type": "Feature", "properties": { "内容": "有限会社　南州メディカル　出水店【福祉用具貸与】出水市西出水町1646番地", "url": "https://www.kaigokensaku.mhlw.go.jp/46/index.php?action_kouhyou_detail_004_kani=true&JigyosyoCd=4670800368-00&ServiceCd=170&Type=search", "url2": "https://nansyu-m.co.jp/" }, "geometry": { "type": "Point", "coordinates": [ 130.3376766, 32.0705822 ] } },
{ "type": "Feature", "properties": { "内容": "株式会社カクイックスウィング　出水サテライト【福祉用具貸与】出水市高尾野町下水流字西永城2119-12", "url": "https://www.kaigokensaku.mhlw.go.jp/46/index.php?action_kouhyou_detail_004_kani=true&JigyosyoCd=4670800533-00&ServiceCd=170&Type=search", "url2": "http://www.kakuix‐wing.com" }, "geometry": { "type": "Point", "coordinates": [ 130.296066476474039, 32.094169148568483 ] } },
{ "type": "Feature", "properties": { "内容": "有限会社　岡村商店福祉用具事業部【福祉用具貸与】湊1丁目6番5号", "url": "https://www.kaigokensaku.mhlw.go.jp/46/index.php?action_kouhyou_detail_004_kani=true&JigyosyoCd=4671000125-00&ServiceCd=170&Type=search", "url2": null }, "geometry": { "type": "Point", "coordinates": [ 130.642909838378131, 31.238278442591259 ] } },
{ "type": "Feature", "properties": { "内容": "有限会社　義福【福祉用具貸与】鹿児島県西之表市西之表7765-3", "url": "https://www.kaigokensaku.mhlw.go.jp/46/index.php?action_kouhyou_detail_004_kani=true&JigyosyoCd=4671300533-00&ServiceCd=170&Type=search", "url2": null }, "geometry": { "type": "Point", "coordinates": [ 131.002883849073783, 30.738514439963357 ] } },
{ "type": "Feature", "properties": { "内容": "株式会社リプラス工房【福祉用具貸与】鹿児島県薩摩川内市平佐町3300番地1", "url": "https://www.kaigokensaku.mhlw.go.jp/46/index.php?action_kouhyou_detail_004_kani=true&JigyosyoCd=4671501015-00&ServiceCd=170&Type=search", "url2": "https://repluskoubou.tkc.best-hp.jp/" }, "geometry": { "type": "Point", "coordinates": [ 130.3161608, 31.8204484 ] } },
{ "type": "Feature", "properties": { "内容": "合同会社アンカー【福祉用具貸与】鹿児島県薩摩川内市樋脇町塔之原13432-1", "url": "https://www.kaigokensaku.mhlw.go.jp/46/index.php?action_kouhyou_detail_004_kani=true&JigyosyoCd=4671501171-00&ServiceCd=170&Type=search", "url2": null }, "geometry": { "type": "Point", "coordinates": [ 130.4219641, 31.8102927 ] } },
{ "type": "Feature", "properties": { "内容": "有限会社　南州メディカル　川内店【福祉用具貸与】中郷2丁目6番16号", "url": "https://www.kaigokensaku.mhlw.go.jp/46/index.php?action_kouhyou_detail_004_kani=true&JigyosyoCd=4671500694-00&ServiceCd=170&Type=search", "url2": "https://nansyu-m.co.jp/" }, "geometry": { "type": "Point", "coordinates": [ 130.3097517, 31.8333821 ] } },
{ "type": "Feature", "properties": { "内容": "株式会社　サポート・ケア【福祉用具貸与】隈之城町138-1", "url": "https://www.kaigokensaku.mhlw.go.jp/46/index.php?action_kouhyou_detail_004_kani=true&JigyosyoCd=4671500405-00&ServiceCd=170&Type=search", "url2": null }, "geometry": { "type": "Point", "coordinates": [ 130.30612806411213, 31.799064450021334 ] } },
{ "type": "Feature", "properties": { "内容": "株式会社タクマ建設　北薩営業所【福祉用具貸与】鹿児島県薩摩川内市永利町字中牟田1858-1パワーランド川内　内", "url": "https://www.kaigokensaku.mhlw.go.jp/46/index.php?action_kouhyou_detail_004_kani=true&JigyosyoCd=4670200684-00&ServiceCd=170&Type=search", "url2": "http://www.e-takuma.jp/" }, "geometry": { "type": "Point", "coordinates": [ 130.338321225636122, 31.809165575662576 ] } },
{ "type": "Feature", "properties": { "内容": "株式会社カクイックスウィング　川内営業所【福祉用具貸与】鹿児島県薩摩川内市永利町字中牟田1858番地1", "url": "https://www.kaigokensaku.mhlw.go.jp/46/index.php?action_kouhyou_detail_004_kani=true&JigyosyoCd=4670200437-00&ServiceCd=170&Type=search", "url2": "http://www.kakuix-wing.com" }, "geometry": { "type": "Point", "coordinates": [ 130.337857144223193, 31.808813609604972 ] } },
{ "type": "Feature", "properties": { "内容": "ダスキンヘルスレント薩摩ステーション【福祉用具貸与】伊集院町麦生田72-1", "url": "https://www.kaigokensaku.mhlw.go.jp/46/index.php?action_kouhyou_detail_004_kani=true&JigyosyoCd=4671500751-00&ServiceCd=170&Type=search", "url2": "https://healthrent.duskin.jp/" }, "geometry": { "type": "Point", "coordinates": [ 130.41968616627048, 31.646867766563417 ] } },
{ "type": "Feature", "properties": { "内容": "有限会社　南州メディカル　日置店【福祉用具貸与】日置市伊集院町徳重3丁目5-2イースタンハイツ102", "url": "https://www.kaigokensaku.mhlw.go.jp/46/index.php?action_kouhyou_detail_004_kani=true&JigyosyoCd=4672900174-00&ServiceCd=170&Type=search", "url2": "https://nansyu-m.co.jp/" }, "geometry": { "type": "Point", "coordinates": [ 130.397903119420903, 31.631782050764745 ] } },
{ "type": "Feature", "properties": { "内容": "株式会社　カクイックスウィング　曽於サテライト【福祉用具貸与】曽於市末吉町岩崎８３６番地１", "url": "https://www.kaigokensaku.mhlw.go.jp/46/index.php?action_kouhyou_detail_004_kani=true&JigyosyoCd=4676600192-00&ServiceCd=170&Type=search", "url2": "http://www.kakuix-wing.com/blog/" }, "geometry": { "type": "Point", "coordinates": [ 130.991470129631495, 31.602125977244739 ] } },
{ "type": "Feature", "properties": { "内容": "株式会社エスワイ　福祉・介護用品アスター【福祉用具貸与】隼人町小田928-1", "url": "https://www.kaigokensaku.mhlw.go.jp/46/index.php?action_kouhyou_detail_004_kani=true&JigyosyoCd=4671201368-00&ServiceCd=170&Type=search", "url2": "http://hp.kaipoke.biz/h1r/" }, "geometry": { "type": "Point", "coordinates": [ 130.720446714566719, 31.740369359268072 ] } },
{ "type": "Feature", "properties": { "内容": "有限会社　南州メディカル　隼人店【福祉用具貸与】霧島市隼人町内山田2丁目17番2号", "url": "https://www.kaigokensaku.mhlw.go.jp/46/index.php?action_kouhyou_detail_004_kani=true&JigyosyoCd=4671200717-00&ServiceCd=170&Type=search", "url2": "https://nansyu-m.co.jp/" }, "geometry": { "type": "Point", "coordinates": [ 130.741804900000034, 31.7467007 ] } },
{ "type": "Feature", "properties": { "内容": "株式会社カクイックスウィング国分営業所【福祉用具貸与】霧島市国分中央4-2705-1", "url": "https://www.kaigokensaku.mhlw.go.jp/46/index.php?action_kouhyou_detail_004_kani=true&JigyosyoCd=4671200287-00&ServiceCd=170&Type=search", "url2": "https://www.kakuix-wing.com" }, "geometry": { "type": "Point", "coordinates": [ 130.775204799999983, 31.735916 ] } },
{ "type": "Feature", "properties": { "内容": "有限会社三井・メディックス　国分営業所【福祉用具貸与】霧島市国分清水1丁目14番17号", "url": "https://www.kaigokensaku.mhlw.go.jp/46/index.php?action_kouhyou_detail_004_kani=true&JigyosyoCd=4671201558-00&ServiceCd=170&Type=search", "url2": "http.//mitsui-medix.co.jp/" }, "geometry": { "type": "Point", "coordinates": [ 130.77216569999996, 31.747851 ] } },
{ "type": "Feature", "properties": { "内容": "ライフケア　まごころ【福祉用具貸与】鹿児島県霧島市牧園町高千穂3864番地株式会社堀之内建設", "url": "https://www.kaigokensaku.mhlw.go.jp/46/index.php?action_kouhyou_detail_004_kani=true&JigyosyoCd=4671201442-00&ServiceCd=170&Type=search", "url2": "horiken-magokoro.co.jp" }, "geometry": { "type": "Point", "coordinates": [ 130.816283255242752, 31.885103413919342 ] } },
{ "type": "Feature", "properties": { "内容": "有限会社安栄【福祉用具貸与】御倉町90番地1", "url": "https://www.kaigokensaku.mhlw.go.jp/46/index.php?action_kouhyou_detail_004_kani=true&JigyosyoCd=4670500141-00&ServiceCd=170&Type=search", "url2": "http://hp.kaipoke.biz/cbv/" }, "geometry": { "type": "Point", "coordinates": [ 130.268054809014529, 31.713726938357478 ] } },
{ "type": "Feature", "properties": { "内容": "株式会社カクイックスウィング　南さつまオフィス【福祉用具貸与】鹿児島県南さつま市加世田村原1丁目5-5", "url": "https://www.kaigokensaku.mhlw.go.jp/46/index.php?action_kouhyou_detail_004_kani=true&JigyosyoCd=4671100461-00&ServiceCd=170&Type=search", "url2": "http://www.kakuix-wing.com" }, "geometry": { "type": "Point", "coordinates": [ 130.328415100000029, 31.4208171 ] } },
{ "type": "Feature", "properties": { "内容": "有限会社カインドケア　鶴【福祉用具貸与】南さつま市加世田本町４２番地8和光ビル　1F", "url": "https://www.kaigokensaku.mhlw.go.jp/46/index.php?action_kouhyou_detail_004_kani=true&JigyosyoCd=4671100222-00&ServiceCd=170&Type=search", "url2": "Ｅ-ｍａｉＩ：kindcaretsuru@peace.ocn.ne.jp" }, "geometry": { "type": "Point", "coordinates": [ 130.3193331, 31.41579 ] } },
{ "type": "Feature", "properties": { "内容": "福祉エンジニアリング有限会社【福祉用具貸与】鹿児島県奄美市名瀬長浜町10番11号", "url": "https://www.kaigokensaku.mhlw.go.jp/46/index.php?action_kouhyou_detail_004_kani=true&JigyosyoCd=4670700626-00&ServiceCd=170&Type=search", "url2": null }, "geometry": { "type": "Point", "coordinates": [ 129.495210713491844, 28.39290504178193 ] } },
{ "type": "Feature", "properties": { "内容": "有限会社　優喜【福祉用具貸与】鹿児島県奄美市名瀬小浜町18番24号", "url": "https://www.kaigokensaku.mhlw.go.jp/46/index.php?action_kouhyou_detail_004_kani=true&JigyosyoCd=4670700501-00&ServiceCd=170&Type=search", "url2": "http://hp.kaipoke.biz/yt8/" }, "geometry": { "type": "Point", "coordinates": [ 129.504656100000034, 28.384417 ] } },
{ "type": "Feature", "properties": { "内容": "株式会社カクイックスウィング名瀬営業所【福祉用具貸与】名瀬小浜町30-6", "url": "https://www.kaigokensaku.mhlw.go.jp/46/index.php?action_kouhyou_detail_004_kani=true&JigyosyoCd=4670700303-00&ServiceCd=170&Type=search", "url2": "https://www.kakuix-wing.com" }, "geometry": { "type": "Point", "coordinates": [ 129.501612, 28.3839281 ] } },
{ "type": "Feature", "properties": { "内容": "株式会社ピース【福祉用具貸与】鹿児島県奄美市名瀬仲勝町1番地23コーポさくら", "url": "https://www.kaigokensaku.mhlw.go.jp/46/index.php?action_kouhyou_detail_004_kani=true&JigyosyoCd=4670701236-00&ServiceCd=170&Type=search", "url2": null }, "geometry": { "type": "Point", "coordinates": [ 129.527945300000056, 28.3893447 ] } },
{ "type": "Feature", "properties": { "内容": "有限会社　ケアリンク【福祉用具貸与】南九州市川辺町平山5992番地1", "url": "https://www.kaigokensaku.mhlw.go.jp/46/index.php?action_kouhyou_detail_004_kani=true&JigyosyoCd=4672700111-00&ServiceCd=170&Type=search", "url2": null }, "geometry": { "type": "Point", "coordinates": [ 130.396246799999972, 31.3896146 ] } },
{ "type": "Feature", "properties": { "内容": "株式会社　システム建築鹿児島【福祉用具貸与】鹿児島県伊佐市大口堂崎527番地2", "url": "https://www.kaigokensaku.mhlw.go.jp/46/index.php?action_kouhyou_detail_004_kani=true&JigyosyoCd=4674400215-00&ServiceCd=170&Type=search", "url2": "http://sys-ken.jp/" }, "geometry": { "type": "Point", "coordinates": [ 130.59593327063908, 32.033633361322877 ] } },
{ "type": "Feature", "properties": { "内容": "株式会社ＨＡＲＵ【福祉用具貸与】鹿児島県姶良市加治木町新生町522", "url": "https://www.kaigokensaku.mhlw.go.jp/46/index.php?action_kouhyou_detail_004_kani=true&JigyosyoCd=4674500618-00&ServiceCd=170&Type=search", "url2": null }, "geometry": { "type": "Point", "coordinates": [ 130.652305599999977, 31.7379268 ] } },
{ "type": "Feature", "properties": { "内容": "有限会社　南州メディカル　姶良店【福祉用具貸与】鹿児島県姶良市東餅田626番地", "url": "https://www.kaigokensaku.mhlw.go.jp/46/index.php?action_kouhyou_detail_004_kani=true&JigyosyoCd=4674500931-00&ServiceCd=170&Type=search", "url2": "https://nansyu-m.co.jp/" }, "geometry": { "type": "Point", "coordinates": [ 130.632818592229768, 31.738187642828155 ] } },
{ "type": "Feature", "properties": { "内容": "有限会社キュウケンメディカル【福祉用具貸与】鹿児島県姶良市脇元728番地69", "url": "https://www.kaigokensaku.mhlw.go.jp/46/index.php?action_kouhyou_detail_004_kani=true&JigyosyoCd=4675300190-00&ServiceCd=170&Type=search", "url2": null }, "geometry": { "type": "Point", "coordinates": [ 130.617974539459112, 31.713749888142519 ] } },
{ "type": "Feature", "properties": { "内容": "株式会社カクイックスウィング姶良オフィス【福祉用具貸与】鹿児島県姶良市東餅田2310-25", "url": "https://www.kaigokensaku.mhlw.go.jp/46/index.php?action_kouhyou_detail_004_kani=true&JigyosyoCd=4674500774-00&ServiceCd=170&Type=search", "url2": "https://www.kakuix-wing.com" }, "geometry": { "type": "Point", "coordinates": [ 130.623043, 31.720252 ] } },
{ "type": "Feature", "properties": { "内容": "有限会社平成メディカル　あいら営業所【福祉用具貸与】鹿児島県姶良市加治木町本町147-3", "url": "https://www.kaigokensaku.mhlw.go.jp/46/index.php?action_kouhyou_detail_004_kani=true&JigyosyoCd=4674500964-00&ServiceCd=170&Type=search", "url2": "https://heisei-m.com/" }, "geometry": { "type": "Point", "coordinates": [ 130.667042400000014, 31.7370573 ] } },
{ "type": "Feature", "properties": { "内容": "QCC姶良【福祉用具貸与】鹿児島県姶良市東餅田1749番地", "url": "https://www.kaigokensaku.mhlw.go.jp/46/index.php?action_kouhyou_detail_004_kani=true&JigyosyoCd=4674500733-00&ServiceCd=170&Type=search", "url2": "https://www.facebook.com/libertywellnesshhc/" }, "geometry": { "type": "Point", "coordinates": [ 130.635971199999972, 31.7328962 ] } },
{ "type": "Feature", "properties": { "内容": "株式会社エミング鹿児島支店【福祉用具貸与】鹿児島県姶良市加治木町仮屋町8", "url": "https://www.kaigokensaku.mhlw.go.jp/46/index.php?action_kouhyou_detail_004_kani=true&JigyosyoCd=4674500535-00&ServiceCd=170&Type=search", "url2": null }, "geometry": { "type": "Point", "coordinates": [ 130.662851297424595, 31.739633024311534 ] } },
{ "type": "Feature", "properties": { "内容": "ケアショップmik【福祉用具貸与】鹿児島県姶良市平松4636-4", "url": "https://www.kaigokensaku.mhlw.go.jp/46/index.php?action_kouhyou_detail_004_kani=true&JigyosyoCd=4674501012-00&ServiceCd=170&Type=search", "url2": null }, "geometry": { "type": "Point", "coordinates": [ 130.6063627, 31.7146761 ] } },
{ "type": "Feature", "properties": { "内容": "福祉用具貸与事業所北薩ネットワーク【福祉用具貸与】鹿児島県薩摩郡さつま町宮之城屋地2818", "url": "https://www.kaigokensaku.mhlw.go.jp/46/index.php?action_kouhyou_detail_004_kani=true&JigyosyoCd=4673900298-00&ServiceCd=170&Type=search", "url2": null }, "geometry": { "type": "Point", "coordinates": [ 130.459628699999939, 31.9102311 ] } },
{ "type": "Feature", "properties": { "内容": "愛ケアサービス【福祉用具貸与】鹿児島県肝属郡肝付町前田918番地", "url": "https://www.kaigokensaku.mhlw.go.jp/46/index.php?action_kouhyou_detail_004_kani=true&JigyosyoCd=4677300412-00&ServiceCd=170&Type=search", "url2": null }, "geometry": { "type": "Point", "coordinates": [ 130.943916, 31.3491661 ] } },
{ "type": "Feature", "properties": { "内容": "株式会社　東宏【福祉用具貸与】熊毛郡中種子町野間6054鉄骨平屋建", "url": "https://www.kaigokensaku.mhlw.go.jp/46/index.php?action_kouhyou_detail_004_kani=true&JigyosyoCd=4678000110-00&ServiceCd=170&Type=search", "url2": "toukou@flute.ocn.ne.jp" }, "geometry": { "type": "Point", "coordinates": [ 130.961027599999966, 30.5300032 ] } },
{ "type": "Feature", "properties": { "内容": "株式会社イオレ　ゆうあいサービス【福祉用具貸与】鹿児島県熊毛郡中種子町野間5172番地3", "url": "https://www.kaigokensaku.mhlw.go.jp/46/index.php?action_kouhyou_detail_004_kani=true&JigyosyoCd=4678000300-00&ServiceCd=170&Type=search", "url2": null }, "geometry": { "type": "Point", "coordinates": [ 130.959408601713562, 30.534794316180808 ] } },
{ "type": "Feature", "properties": { "内容": "社会福祉法人　南種子町社会福祉協議会　指定福祉用具貸与事業所【福祉用具貸与】鹿児島県熊毛郡南種子町中之上2283番地南種子町福祉センター", "url": "https://www.kaigokensaku.mhlw.go.jp/46/index.php?action_kouhyou_detail_004_kani=true&JigyosyoCd=4678100092-00&ServiceCd=170&Type=search", "url2": "http://minamitaneshakyo.sakura.ne.jp" }, "geometry": { "type": "Point", "coordinates": [ 130.903534799999989, 30.413332299999979 ] } },
{ "type": "Feature", "properties": { "内容": "株式会社カクイックスウィング屋久島オフィス【福祉用具貸与】鹿児島県熊毛郡屋久島町安房788-111", "url": "https://www.kaigokensaku.mhlw.go.jp/46/index.php?action_kouhyou_detail_004_kani=true&JigyosyoCd=4678200298-00&ServiceCd=170&Type=search", "url2": "https://www.kakuix-wing.com" }, "geometry": { "type": "Point", "coordinates": [ 130.658183399999984, 30.3265197 ] } },
{ "type": "Feature", "properties": { "内容": "ケアケア【福祉用具貸与】鹿児島県大島郡瀬戸内町古仁屋1115-14", "url": "https://www.kaigokensaku.mhlw.go.jp/46/index.php?action_kouhyou_detail_004_kani=true&JigyosyoCd=4678600323-00&ServiceCd=170&Type=search", "url2": null }, "geometry": { "type": "Point", "coordinates": [ 129.318598652639793, 28.141866159759473 ] } },
{ "type": "Feature", "properties": { "内容": "ムッタ福祉用具【福祉用具貸与】鹿児島県大島郡龍郷町瀬留921-6", "url": "https://www.kaigokensaku.mhlw.go.jp/46/index.php?action_kouhyou_detail_004_kani=true&JigyosyoCd=4678800311-00&ServiceCd=170&Type=search", "url2": null }, "geometry": { "type": "Point", "coordinates": [ 129.586617168106613, 28.414856576484905 ] } },
{ "type": "Feature", "properties": { "内容": "社会福祉法人　喜界町社会福祉協議会　福祉用具貸与事業所【福祉用具貸与】大島郡喜界町赤連22番地", "url": "https://www.kaigokensaku.mhlw.go.jp/46/index.php?action_kouhyou_detail_004_kani=true&JigyosyoCd=4679000135-00&ServiceCd=170&Type=search", "url2": "http://kikai-shakyo.org/" }, "geometry": { "type": "Point", "coordinates": [ 129.941840100000036, 28.318122 ] } },
{ "type": "Feature", "properties": { "内容": "介護用品館　楽走【福祉用具貸与】大島郡徳之島町亀津7469", "url": "https://www.kaigokensaku.mhlw.go.jp/46/index.php?action_kouhyou_detail_004_kani=true&JigyosyoCd=4679100216-00&ServiceCd=170&Type=search", "url2": null }, "geometry": { "type": "Point", "coordinates": [ 129.020078672361933, 27.732740790528847 ] } },
{ "type": "Feature", "properties": { "内容": "株式会社　カクイックスウィング　徳之島サテライト【福祉用具貸与】大島郡徳之島町亀津7490", "url": "https://www.kaigokensaku.mhlw.go.jp/46/index.php?action_kouhyou_detail_004_kani=true&JigyosyoCd=4679100208-00&ServiceCd=170&Type=search", "url2": "http://www.kakuix.com" }, "geometry": { "type": "Point", "coordinates": [ 129.020804399999946, 27.7325946 ] } },
{ "type": "Feature", "properties": { "内容": "株式会社きゅらしま館【福祉用具貸与】鹿児島県大島郡天城町平土野20-5", "url": "https://www.kaigokensaku.mhlw.go.jp/46/index.php?action_kouhyou_detail_004_kani=true&JigyosyoCd=4679200073-00&ServiceCd=170&Type=search", "url2": "https://www.kyurashimakan.co.jp/" }, "geometry": { "type": "Point", "coordinates": [ 128.895238791995979, 27.810924272090158 ] } },
{ "type": "Feature", "properties": { "内容": "南和株式会社【福祉用具貸与】鹿児島県大島郡伊仙町大字面縄2025-1", "url": "https://www.kaigokensaku.mhlw.go.jp/46/index.php?action_kouhyou_detail_004_kani=true&JigyosyoCd=4679300154-00&ServiceCd=170&Type=search", "url2": null }, "geometry": { "type": "Point", "coordinates": [ 128.97176479999996, 27.6759542 ] } },
{ "type": "Feature", "properties": { "内容": "有限会社ダイユウ【福祉用具貸与】鹿児島県大島郡与論町立長2874-3", "url": "https://www.kaigokensaku.mhlw.go.jp/46/index.php?action_kouhyou_detail_004_kani=true&JigyosyoCd=4679600090-00&ServiceCd=170&Type=search", "url2": "http://daiyuu.net/" }, "geometry": { "type": "Point", "coordinates": [ 128.425475971163934, 27.02771029367598 ] } }
]
}
