{
"type": "FeatureCollection",
"name": "geo_46_幼保連携型認定こども園",
"crs": { "type": "name", "properties": { "name": "urn:ogc:def:crs:EPSG::6668" } },
"features": [
{ "type": "Feature", "properties": { "P29_001": "46534", "P29_002": "A246210000025", "P29_003": "16013", "P29_004": "認定こども園きらきら", "P29_005": "鹿児島県大島郡知名町田皆1655", "P29_006": "3", "P29_007": "0", "P29_008": "00", "P29_009": null }, "geometry": { "type": "Point", "coordinates": [ 128.543492001728936, 27.387043000282731 ] } },
{ "type": "Feature", "properties": { "P29_001": "46534", "P29_002": "A246210000034", "P29_003": "16013", "P29_004": "認定こども園すまいる", "P29_005": "鹿児島県大島郡知名町瀬利覚546-1", "P29_006": "3", "P29_007": "0", "P29_008": "00", "P29_009": null }, "geometry": { "type": "Point", "coordinates": [ 128.582671615396123, 27.340779646567672 ] } },
{ "type": "Feature", "properties": { "P29_001": "46201", "P29_002": "A246310000014", "P29_003": "16013", "P29_004": "幼保連携型認定こども園　鴨池幼稚園", "P29_005": "鹿児島県鹿児島市郡元3-8-5", "P29_006": "4", "P29_007": "0", "P29_008": "00", "P29_009": null }, "geometry": { "type": "Point", "coordinates": [ 130.547903285338265, 31.560379166158111 ] } },
{ "type": "Feature", "properties": { "P29_001": "46201", "P29_002": "A246310000023", "P29_003": "16013", "P29_004": "幼保連携型認定こども園　草牟田幼稚園", "P29_005": "鹿児島県鹿児島市草牟田2-20-15", "P29_006": "4", "P29_007": "0", "P29_008": "00", "P29_009": null }, "geometry": { "type": "Point", "coordinates": [ 130.539953917918041, 31.602890473989991 ] } },
{ "type": "Feature", "properties": { "P29_001": "46201", "P29_002": "A246310000032", "P29_003": "16013", "P29_004": "幼保連携型認定こども園　みのり幼稚園", "P29_005": "鹿児島県鹿児島市明和1-39-1", "P29_006": "4", "P29_007": "0", "P29_008": "00", "P29_009": null }, "geometry": { "type": "Point", "coordinates": [ 130.524477600931903, 31.601261419739192 ] } },
{ "type": "Feature", "properties": { "P29_001": "46201", "P29_002": "A246310000041", "P29_003": "16013", "P29_004": "認定こども園清谿幼稚園", "P29_005": "鹿児島県鹿児島市谷山中央1-4360", "P29_006": "4", "P29_007": "0", "P29_008": "00", "P29_009": null }, "geometry": { "type": "Point", "coordinates": [ 130.517843496502678, 31.523965796944779 ] } },
{ "type": "Feature", "properties": { "P29_001": "46201", "P29_002": "A246310000050", "P29_003": "16013", "P29_004": "認定こども園　あけぼの幼稚園", "P29_005": "鹿児島県鹿児島市小野4-4-31", "P29_006": "4", "P29_007": "0", "P29_008": "00", "P29_009": null }, "geometry": { "type": "Point", "coordinates": [ 130.524668728385052, 31.610541727797422 ] } },
{ "type": "Feature", "properties": { "P29_001": "46201", "P29_002": "A246310000069", "P29_003": "16013", "P29_004": "幼保連携型認定こども園　玉里善き牧者幼稚園", "P29_005": "鹿児島県鹿児島市草牟田2-29-7", "P29_006": "4", "P29_007": "0", "P29_008": "00", "P29_009": null }, "geometry": { "type": "Point", "coordinates": [ 130.538270163359613, 31.60695322980304 ] } },
{ "type": "Feature", "properties": { "P29_001": "46201", "P29_002": "A246310000078", "P29_003": "16013", "P29_004": "幼保連携型認定こども園　谷山善き牧者幼稚園", "P29_005": "鹿児島県鹿児島市西谷山1-1-1", "P29_006": "4", "P29_007": "0", "P29_008": "00", "P29_009": null }, "geometry": { "type": "Point", "coordinates": [ 130.509339392634502, 31.526756111485515 ] } },
{ "type": "Feature", "properties": { "P29_001": "46201", "P29_002": "A246310000087", "P29_003": "16013", "P29_004": "認定こども園　紫原幼稚園", "P29_005": "鹿児島県鹿児島市紫原6-40-4", "P29_006": "4", "P29_007": "0", "P29_008": "00", "P29_009": null }, "geometry": { "type": "Point", "coordinates": [ 130.527832665527114, 31.565083864370969 ] } },
{ "type": "Feature", "properties": { "P29_001": "46201", "P29_002": "A246310000096", "P29_003": "16013", "P29_004": "こばと・ゆなの木こども園", "P29_005": "鹿児島県鹿児島市大明丘3-14-1", "P29_006": "4", "P29_007": "0", "P29_008": "00", "P29_009": null }, "geometry": { "type": "Point", "coordinates": [ 130.566305818489923, 31.631411422645087 ] } },
{ "type": "Feature", "properties": { "P29_001": "46201", "P29_002": "A246310000103", "P29_003": "16013", "P29_004": "認定こども園はなぶさ幼稚園", "P29_005": "鹿児島県鹿児島市緑ヶ丘町13-1", "P29_006": "4", "P29_007": "0", "P29_008": "00", "P29_009": null }, "geometry": { "type": "Point", "coordinates": [ 130.547141020015886, 31.656821136253473 ] } },
{ "type": "Feature", "properties": { "P29_001": "46201", "P29_002": "A246310000112", "P29_003": "16013", "P29_004": "伊敷幼稚園", "P29_005": "鹿児島県鹿児島市伊敷5-19-20", "P29_006": "4", "P29_007": "0", "P29_008": "00", "P29_009": null }, "geometry": { "type": "Point", "coordinates": [ 130.527176998942707, 31.626554995572569 ] } },
{ "type": "Feature", "properties": { "P29_001": "46201", "P29_002": "A246310000121", "P29_003": "16013", "P29_004": "幼保連携型認定こども園うちの幼稚園", "P29_005": "鹿児島県鹿児島市玉里団地1-5-3", "P29_006": "4", "P29_007": "0", "P29_008": "00", "P29_009": null }, "geometry": { "type": "Point", "coordinates": [ 130.545132448653277, 31.618803287591582 ] } },
{ "type": "Feature", "properties": { "P29_001": "46201", "P29_002": "A246310000130", "P29_003": "16013", "P29_004": "認定こども園　桜ヶ丘中央幼稚園", "P29_005": "鹿児島県鹿児島市桜ヶ丘4-8-2", "P29_006": "4", "P29_007": "0", "P29_008": "00", "P29_009": null }, "geometry": { "type": "Point", "coordinates": [ 130.516746921983099, 31.5542117146104 ] } },
{ "type": "Feature", "properties": { "P29_001": "46201", "P29_002": "A246310000149", "P29_003": "16013", "P29_004": "幼保連携型認定こども園　若葉幼稚園", "P29_005": "鹿児島県鹿児島市桜ヶ丘6-30-2", "P29_006": "4", "P29_007": "0", "P29_008": "00", "P29_009": null }, "geometry": { "type": "Point", "coordinates": [ 130.518348869160718, 31.546017313426248 ] } },
{ "type": "Feature", "properties": { "P29_001": "46201", "P29_002": "A246310000158", "P29_003": "16013", "P29_004": "認定こども園武岡幼稚園", "P29_005": "鹿児島県鹿児島市武岡5-26-6", "P29_006": "4", "P29_007": "0", "P29_008": "00", "P29_009": null }, "geometry": { "type": "Point", "coordinates": [ 130.507519002259443, 31.59655800124505 ] } },
{ "type": "Feature", "properties": { "P29_001": "46201", "P29_002": "A246310000167", "P29_003": "16013", "P29_004": "幼保連携型認定こども園　吉田南幼稚園", "P29_005": "鹿児島県鹿児島市本名町543", "P29_006": "4", "P29_007": "0", "P29_008": "00", "P29_009": null }, "geometry": { "type": "Point", "coordinates": [ 130.546813179778894, 31.688820767874127 ] } },
{ "type": "Feature", "properties": { "P29_001": "46201", "P29_002": "A246310000176", "P29_003": "16013", "P29_004": "幼保連携型認定こども園　よしだルンビニー幼稚園", "P29_005": "鹿児島県鹿児島市東佐多町2157-1", "P29_006": "4", "P29_007": "0", "P29_008": "00", "P29_009": null }, "geometry": { "type": "Point", "coordinates": [ 130.576377906757642, 31.734350164808912 ] } },
{ "type": "Feature", "properties": { "P29_001": "46201", "P29_002": "A246310000185", "P29_003": "16013", "P29_004": "認定こども園　鹿児島さくら幼稚園", "P29_005": "鹿児島県鹿児島市桜ヶ丘7-23-5", "P29_006": "4", "P29_007": "0", "P29_008": "00", "P29_009": null }, "geometry": { "type": "Point", "coordinates": [ 130.52429895239564, 31.553435418959669 ] } },
{ "type": "Feature", "properties": { "P29_001": "46201", "P29_002": "A246310000194", "P29_003": "16013", "P29_004": "認定こども園　ヴェリタスこども園", "P29_005": "鹿児島県鹿児島市武岡1-22-1", "P29_006": "4", "P29_007": "0", "P29_008": "00", "P29_009": null }, "geometry": { "type": "Point", "coordinates": [ 130.520655880569819, 31.590632468909991 ] } },
{ "type": "Feature", "properties": { "P29_001": "46201", "P29_002": "A246310000201", "P29_003": "16013", "P29_004": "幼保連携型認定こども園千年幼稚園", "P29_005": "鹿児島県鹿児島市千年1-36-1", "P29_006": "4", "P29_007": "0", "P29_008": "00", "P29_009": null }, "geometry": { "type": "Point", "coordinates": [ 130.524035460874671, 31.639203696347057 ] } },
{ "type": "Feature", "properties": { "P29_001": "46201", "P29_002": "A246310000210", "P29_003": "16013", "P29_004": "かわい認定こども園可愛幼稚園", "P29_005": "鹿児島県鹿児島市下福元町7649", "P29_006": "4", "P29_007": "0", "P29_008": "00", "P29_009": null }, "geometry": { "type": "Point", "coordinates": [ 130.502315174493049, 31.483892889623704 ] } },
{ "type": "Feature", "properties": { "P29_001": "46201", "P29_002": "A246310000229", "P29_003": "16013", "P29_004": "幼保連携型認定こども園　やはた幼稚園", "P29_005": "鹿児島県鹿児島市下荒田4-19-10", "P29_006": "4", "P29_007": "0", "P29_008": "00", "P29_009": null }, "geometry": { "type": "Point", "coordinates": [ 130.556512734200908, 31.570067581235829 ] } },
{ "type": "Feature", "properties": { "P29_001": "46201", "P29_002": "A246310000238", "P29_003": "16013", "P29_004": "幼保連携型認定こども園　めぐみ幼稚園", "P29_005": "鹿児島県鹿児島市鴨池2-23-17", "P29_006": "4", "P29_007": "0", "P29_008": "00", "P29_009": null }, "geometry": { "type": "Point", "coordinates": [ 130.551075686098869, 31.564752545476292 ] } },
{ "type": "Feature", "properties": { "P29_001": "46206", "P29_002": "A246310000247", "P29_003": "16013", "P29_004": "認定こども園　阿久根めぐみこども園", "P29_005": "鹿児島県阿久根市波留5465-1", "P29_006": "4", "P29_007": "0", "P29_008": "00", "P29_009": null }, "geometry": { "type": "Point", "coordinates": [ 130.199112278267592, 32.0132506369672 ] } },
{ "type": "Feature", "properties": { "P29_001": "46206", "P29_002": "A246310000256", "P29_003": "16013", "P29_004": "認定こども園　あくね園", "P29_005": "鹿児島県阿久根市塩浜町1-115", "P29_006": "4", "P29_007": "0", "P29_008": "00", "P29_009": null }, "geometry": { "type": "Point", "coordinates": [ 130.194989942738005, 32.003143911494284 ] } },
{ "type": "Feature", "properties": { "P29_001": "46210", "P29_002": "A246310000265", "P29_003": "16013", "P29_004": "認定こども園　コスモス幼稚園・こすもす保育園", "P29_005": "鹿児島県指宿市十二町2338-6", "P29_006": "4", "P29_007": "0", "P29_008": "00", "P29_009": null }, "geometry": { "type": "Point", "coordinates": [ 130.63601842000466, 31.236540987842336 ] } },
{ "type": "Feature", "properties": { "P29_001": "46213", "P29_002": "A246310000274", "P29_003": "16013", "P29_004": "認定こども園　きりすとこども園", "P29_005": "鹿児島県西之表市鴨女町154", "P29_006": "4", "P29_007": "0", "P29_008": "00", "P29_009": null }, "geometry": { "type": "Point", "coordinates": [ 130.994676221507206, 30.723510967409137 ] } },
{ "type": "Feature", "properties": { "P29_001": "46213", "P29_002": "A246310000283", "P29_003": "16013", "P29_004": "認定こども園　めいろうこども園", "P29_005": "鹿児島県西之表市西之表10050", "P29_006": "4", "P29_007": "0", "P29_008": "00", "P29_009": null }, "geometry": { "type": "Point", "coordinates": [ 131.002305994681819, 30.728142731710687 ] } },
{ "type": "Feature", "properties": { "P29_001": "46215", "P29_002": "A246310000292", "P29_003": "16013", "P29_004": "認定こども園　のぞみ幼稚園", "P29_005": "鹿児島県薩摩川内市大小路町54-16", "P29_006": "4", "P29_007": "0", "P29_008": "00", "P29_009": null }, "geometry": { "type": "Point", "coordinates": [ 130.304700832115941, 31.823760596036994 ] } },
{ "type": "Feature", "properties": { "P29_001": "46215", "P29_002": "A246310000309", "P29_003": "16013", "P29_004": "幼保連携型認定こども園鹿児島純心大学附属純心幼稚園", "P29_005": "鹿児島県薩摩川内市隈之城町1001", "P29_006": "4", "P29_007": "0", "P29_008": "00", "P29_009": null }, "geometry": { "type": "Point", "coordinates": [ 130.30997619371476, 31.801416947885158 ] } },
{ "type": "Feature", "properties": { "P29_001": "46215", "P29_002": "A246310000318", "P29_003": "16013", "P29_004": "認定こども園　青山幼稚園", "P29_005": "鹿児島県薩摩川内市青山町4194", "P29_006": "4", "P29_007": "0", "P29_008": "00", "P29_009": null }, "geometry": { "type": "Point", "coordinates": [ 130.29018681839122, 31.783289386589672 ] } },
{ "type": "Feature", "properties": { "P29_001": "46208", "P29_002": "A246310000327", "P29_003": "16013", "P29_004": "認定こども園慈光幼稚園", "P29_005": "鹿児島県出水市高尾野町柴引2055-1", "P29_006": "4", "P29_007": "0", "P29_008": "00", "P29_009": null }, "geometry": { "type": "Point", "coordinates": [ 130.296287635104335, 32.058798861573656 ] } },
{ "type": "Feature", "properties": { "P29_001": "46224", "P29_002": "A246310000336", "P29_003": "16013", "P29_004": "認定こども園　大口幼稚園", "P29_005": "鹿児島県伊佐市大口里3024-1", "P29_006": "4", "P29_007": "0", "P29_008": "00", "P29_009": null }, "geometry": { "type": "Point", "coordinates": [ 130.610922997125016, 32.061497998560064 ] } },
{ "type": "Feature", "properties": { "P29_001": "46218", "P29_002": "A246310000345", "P29_003": "16013", "P29_004": "日当山総合こども園", "P29_005": "鹿児島県霧島市隼人町東郷1-190", "P29_006": "4", "P29_007": "0", "P29_008": "00", "P29_009": null }, "geometry": { "type": "Point", "coordinates": [ 130.75440135714399, 31.771530428451815 ] } },
{ "type": "Feature", "properties": { "P29_001": "46218", "P29_002": "A246310000354", "P29_003": "16013", "P29_004": "認定こども園　かとれあ", "P29_005": "鹿児島県霧島市国分福島3-21-48", "P29_006": "4", "P29_007": "0", "P29_008": "00", "P29_009": null }, "geometry": { "type": "Point", "coordinates": [ 130.762021751499134, 31.727676286407842 ] } },
{ "type": "Feature", "properties": { "P29_001": "46218", "P29_002": "A246310000363", "P29_003": "16013", "P29_004": "認定こども園　あおば幼稚園", "P29_005": "鹿児島県霧島市国分新町上川原1366", "P29_006": "4", "P29_007": "0", "P29_008": "00", "P29_009": null }, "geometry": { "type": "Point", "coordinates": [ 130.781710325377333, 31.762521949567837 ] } },
{ "type": "Feature", "properties": { "P29_001": "46218", "P29_002": "A246310000372", "P29_003": "16013", "P29_004": "認定こども園　あさひ幼稚園", "P29_005": "鹿児島県霧島市隼人町内1215-11", "P29_006": "4", "P29_007": "0", "P29_008": "00", "P29_009": null }, "geometry": { "type": "Point", "coordinates": [ 130.752828187103461, 31.757828200155114 ] } },
{ "type": "Feature", "properties": { "P29_001": "46218", "P29_002": "A246310000381", "P29_003": "16013", "P29_004": "認定こども園　隼人ひまわりこども園", "P29_005": "鹿児島県霧島市隼人町小田459-2", "P29_006": "4", "P29_007": "0", "P29_008": "00", "P29_009": null }, "geometry": { "type": "Point", "coordinates": [ 130.73029174350259, 31.743507729611132 ] } },
{ "type": "Feature", "properties": { "P29_001": "46225", "P29_002": "A246310000390", "P29_003": "16013", "P29_004": "認定こども園双葉幼稚園", "P29_005": "鹿児島県姶良市加治木町諏訪町53", "P29_006": "4", "P29_007": "0", "P29_008": "00", "P29_009": null }, "geometry": { "type": "Point", "coordinates": [ 130.671545997975358, 31.735859998326337 ] } },
{ "type": "Feature", "properties": { "P29_001": "46225", "P29_002": "A246310000407", "P29_003": "16013", "P29_004": "認定こども園　啓明幼稚園・保育園", "P29_005": "鹿児島県姶良市池島町31-7", "P29_006": "4", "P29_007": "0", "P29_008": "00", "P29_009": null }, "geometry": { "type": "Point", "coordinates": [ 130.612847332584977, 31.718740999007736 ] } },
{ "type": "Feature", "properties": { "P29_001": "46225", "P29_002": "A246310000416", "P29_003": "16013", "P29_004": "幼保連携型エミールこども園", "P29_005": "鹿児島県姶良市西餅田2803", "P29_006": "4", "P29_007": "0", "P29_008": "00", "P29_009": null }, "geometry": { "type": "Point", "coordinates": [ 130.617813022271491, 31.724311455058647 ] } },
{ "type": "Feature", "properties": { "P29_001": "46217", "P29_002": "A246310000425", "P29_003": "16013", "P29_004": "認定こども園　しゃらこども園", "P29_005": "鹿児島県曽於市財部町北俣14", "P29_006": "4", "P29_007": "0", "P29_008": "00", "P29_009": null }, "geometry": { "type": "Point", "coordinates": [ 130.995545501460271, 31.728684742920397 ] } },
{ "type": "Feature", "properties": { "P29_001": "46221", "P29_002": "A246310000434", "P29_003": "16013", "P29_004": "幼保連携型認定こども園しぶし幼稚園", "P29_005": "鹿児島県志布志市志布志町安楽60", "P29_006": "4", "P29_007": "0", "P29_008": "00", "P29_009": null }, "geometry": { "type": "Point", "coordinates": [ 131.087756354311409, 31.470432096292523 ] } },
{ "type": "Feature", "properties": { "P29_001": "46221", "P29_002": "A246310000443", "P29_003": "16013", "P29_004": "幼保連携型認定こども園　カトリック志布志幼稚園", "P29_005": "鹿児島県志布志市志布志町志布志2-17-18", "P29_006": "4", "P29_007": "0", "P29_008": "00", "P29_009": null }, "geometry": { "type": "Point", "coordinates": [ 131.10050186305736, 31.475149621134097 ] } },
{ "type": "Feature", "properties": { "P29_001": "46214", "P29_002": "A246310000452", "P29_003": "16013", "P29_004": "幼保連携型認定子ども園　カトリック垂水幼稚園", "P29_005": "鹿児島県垂水市田神2267", "P29_006": "4", "P29_007": "0", "P29_008": "00", "P29_009": null }, "geometry": { "type": "Point", "coordinates": [ 130.707026880275407, 31.48964172355814 ] } },
{ "type": "Feature", "properties": { "P29_001": "46203", "P29_002": "A246310000461", "P29_003": "16013", "P29_004": "幼保連携型認定こども園　鹿屋カトリック幼稚園", "P29_005": "鹿児島県鹿屋市古前城町14-1", "P29_006": "4", "P29_007": "0", "P29_008": "00", "P29_009": null }, "geometry": { "type": "Point", "coordinates": [ 130.854452050110353, 31.388578609212267 ] } },
{ "type": "Feature", "properties": { "P29_001": "46203", "P29_002": "A246310000470", "P29_003": "16013", "P29_004": "信愛こどもの園", "P29_005": "鹿児島県鹿屋市西原1-28-25", "P29_006": "4", "P29_007": "0", "P29_008": "00", "P29_009": null }, "geometry": { "type": "Point", "coordinates": [ 130.836851741405269, 31.385517948364797 ] } },
{ "type": "Feature", "properties": { "P29_001": "46203", "P29_002": "A246310000489", "P29_003": "16013", "P29_004": "幼保連携型認定こども園　いずみ幼稚園", "P29_005": "鹿児島県鹿屋市吾平町上名6368-2", "P29_006": "4", "P29_007": "0", "P29_008": "00", "P29_009": null }, "geometry": { "type": "Point", "coordinates": [ 130.905121795891034, 31.318497623077253 ] } },
{ "type": "Feature", "properties": { "P29_001": "46404", "P29_002": "A246310000498", "P29_003": "16013", "P29_004": "幼保連携型認定こども園　風の杜こども園", "P29_005": "鹿児島県出水郡長島町川床961", "P29_006": "4", "P29_007": "0", "P29_008": "00", "P29_009": null }, "geometry": { "type": "Point", "coordinates": [ 130.167874338417136, 32.147523173885467 ] } },
{ "type": "Feature", "properties": { "P29_001": "46492", "P29_002": "A246310000504", "P29_003": "16013", "P29_004": "認定こども園おおぞらこども園", "P29_005": "鹿児島県肝属郡肝付町後田9808", "P29_006": "4", "P29_007": "0", "P29_008": "00", "P29_009": null }, "geometry": { "type": "Point", "coordinates": [ 130.921296944099225, 31.352083896091177 ] } },
{ "type": "Feature", "properties": { "P29_001": "46490", "P29_002": "A246310000513", "P29_003": "16013", "P29_004": "幼保連携型認定こども園大根占幼稚園", "P29_005": "鹿児島県肝属郡錦江町城元517-2", "P29_006": "4", "P29_007": "0", "P29_008": "00", "P29_009": null }, "geometry": { "type": "Point", "coordinates": [ 130.788850772212271, 31.246449205748956 ] } },
{ "type": "Feature", "properties": { "P29_001": "46502", "P29_002": "A246310000522", "P29_003": "16013", "P29_004": "中央認定こども園", "P29_005": "鹿児島県熊毛郡南種子町中之上2242", "P29_006": "4", "P29_007": "0", "P29_008": "00", "P29_009": null }, "geometry": { "type": "Point", "coordinates": [ 130.9040249322845, 30.415557145616166 ] } },
{ "type": "Feature", "properties": { "P29_001": "46505", "P29_002": "A246310000531", "P29_003": "16013", "P29_004": "認定こども園　あゆみの森こども園", "P29_005": "鹿児島県熊毛郡屋久島町尾之間332-1", "P29_006": "4", "P29_007": "0", "P29_008": "00", "P29_009": null }, "geometry": { "type": "Point", "coordinates": [ 130.557495144991634, 30.238123183755061 ] } },
{ "type": "Feature", "properties": { "P29_001": "46505", "P29_002": "A246310000540", "P29_003": "16013", "P29_004": "認定こども園　ゆかり幼稚園　どんぐりの森保育園", "P29_005": "鹿児島県熊毛郡屋久島町宮之浦2472-9", "P29_006": "4", "P29_007": "0", "P29_008": "00", "P29_009": null }, "geometry": { "type": "Point", "coordinates": [ 130.584583603960311, 30.413387025477931 ] } },
{ "type": "Feature", "properties": { "P29_001": "46505", "P29_002": "A246310000559", "P29_003": "16013", "P29_004": "認定こども園　すみれ子ども園", "P29_005": "鹿児島県熊毛郡屋久島町安房152-1", "P29_006": "4", "P29_007": "0", "P29_008": "00", "P29_009": null }, "geometry": { "type": "Point", "coordinates": [ 130.65622392711964, 30.315915522856869 ] } },
{ "type": "Feature", "properties": { "P29_001": "46535", "P29_002": "A246310000568", "P29_003": "16013", "P29_004": "認定こども園　ハレルヤこども園", "P29_005": "鹿児島県大島郡与論町茶花2002-1", "P29_006": "4", "P29_007": "0", "P29_008": "00", "P29_009": null }, "geometry": { "type": "Point", "coordinates": [ 128.421187657140763, 27.052933321602858 ] } },
{ "type": "Feature", "properties": { "P29_001": "46203", "P29_002": "A246310000577", "P29_003": "16013", "P29_004": "あいら認定こども園", "P29_005": "鹿児島県鹿屋市吾平町上名7681", "P29_006": "4", "P29_007": "0", "P29_008": "00", "P29_009": null }, "geometry": { "type": "Point", "coordinates": [ 130.897987854760032, 31.327956844407389 ] } },
{ "type": "Feature", "properties": { "P29_001": "46210", "P29_002": "A246310000586", "P29_003": "16013", "P29_004": "つちはしこども学園　本園", "P29_005": "鹿児島県指宿市岩本2808", "P29_006": "4", "P29_007": "0", "P29_008": "00", "P29_009": null }, "geometry": { "type": "Point", "coordinates": [ 130.597046604562223, 31.293002779738405 ] } },
{ "type": "Feature", "properties": { "P29_001": "46218", "P29_002": "A246310000595", "P29_003": "16013", "P29_004": "隼人認定こども園", "P29_005": "鹿児島県霧島市隼人町住吉971-2", "P29_006": "4", "P29_007": "0", "P29_008": "00", "P29_009": null }, "geometry": { "type": "Point", "coordinates": [ 130.741388697704423, 31.730123852272293 ] } },
{ "type": "Feature", "properties": { "P29_001": "46218", "P29_002": "A246310000602", "P29_003": "16013", "P29_004": "認定こども園新光こども園", "P29_005": "鹿児島県霧島市国分新町1-17-3", "P29_006": "4", "P29_007": "0", "P29_008": "00", "P29_009": null }, "geometry": { "type": "Point", "coordinates": [ 130.759377015970074, 31.750325523066305 ] } },
{ "type": "Feature", "properties": { "P29_001": "46218", "P29_002": "A246310000611", "P29_003": "16013", "P29_004": "牧之原認定こども園（本園）", "P29_005": "鹿児島県霧島市福山町福山4930-2", "P29_006": "4", "P29_007": "0", "P29_008": "00", "P29_009": null }, "geometry": { "type": "Point", "coordinates": [ 130.864497841294195, 31.668165993608952 ] } },
{ "type": "Feature", "properties": { "P29_001": "46218", "P29_002": "A246310000620", "P29_003": "16013", "P29_004": "心悦認定こども園", "P29_005": "鹿児島県霧島市溝辺町崎森2705-3", "P29_006": "4", "P29_007": "0", "P29_008": "00", "P29_009": null }, "geometry": { "type": "Point", "coordinates": [ 130.704093616015797, 31.779553103128588 ] } },
{ "type": "Feature", "properties": { "P29_001": "46218", "P29_002": "A246310000639", "P29_003": "16013", "P29_004": "認定こども園　まいづるこども園", "P29_005": "鹿児島県霧島市国分上小川693-1", "P29_006": "4", "P29_007": "0", "P29_008": "00", "P29_009": null }, "geometry": { "type": "Point", "coordinates": [ 130.7665091729518, 31.725362578273486 ] } },
{ "type": "Feature", "properties": { "P29_001": "46215", "P29_002": "A246310000648", "P29_003": "16013", "P29_004": "認定こども園　せんだい幼稚園", "P29_005": "鹿児島県薩摩川内市平佐町3590-2", "P29_006": "4", "P29_007": "0", "P29_008": "00", "P29_009": null }, "geometry": { "type": "Point", "coordinates": [ 130.318028457309225, 31.823396082400073 ] } },
{ "type": "Feature", "properties": { "P29_001": "46210", "P29_002": "A246310000657", "P29_003": "16013", "P29_004": "認定こども園　たいせいこども園", "P29_005": "鹿児島県指宿市山川小川649-1", "P29_006": "4", "P29_007": "0", "P29_008": "00", "P29_009": null }, "geometry": { "type": "Point", "coordinates": [ 130.600473229931112, 31.205196490985468 ] } },
{ "type": "Feature", "properties": { "P29_001": "46215", "P29_002": "A246310000666", "P29_003": "16013", "P29_004": "認定こども園びぼあ", "P29_005": "鹿児島県薩摩川内市入来町副田6046-25", "P29_006": "4", "P29_007": "0", "P29_008": "00", "P29_009": null }, "geometry": { "type": "Point", "coordinates": [ 130.433450870896451, 31.819770309448 ] } },
{ "type": "Feature", "properties": { "P29_001": "46203", "P29_002": "A246310000675", "P29_003": "16013", "P29_004": "認定こども園二葉保育園", "P29_005": "鹿児島県鹿屋市上谷町11657-3", "P29_006": "4", "P29_007": "0", "P29_008": "00", "P29_009": null }, "geometry": { "type": "Point", "coordinates": [ 130.836357021785204, 31.393790223144631 ] } },
{ "type": "Feature", "properties": { "P29_001": "46216", "P29_002": "A246310000684", "P29_003": "16013", "P29_004": "幼保連携型認定こども園　妙円寺こども園", "P29_005": "鹿児島県日置市伊集院町妙円寺2-72-2", "P29_006": "4", "P29_007": "0", "P29_008": "00", "P29_009": null }, "geometry": { "type": "Point", "coordinates": [ 130.391237479477439, 31.643841764736919 ] } },
{ "type": "Feature", "properties": { "P29_001": "46210", "P29_002": "A246310000693", "P29_003": "16013", "P29_004": "つちはしこども学園　分園　花のおさなご園", "P29_005": "鹿児島県指宿市十町151-5", "P29_006": "4", "P29_007": "0", "P29_008": "00", "P29_009": null }, "geometry": { "type": "Point", "coordinates": [ 130.62918402480733, 31.254729572811595 ] } },
{ "type": "Feature", "properties": { "P29_001": "46218", "P29_002": "A246310000700", "P29_003": "16013", "P29_004": "湊認定こども園　（牧之原認定こども園分園）", "P29_005": "鹿児島県霧島市国分上井230", "P29_006": "4", "P29_007": "0", "P29_008": "00", "P29_009": null }, "geometry": { "type": "Point", "coordinates": [ 130.782207990649027, 31.723138507605011 ] } },
{ "type": "Feature", "properties": { "P29_001": "46201", "P29_002": "A246310000719", "P29_003": "16013", "P29_004": "幼保連携型認定こども園鹿児島おおとり幼稚園", "P29_005": "鹿児島県鹿児島市武岡4-16-1", "P29_006": "4", "P29_007": "0", "P29_008": "00", "P29_009": null }, "geometry": { "type": "Point", "coordinates": [ 130.512705502588005, 31.595101136545281 ] } },
{ "type": "Feature", "properties": { "P29_001": "46201", "P29_002": "A246310000728", "P29_003": "16013", "P29_004": "認定こども園さかもと幼稚園", "P29_005": "鹿児島県鹿児島市西坂元町57-23", "P29_006": "4", "P29_007": "0", "P29_008": "00", "P29_009": null }, "geometry": { "type": "Point", "coordinates": [ 130.553204553262788, 31.613304579635926 ] } },
{ "type": "Feature", "properties": { "P29_001": "46201", "P29_002": "A246310000737", "P29_003": "16013", "P29_004": "認定こども園辻ケ丘幼稚園", "P29_005": "鹿児島県鹿児島市東坂元2-39-1", "P29_006": "4", "P29_007": "0", "P29_008": "00", "P29_009": null }, "geometry": { "type": "Point", "coordinates": [ 130.555426373740545, 31.622897617912574 ] } },
{ "type": "Feature", "properties": { "P29_001": "46218", "P29_002": "A246310000746", "P29_003": "16013", "P29_004": "認定こども園高千穂", "P29_005": "鹿児島県霧島市牧園町高千穂3864-7", "P29_006": "4", "P29_007": "0", "P29_008": "00", "P29_009": null }, "geometry": { "type": "Point", "coordinates": [ 130.818403010156658, 31.883576154453038 ] } },
{ "type": "Feature", "properties": { "P29_001": "46219", "P29_002": "A246310000755", "P29_003": "16013", "P29_004": "神村学園附属幼稚園", "P29_005": "鹿児島県いちき串木野市別府3970", "P29_006": "4", "P29_007": "0", "P29_008": "00", "P29_009": null }, "geometry": { "type": "Point", "coordinates": [ 130.282732740176414, 31.703456108755713 ] } },
{ "type": "Feature", "properties": { "P29_001": "46219", "P29_002": "A246310000764", "P29_003": "16013", "P29_004": "くしきの森のこども園", "P29_005": "鹿児島県いちき串木野市金山15822-1", "P29_006": "4", "P29_007": "0", "P29_008": "00", "P29_009": null }, "geometry": { "type": "Point", "coordinates": [ 130.29447799984456, 31.754568995813646 ] } },
{ "type": "Feature", "properties": { "P29_001": "46223", "P29_002": "A246310000773", "P29_003": "16013", "P29_004": "認定こども園川辺幼稚園", "P29_005": "鹿児島県南九州市川辺町平山6992-3", "P29_006": "4", "P29_007": "0", "P29_008": "00", "P29_009": null }, "geometry": { "type": "Point", "coordinates": [ 130.396565998602568, 31.392967549969899 ] } },
{ "type": "Feature", "properties": { "P29_001": "46203", "P29_002": "A246310000782", "P29_003": "16013", "P29_004": "アソカ幼保連携型認定こども園", "P29_005": "鹿児島県鹿屋市向江町4-2", "P29_006": "4", "P29_007": "0", "P29_008": "00", "P29_009": null }, "geometry": { "type": "Point", "coordinates": [ 130.849428231520818, 31.384625689054097 ] } },
{ "type": "Feature", "properties": { "P29_001": "46203", "P29_002": "A246310000791", "P29_003": "16013", "P29_004": "和光幼保連携型認定こども園", "P29_005": "鹿児島県鹿屋市横山町1566", "P29_006": "4", "P29_007": "0", "P29_008": "00", "P29_009": null }, "geometry": { "type": "Point", "coordinates": [ 130.834466365563287, 31.34086155708718 ] } },
{ "type": "Feature", "properties": { "P29_001": "46203", "P29_002": "A246310000808", "P29_003": "16013", "P29_004": "認定こども園大黒保育園", "P29_005": "鹿児島県鹿屋市下高隈町4681-5", "P29_006": "4", "P29_007": "0", "P29_008": "00", "P29_009": null }, "geometry": { "type": "Point", "coordinates": [ 130.875874240087398, 31.456785220044974 ] } },
{ "type": "Feature", "properties": { "P29_001": "46203", "P29_002": "A246310000817", "P29_003": "16013", "P29_004": "認定こども園大黒保育園愛育園", "P29_005": "鹿児島県鹿屋市新川町125-1", "P29_006": "4", "P29_007": "0", "P29_008": "00", "P29_009": null }, "geometry": { "type": "Point", "coordinates": [ 130.875533103136746, 31.379642456704744 ] } },
{ "type": "Feature", "properties": { "P29_001": "46203", "P29_002": "A246310000826", "P29_003": "16013", "P29_004": "幼保連携型認定こども園細山田こども園", "P29_005": "鹿児島県鹿屋市串良町細山田4833-4", "P29_006": "4", "P29_007": "0", "P29_008": "00", "P29_009": null }, "geometry": { "type": "Point", "coordinates": [ 130.923154657030835, 31.443176355168973 ] } },
{ "type": "Feature", "properties": { "P29_001": "46203", "P29_002": "A246310000835", "P29_003": "16013", "P29_004": "上小原認定こども園", "P29_005": "鹿児島県鹿屋市串良町上小原2621-3", "P29_006": "4", "P29_007": "0", "P29_008": "00", "P29_009": null }, "geometry": { "type": "Point", "coordinates": [ 130.918148288680499, 31.395234040778849 ] } },
{ "type": "Feature", "properties": { "P29_001": "46404", "P29_002": "A246310000844", "P29_003": "16013", "P29_004": "幼保連携型認定こども園さすえ", "P29_005": "鹿児島県出水郡長島町指江146-1", "P29_006": "4", "P29_007": "0", "P29_008": "00", "P29_009": null }, "geometry": { "type": "Point", "coordinates": [ 130.11829347374578, 32.157028502679132 ] } },
{ "type": "Feature", "properties": { "P29_001": "46208", "P29_002": "A246310000853", "P29_003": "16013", "P29_004": "幼保連携型認定こども園もみじ保育園", "P29_005": "鹿児島県出水市高尾野町柴引2061", "P29_006": "4", "P29_007": "0", "P29_008": "00", "P29_009": null }, "geometry": { "type": "Point", "coordinates": [ 130.297014031456911, 32.059139525380218 ] } },
{ "type": "Feature", "properties": { "P29_001": "46208", "P29_002": "A246310000862", "P29_003": "16013", "P29_004": "幼保連携型認定こども園大久保さくら保育園", "P29_005": "鹿児島県出水市高尾野町大久保3816-45", "P29_006": "4", "P29_007": "0", "P29_008": "00", "P29_009": null }, "geometry": { "type": "Point", "coordinates": [ 130.313541079403876, 32.059581882703718 ] } },
{ "type": "Feature", "properties": { "P29_001": "46208", "P29_002": "A246310000871", "P29_003": "16013", "P29_004": "幼保連携型認定こども園江内みかん保育園", "P29_005": "鹿児島県出水市高尾野町江内3364", "P29_006": "4", "P29_007": "0", "P29_008": "00", "P29_009": null }, "geometry": { "type": "Point", "coordinates": [ 130.250416347370532, 32.095317530330021 ] } },
{ "type": "Feature", "properties": { "P29_001": "46225", "P29_002": "A246310000880", "P29_003": "16013", "P29_004": "幼保連携型認定こども園建昌保育園", "P29_005": "鹿児島県姶良市東餠田2602", "P29_006": "4", "P29_007": "0", "P29_008": "00", "P29_009": null }, "geometry": { "type": "Point", "coordinates": [ 130.632924014270287, 31.726293321563908 ] } },
{ "type": "Feature", "properties": { "P29_001": "46225", "P29_002": "A246310000899", "P29_003": "16013", "P29_004": "池島こども園", "P29_005": "鹿児島県姶良市永池町9-3", "P29_006": "4", "P29_007": "0", "P29_008": "00", "P29_009": null }, "geometry": { "type": "Point", "coordinates": [ 130.613765971375727, 31.715527293786419 ] } },
{ "type": "Feature", "properties": { "P29_001": "46225", "P29_002": "A246310000906", "P29_003": "16013", "P29_004": "エミールさくらこども園", "P29_005": "鹿児島県姶良市西餠田2803-3", "P29_006": "4", "P29_007": "0", "P29_008": "00", "P29_009": null }, "geometry": { "type": "Point", "coordinates": [ 130.617829462517022, 31.724403664661633 ] } },
{ "type": "Feature", "properties": { "P29_001": "46218", "P29_002": "A246310000915", "P29_003": "16013", "P29_004": "認定こども園ひかりこども園", "P29_005": "鹿児島県霧島市国分中央3-20-23", "P29_006": "4", "P29_007": "0", "P29_008": "00", "P29_009": null }, "geometry": { "type": "Point", "coordinates": [ 130.768491054615509, 31.73634006876846 ] } },
{ "type": "Feature", "properties": { "P29_001": "46218", "P29_002": "A246310000924", "P29_003": "16013", "P29_004": "認定こども園はなぞの", "P29_005": "鹿児島県霧島市国分府中町18-56", "P29_006": "4", "P29_007": "0", "P29_008": "00", "P29_009": null }, "geometry": { "type": "Point", "coordinates": [ 130.759097144272459, 31.743263916120277 ] } },
{ "type": "Feature", "properties": { "P29_001": "46218", "P29_002": "A246310000933", "P29_003": "16013", "P29_004": "こどもの城クローバー", "P29_005": "鹿児島県霧島市隼人町内514-1", "P29_006": "4", "P29_007": "0", "P29_008": "00", "P29_009": null }, "geometry": { "type": "Point", "coordinates": [ 130.747932669703971, 31.750638665184198 ] } },
{ "type": "Feature", "properties": { "P29_001": "46223", "P29_002": "A246310000942", "P29_003": "16013", "P29_004": "南九州勝縁こども園", "P29_005": "鹿児島県南九州市頴娃町郡11334-7", "P29_006": "4", "P29_007": "0", "P29_008": "00", "P29_009": null }, "geometry": { "type": "Point", "coordinates": [ 130.507810381247907, 31.231464456707855 ] } },
{ "type": "Feature", "properties": { "P29_001": "46223", "P29_002": "A246310000951", "P29_003": "16013", "P29_004": "ちらん平和こども園", "P29_005": "鹿児島県南九州市知覧町郡17756-4", "P29_006": "4", "P29_007": "0", "P29_008": "00", "P29_009": null }, "geometry": { "type": "Point", "coordinates": [ 130.432358019283811, 31.358711140773973 ] } },
{ "type": "Feature", "properties": { "P29_001": "46223", "P29_002": "A246310000960", "P29_003": "16013", "P29_004": "認定こども園かつめこども園", "P29_005": "鹿児島県南九州市川辺町中山田1884-3", "P29_006": "4", "P29_007": "0", "P29_008": "00", "P29_009": null }, "geometry": { "type": "Point", "coordinates": [ 130.35398949950806, 31.370099936100328 ] } },
{ "type": "Feature", "properties": { "P29_001": "46217", "P29_002": "A246310000979", "P29_003": "16013", "P29_004": "幼保連携型認定こども園覚照こども園", "P29_005": "鹿児島県曽於市大隅町岩川6591", "P29_006": "4", "P29_007": "0", "P29_008": "00", "P29_009": null }, "geometry": { "type": "Point", "coordinates": [ 130.998895950206759, 31.592648878420039 ] } },
{ "type": "Feature", "properties": { "P29_001": "46221", "P29_002": "A246310000988", "P29_003": "16013", "P29_004": "幼保連携型認定こども園若草のがみこども園", "P29_005": "鹿児島県志布志市有明町野神3143-2", "P29_006": "4", "P29_007": "0", "P29_008": "00", "P29_009": null }, "geometry": { "type": "Point", "coordinates": [ 130.989237710351944, 31.491515766902889 ] } },
{ "type": "Feature", "properties": { "P29_001": "46217", "P29_002": "A246310000997", "P29_003": "16013", "P29_004": "幼保連携型認定こども園大隅中央幼稚園", "P29_005": "鹿児島県曽於市大隅町段中町59", "P29_006": "4", "P29_007": "0", "P29_008": "00", "P29_009": null }, "geometry": { "type": "Point", "coordinates": [ 131.003101047018532, 31.585694777895981 ] } },
{ "type": "Feature", "properties": { "P29_001": "46218", "P29_002": "A246310001004", "P29_003": "16013", "P29_004": "宮内認定こども園", "P29_005": "鹿児島県霧島市隼人町神宮1-12-13", "P29_006": "4", "P29_007": "0", "P29_008": "00", "P29_009": null }, "geometry": { "type": "Point", "coordinates": [ 130.741729417499499, 31.74900072715424 ] } },
{ "type": "Feature", "properties": { "P29_001": "46203", "P29_002": "A246310001013", "P29_003": "16013", "P29_004": "認定こども園南部幼稚園", "P29_005": "鹿児島県鹿屋市下堀町9579-1", "P29_006": "4", "P29_007": "0", "P29_008": "00", "P29_009": null }, "geometry": { "type": "Point", "coordinates": [ 130.838669100333988, 31.35389313515272 ] } },
{ "type": "Feature", "properties": { "P29_001": "46218", "P29_002": "A246310001022", "P29_003": "16013", "P29_004": "あかつき認定こども園", "P29_005": "鹿児島県霧島市国分清水1-492-1", "P29_006": "4", "P29_007": "0", "P29_008": "00", "P29_009": null }, "geometry": { "type": "Point", "coordinates": [ 130.773102949173165, 31.751767912281558 ] } },
{ "type": "Feature", "properties": { "P29_001": "46225", "P29_002": "A246310001031", "P29_003": "16013", "P29_004": "幼保連携型認定こども園ひまわりこども園", "P29_005": "鹿児島県姶良市西姶良1-39-30", "P29_006": "4", "P29_007": "0", "P29_008": "00", "P29_009": null }, "geometry": { "type": "Point", "coordinates": [ 130.605304426649838, 31.727323803458436 ] } },
{ "type": "Feature", "properties": { "P29_001": "46201", "P29_002": "A246310001040", "P29_003": "16013", "P29_004": "コスモス認定こども園", "P29_005": "鹿児島県鹿児島市桜ヶ丘2-6-1", "P29_006": "4", "P29_007": "0", "P29_008": "00", "P29_009": null }, "geometry": { "type": "Point", "coordinates": [ 130.515340039774884, 31.556325743394659 ] } },
{ "type": "Feature", "properties": { "P29_001": "46201", "P29_002": "A246310001059", "P29_003": "16013", "P29_004": "幼保連携型認定こども園しらゆきこども園", "P29_005": "鹿児島県鹿児島市小松原2-10-15", "P29_006": "4", "P29_007": "0", "P29_008": "00", "P29_009": null }, "geometry": { "type": "Point", "coordinates": [ 130.527102075623247, 31.529265291351429 ] } },
{ "type": "Feature", "properties": { "P29_001": "46201", "P29_002": "A246310001068", "P29_003": "16013", "P29_004": "幼保連携型認定こども園御所こども園", "P29_005": "鹿児島県鹿児島市上福元町5682", "P29_006": "4", "P29_007": "0", "P29_008": "00", "P29_009": null }, "geometry": { "type": "Point", "coordinates": [ 130.504336001334252, 31.530542996846322 ] } },
{ "type": "Feature", "properties": { "P29_001": "46201", "P29_002": "A246310001086", "P29_003": "16013", "P29_004": "幼保連携型西谷山認定こども園", "P29_005": "鹿児島県鹿児島市西谷山2-16-8", "P29_006": "4", "P29_007": "0", "P29_008": "00", "P29_009": null }, "geometry": { "type": "Point", "coordinates": [ 130.506823770180205, 31.519470613502843 ] } },
{ "type": "Feature", "properties": { "P29_001": "46201", "P29_002": "A246310001095", "P29_003": "16013", "P29_004": "幼保連携型聖徳認定こども園", "P29_005": "鹿児島県鹿児島市和田2-2-1", "P29_006": "4", "P29_007": "0", "P29_008": "00", "P29_009": null }, "geometry": { "type": "Point", "coordinates": [ 130.512508525944327, 31.510390555386291 ] } },
{ "type": "Feature", "properties": { "P29_001": "46201", "P29_002": "A246310001102", "P29_003": "16013", "P29_004": "認定こども園ひかりやま保育園", "P29_005": "鹿児島県鹿児島市光山2-12-1", "P29_006": "4", "P29_007": "0", "P29_008": "00", "P29_009": null }, "geometry": { "type": "Point", "coordinates": [ 130.508262015156561, 31.490254936433654 ] } },
{ "type": "Feature", "properties": { "P29_001": "46216", "P29_002": "A246310001111", "P29_003": "16013", "P29_004": "認定明信寺こども園", "P29_005": "鹿児島県日置市日吉町日置3450-2", "P29_006": "4", "P29_007": "0", "P29_008": "00", "P29_009": null }, "geometry": { "type": "Point", "coordinates": [ 130.34716573103529, 31.590105400337112 ] } },
{ "type": "Feature", "properties": { "P29_001": "46204", "P29_002": "A246310001120", "P29_003": "16013", "P29_004": "立神海の風こども園", "P29_005": "鹿児島県枕崎市中央町261", "P29_006": "4", "P29_007": "0", "P29_008": "00", "P29_009": null }, "geometry": { "type": "Point", "coordinates": [ 130.282062235502821, 31.271385944855194 ] } },
{ "type": "Feature", "properties": { "P29_001": "46204", "P29_002": "A246310001139", "P29_003": "16013", "P29_004": "幼保連携型認定べっぷ里山こども園", "P29_005": "鹿児島県枕崎市別府西町136", "P29_006": "4", "P29_007": "0", "P29_008": "00", "P29_009": null }, "geometry": { "type": "Point", "coordinates": [ 130.344717254672247, 31.276695731651763 ] } },
{ "type": "Feature", "properties": { "P29_001": "46220", "P29_002": "A246310001148", "P29_003": "16013", "P29_004": "認定こども園加世田幼児園", "P29_005": "鹿児島県南さつま市加世田武田17444-4", "P29_006": "4", "P29_007": "0", "P29_008": "00", "P29_009": null }, "geometry": { "type": "Point", "coordinates": [ 130.323361910773798, 31.410486681483498 ] } },
{ "type": "Feature", "properties": { "P29_001": "46215", "P29_002": "A246310001157", "P29_003": "16013", "P29_004": "幼保連携型認定こども園川内すわこども園", "P29_005": "鹿児島県薩摩川内市御陵下町19-5", "P29_006": "4", "P29_007": "0", "P29_008": "00", "P29_009": null }, "geometry": { "type": "Point", "coordinates": [ 130.294742183431282, 31.830654336771538 ] } },
{ "type": "Feature", "properties": { "P29_001": "46392", "P29_002": "A246310001166", "P29_003": "16013", "P29_004": "幼保連携型認定こども園つるだ同朋子ども園", "P29_005": "鹿児島県薩摩郡さつま町鶴田3424-18", "P29_006": "4", "P29_007": "0", "P29_008": "00", "P29_009": null }, "geometry": { "type": "Point", "coordinates": [ 130.494336866973953, 31.951678942821761 ] } },
{ "type": "Feature", "properties": { "P29_001": "46218", "P29_002": "A246310001175", "P29_003": "16013", "P29_004": "きりしまこども園", "P29_005": "鹿児島県霧島市霧島田口807", "P29_006": "4", "P29_007": "0", "P29_008": "00", "P29_009": null }, "geometry": { "type": "Point", "coordinates": [ 130.839645541900609, 31.835171766251989 ] } },
{ "type": "Feature", "properties": { "P29_001": "46203", "P29_002": "A246310001184", "P29_003": "16013", "P29_004": "笠之原こども園", "P29_005": "鹿児島県鹿屋市笠之原町46-15", "P29_006": "4", "P29_007": "0", "P29_008": "00", "P29_009": null }, "geometry": { "type": "Point", "coordinates": [ 130.890523562781397, 31.386477356916235 ] } },
{ "type": "Feature", "properties": { "P29_001": "46203", "P29_002": "A246310001193", "P29_003": "16013", "P29_004": "幼保連携型認定こども園光華こども園", "P29_005": "鹿児島県鹿屋市花岡町369-1", "P29_006": "4", "P29_007": "0", "P29_008": "00", "P29_009": null }, "geometry": { "type": "Point", "coordinates": [ 130.777650466546078, 31.407001212176677 ] } },
{ "type": "Feature", "properties": { "P29_001": "46203", "P29_002": "A246310001200", "P29_003": "16013", "P29_004": "幼保連携型光明こども園", "P29_005": "鹿児島県鹿屋市輝北町上百引3989", "P29_006": "4", "P29_007": "0", "P29_008": "00", "P29_009": null }, "geometry": { "type": "Point", "coordinates": [ 130.866822165817752, 31.542271931135083 ] } },
{ "type": "Feature", "properties": { "P29_001": "46203", "P29_002": "A246310001219", "P29_003": "16013", "P29_004": "認定こども園高須保育園（本園）", "P29_005": "鹿児島県鹿屋市高須町1389", "P29_006": "4", "P29_007": "0", "P29_008": "00", "P29_009": null }, "geometry": { "type": "Point", "coordinates": [ 130.796574613631037, 31.346964236207857 ] } },
{ "type": "Feature", "properties": { "P29_001": "46203", "P29_002": "A246310001228", "P29_003": "16013", "P29_004": "認定こども園第二高須保育園（高須保育園分園）", "P29_005": "鹿児島県鹿屋市大浦町14013-7", "P29_006": "4", "P29_007": "0", "P29_008": "00", "P29_009": null }, "geometry": { "type": "Point", "coordinates": [ 130.840187428771713, 31.404601441109509 ] } },
{ "type": "Feature", "properties": { "P29_001": "46214", "P29_002": "A246310001237", "P29_003": "16013", "P29_004": "幼保連携型認定こども園新城こども園", "P29_005": "鹿児島県垂水市新城280-4", "P29_006": "4", "P29_007": "0", "P29_008": "00", "P29_009": null }, "geometry": { "type": "Point", "coordinates": [ 130.742123600877932, 31.439632161748001 ] } },
{ "type": "Feature", "properties": { "P29_001": "46217", "P29_002": "A246310001246", "P29_003": "16013", "P29_004": "認定こども園きらり園", "P29_005": "鹿児島県曽於市財部町南俣5080-2", "P29_006": "4", "P29_007": "0", "P29_008": "00", "P29_009": null }, "geometry": { "type": "Point", "coordinates": [ 130.944529418939169, 31.701870982393441 ] } },
{ "type": "Feature", "properties": { "P29_001": "46221", "P29_002": "A246310001255", "P29_003": "16013", "P29_004": "幼保連携型認定こども園若草おおぞらこども園", "P29_005": "鹿児島県志布志市志布志町内之倉1808-10", "P29_006": "4", "P29_007": "0", "P29_008": "00", "P29_009": null }, "geometry": { "type": "Point", "coordinates": [ 131.120238802440525, 31.517615863922039 ] } },
{ "type": "Feature", "properties": { "P29_001": "46492", "P29_002": "A246310001264", "P29_003": "16013", "P29_004": "認定こども園あけぼのこども園", "P29_005": "鹿児島県肝属郡肝付町後田伊東9886-3", "P29_006": "4", "P29_007": "0", "P29_008": "00", "P29_009": null }, "geometry": { "type": "Point", "coordinates": [ 130.921961130019042, 31.352173800454082 ] } },
{ "type": "Feature", "properties": { "P29_001": "46468", "P29_002": "A246310001273", "P29_003": "16013", "P29_004": "幼保連携型認定こども園野方保育園", "P29_005": "鹿児島県曽於郡大崎町野方6095-38", "P29_006": "4", "P29_007": "0", "P29_008": "00", "P29_009": null }, "geometry": { "type": "Point", "coordinates": [ 130.948133541467229, 31.508385948245959 ] } },
{ "type": "Feature", "properties": { "P29_001": "46223", "P29_002": "A246310001282", "P29_003": "16013", "P29_004": "幼保連携型認定こども園おののもりこども園", "P29_005": "鹿児島県南九州市川辺町小野1110-1", "P29_006": "4", "P29_007": "0", "P29_008": "00", "P29_009": null }, "geometry": { "type": "Point", "coordinates": [ 130.405545952517485, 31.383127405189914 ] } },
{ "type": "Feature", "properties": { "P29_001": "46216", "P29_002": "A246310001291", "P29_003": "16013", "P29_004": "幼保連携型認定こども園伊集院幼稚園", "P29_005": "鹿児島県日置市伊集院町下谷口1520", "P29_006": "4", "P29_007": "0", "P29_008": "00", "P29_009": null }, "geometry": { "type": "Point", "coordinates": [ 130.396484844331354, 31.624340982964682 ] } },
{ "type": "Feature", "properties": { "P29_001": "46203", "P29_002": "A246310001308", "P29_003": "16013", "P29_004": "認定こども園西原幼稚園", "P29_005": "鹿児島県鹿屋市西原4-7-9", "P29_006": "4", "P29_007": "0", "P29_008": "00", "P29_009": null }, "geometry": { "type": "Point", "coordinates": [ 130.830246995271523, 31.384398997864402 ] } },
{ "type": "Feature", "properties": { "P29_001": "46218", "P29_002": "A246310001317", "P29_003": "16013", "P29_004": "認定こども園カトリック国分幼稚園", "P29_005": "鹿児島県霧島市国分中央3-13-18", "P29_006": "4", "P29_007": "0", "P29_008": "00", "P29_009": null }, "geometry": { "type": "Point", "coordinates": [ 130.767957578739271, 31.73878040037733 ] } },
{ "type": "Feature", "properties": { "P29_001": "46468", "P29_002": "A246310001326", "P29_003": "16013", "P29_004": "認定子ども園大崎幼稚園", "P29_005": "鹿児島県曽於郡大崎町神領129", "P29_006": "4", "P29_007": "0", "P29_008": "00", "P29_009": null }, "geometry": { "type": "Point", "coordinates": [ 131.016985679876285, 31.426830987438997 ] } },
{ "type": "Feature", "properties": { "P29_001": "46201", "P29_002": "A246310001335", "P29_003": "16013", "P29_004": "幼保連携型認定こども園つばき幼稚園", "P29_005": "鹿児島県鹿児島市中山1-6-1", "P29_006": "4", "P29_007": "0", "P29_008": "00", "P29_009": null }, "geometry": { "type": "Point", "coordinates": [ 130.513675483620943, 31.546808555298664 ] } },
{ "type": "Feature", "properties": { "P29_001": "46201", "P29_002": "A246310001344", "P29_003": "16013", "P29_004": "幼保連携型認定こども園ひまわり幼稚園", "P29_005": "鹿児島県鹿児島市東谷山3-31-13", "P29_006": "4", "P29_007": "0", "P29_008": "00", "P29_009": null }, "geometry": { "type": "Point", "coordinates": [ 130.518634431050117, 31.530931267513729 ] } },
{ "type": "Feature", "properties": { "P29_001": "46203", "P29_002": "A246310001353", "P29_003": "16013", "P29_004": "幼保連携型認定こども園こばと保育園", "P29_005": "鹿児島県鹿屋市川西町4796", "P29_006": "4", "P29_007": "0", "P29_008": "00", "P29_009": null }, "geometry": { "type": "Point", "coordinates": [ 130.875254207605309, 31.365905110433868 ] } },
{ "type": "Feature", "properties": { "P29_001": "46203", "P29_002": "A246310001362", "P29_003": "16013", "P29_004": "幼保連携型認定こども園ふるえこども園", "P29_005": "鹿児島県鹿屋市古江町820", "P29_006": "4", "P29_007": "0", "P29_008": "00", "P29_009": null }, "geometry": { "type": "Point", "coordinates": [ 130.771011703927513, 31.400027233844693 ] } },
{ "type": "Feature", "properties": { "P29_001": "46208", "P29_002": "A246310001371", "P29_003": "16013", "P29_004": "西出水認定こども園", "P29_005": "鹿児島県出水市西出水町367", "P29_006": "4", "P29_007": "0", "P29_008": "00", "P29_009": null }, "geometry": { "type": "Point", "coordinates": [ 130.341164672620721, 32.07837421925678 ] } },
{ "type": "Feature", "properties": { "P29_001": "46210", "P29_002": "A246310001380", "P29_003": "16013", "P29_004": "うおみ認定こども園", "P29_005": "鹿児島県指宿市東方11018-11", "P29_006": "4", "P29_007": "0", "P29_008": "00", "P29_009": null }, "geometry": { "type": "Point", "coordinates": [ 130.640502185434428, 31.257508952753383 ] } },
{ "type": "Feature", "properties": { "P29_001": "46210", "P29_002": "A246310001399", "P29_003": "16013", "P29_004": "認定こども園ひばりこども園", "P29_005": "鹿児島県指宿市十町543", "P29_006": "4", "P29_007": "0", "P29_008": "00", "P29_009": null }, "geometry": { "type": "Point", "coordinates": [ 130.63589063667095, 31.254249878168999 ] } },
{ "type": "Feature", "properties": { "P29_001": "46214", "P29_002": "A246310001406", "P29_003": "16013", "P29_004": "幼保連携型認定こども園さざなみ保育園", "P29_005": "鹿児島県垂水市柊原3377", "P29_006": "4", "P29_007": "0", "P29_008": "00", "P29_009": null }, "geometry": { "type": "Point", "coordinates": [ 130.718908751060553, 31.456249749941158 ] } },
{ "type": "Feature", "properties": { "P29_001": "46214", "P29_002": "A246310001415", "P29_003": "16013", "P29_004": "認定水之上こども園", "P29_005": "鹿児島県垂水市本城星原1358-2", "P29_006": "4", "P29_007": "0", "P29_008": "00", "P29_009": null }, "geometry": { "type": "Point", "coordinates": [ 130.724728888466956, 31.483869578234401 ] } },
{ "type": "Feature", "properties": { "P29_001": "46215", "P29_002": "A246310001424", "P29_003": "16013", "P29_004": "幼保連携型認定こども園入来こども園", "P29_005": "鹿児島県薩摩川内市入来町浦之名7517-3", "P29_006": "4", "P29_007": "0", "P29_008": "00", "P29_009": null }, "geometry": { "type": "Point", "coordinates": [ 130.429943637397145, 31.80461943360989 ] } },
{ "type": "Feature", "properties": { "P29_001": "46215", "P29_002": "A246310001433", "P29_003": "16013", "P29_004": "幼保連携型認定こども園すわこども園", "P29_005": "鹿児島県薩摩川内市樋脇町市比野550", "P29_006": "4", "P29_007": "0", "P29_008": "00", "P29_009": null }, "geometry": { "type": "Point", "coordinates": [ 130.410635761541783, 31.79524101502254 ] } },
{ "type": "Feature", "properties": { "P29_001": "46216", "P29_002": "A246310001442", "P29_003": "16013", "P29_004": "幼保連携型認定こども園ゆだこども園", "P29_005": "鹿児島県日置市東市来町湯田2231", "P29_006": "4", "P29_007": "0", "P29_008": "00", "P29_009": null }, "geometry": { "type": "Point", "coordinates": [ 130.335236398210924, 31.669607698934247 ] } },
{ "type": "Feature", "properties": { "P29_001": "46217", "P29_002": "A246310001451", "P29_003": "16013", "P29_004": "幼保連携型認定かさぎこども園", "P29_005": "鹿児島県曽於市大隅町中之内4674-2", "P29_006": "4", "P29_007": "0", "P29_008": "00", "P29_009": null }, "geometry": { "type": "Point", "coordinates": [ 130.962427077038228, 31.633501313381046 ] } },
{ "type": "Feature", "properties": { "P29_001": "46218", "P29_002": "A246310001460", "P29_003": "16013", "P29_004": "幼保連携型認定こども園第１ドリーム保育園", "P29_005": "鹿児島県霧島市国分清水1-25-45", "P29_006": "4", "P29_007": "0", "P29_008": "00", "P29_009": null }, "geometry": { "type": "Point", "coordinates": [ 130.776821272982289, 31.749486980156306 ] } },
{ "type": "Feature", "properties": { "P29_001": "46218", "P29_002": "A246310001479", "P29_003": "16013", "P29_004": "幼保連携型認定こども園第２ドリーム保育園", "P29_005": "鹿児島県霧島市国分清水1-25-1", "P29_006": "4", "P29_007": "0", "P29_008": "00", "P29_009": null }, "geometry": { "type": "Point", "coordinates": [ 130.775027381787595, 31.748305412982539 ] } },
{ "type": "Feature", "properties": { "P29_001": "46218", "P29_002": "A246310001488", "P29_003": "16013", "P29_004": "みつぎ童夢園", "P29_005": "鹿児島県霧島市隼人町見次1149-6", "P29_006": "4", "P29_007": "0", "P29_008": "00", "P29_009": null }, "geometry": { "type": "Point", "coordinates": [ 130.740363860112893, 31.735649018988696 ] } },
{ "type": "Feature", "properties": { "P29_001": "46218", "P29_002": "A246310001497", "P29_003": "16013", "P29_004": "認定こども園国分西", "P29_005": "鹿児島県霧島市国分広瀬2-34-2", "P29_006": "4", "P29_007": "0", "P29_008": "00", "P29_009": null }, "geometry": { "type": "Point", "coordinates": [ 130.759975240115807, 31.717941585495772 ] } },
{ "type": "Feature", "properties": { "P29_001": "46218", "P29_002": "A246310001503", "P29_003": "16013", "P29_004": "幼保連携型認定こども園すめら保育園", "P29_005": "鹿児島県霧島市霧島田口2512-19", "P29_006": "4", "P29_007": "0", "P29_008": "00", "P29_009": null }, "geometry": { "type": "Point", "coordinates": [ 130.872386776346531, 31.853314218576852 ] } },
{ "type": "Feature", "properties": { "P29_001": "46218", "P29_002": "A246310001512", "P29_003": "16013", "P29_004": "浄光こども園", "P29_005": "鹿児島県霧島市国分松木町1-34", "P29_006": "4", "P29_007": "0", "P29_008": "00", "P29_009": null }, "geometry": { "type": "Point", "coordinates": [ 130.752072923700041, 31.73577734503602 ] } },
{ "type": "Feature", "properties": { "P29_001": "46218", "P29_002": "A246310001521", "P29_003": "16013", "P29_004": "認定こども園大窪保育園", "P29_005": "鹿児島県霧島市霧島川北246-1", "P29_006": "4", "P29_007": "0", "P29_008": "00", "P29_009": null }, "geometry": { "type": "Point", "coordinates": [ 130.828904535481257, 31.818578608610849 ] } },
{ "type": "Feature", "properties": { "P29_001": "46218", "P29_002": "A246310001530", "P29_003": "16013", "P29_004": "国分こども園", "P29_005": "鹿児島県霧島市国分名波町26-10", "P29_006": "4", "P29_007": "0", "P29_008": "00", "P29_009": null }, "geometry": { "type": "Point", "coordinates": [ 130.780873768172427, 31.733109033320741 ] } },
{ "type": "Feature", "properties": { "P29_001": "46218", "P29_002": "A246310001549", "P29_003": "16013", "P29_004": "国分海の風認定こども園", "P29_005": "鹿児島県霧島市国分広瀬4-6-1", "P29_006": "4", "P29_007": "0", "P29_008": "00", "P29_009": null }, "geometry": { "type": "Point", "coordinates": [ 130.767444795752795, 31.712755646363533 ] } },
{ "type": "Feature", "properties": { "P29_001": "46221", "P29_002": "A246310001558", "P29_003": "16013", "P29_004": "幼保連携型認定こども園有明保育園", "P29_005": "鹿児島県志布志市有明町野井倉1182-9", "P29_006": "4", "P29_007": "0", "P29_008": "00", "P29_009": null }, "geometry": { "type": "Point", "coordinates": [ 131.055444111179042, 31.492171234570339 ] } },
{ "type": "Feature", "properties": { "P29_001": "46221", "P29_002": "A246310001567", "P29_003": "16013", "P29_004": "幼保連携型認定こども園若草あゆみこども園", "P29_005": "鹿児島県志布志市志布志町志布志1030-1", "P29_006": "4", "P29_007": "0", "P29_008": "00", "P29_009": null }, "geometry": { "type": "Point", "coordinates": [ 131.08738707216537, 31.487622544741871 ] } },
{ "type": "Feature", "properties": { "P29_001": "46223", "P29_002": "A246310001576", "P29_003": "16013", "P29_004": "幼保連携型認定こども園大川こども園", "P29_005": "鹿児島県南九州市頴娃町別府6597-3", "P29_006": "4", "P29_007": "0", "P29_008": "00", "P29_009": null }, "geometry": { "type": "Point", "coordinates": [ 130.415364033551867, 31.255368158265554 ] } },
{ "type": "Feature", "properties": { "P29_001": "46225", "P29_002": "A246310001585", "P29_003": "16013", "P29_004": "幼保連携型認定こども園菜の花保育園", "P29_005": "鹿児島県姶良市東餠田1343-3", "P29_006": "4", "P29_007": "0", "P29_008": "00", "P29_009": null }, "geometry": { "type": "Point", "coordinates": [ 130.635864000471258, 31.724494002016353 ] } },
{ "type": "Feature", "properties": { "P29_001": "46225", "P29_002": "A246310001594", "P29_003": "16013", "P29_004": "建昌こぎく保育園", "P29_005": "鹿児島県姶良市東餠田3355-1", "P29_006": "4", "P29_007": "0", "P29_008": "00", "P29_009": null }, "geometry": { "type": "Point", "coordinates": [ 130.633579953715525, 31.725164546008244 ] } },
{ "type": "Feature", "properties": { "P29_001": "46225", "P29_002": "A246310001601", "P29_003": "16013", "P29_004": "なでしこ保育園", "P29_005": "鹿児島県姶良市永池町12-13", "P29_006": "4", "P29_007": "0", "P29_008": "00", "P29_009": null }, "geometry": { "type": "Point", "coordinates": [ 130.612699328245128, 31.715510004485861 ] } },
{ "type": "Feature", "properties": { "P29_001": "46392", "P29_002": "A246310001610", "P29_003": "16013", "P29_004": "認定こども園クオラキッズ", "P29_005": "鹿児島県薩摩郡さつま町船木2336-1", "P29_006": "4", "P29_007": "0", "P29_008": "00", "P29_009": null }, "geometry": { "type": "Point", "coordinates": [ 130.441880749554997, 31.872621698144876 ] } },
{ "type": "Feature", "properties": { "P29_001": "46392", "P29_002": "A246310001629", "P29_003": "16013", "P29_004": "しびこども園", "P29_005": "鹿児島県薩摩郡さつま町紫尾1468", "P29_006": "4", "P29_007": "0", "P29_008": "00", "P29_009": null }, "geometry": { "type": "Point", "coordinates": [ 130.434635545246977, 31.963588190419429 ] } },
{ "type": "Feature", "properties": { "P29_001": "46392", "P29_002": "A246310001638", "P29_003": "16013", "P29_004": "あさひこども園", "P29_005": "鹿児島県薩摩郡さつま町柏原5183", "P29_006": "4", "P29_007": "0", "P29_008": "00", "P29_009": null }, "geometry": { "type": "Point", "coordinates": [ 130.463126871137433, 31.949444901240827 ] } },
{ "type": "Feature", "properties": { "P29_001": "46452", "P29_002": "A246310001647", "P29_003": "16013", "P29_004": "円乗寺こども園", "P29_005": "鹿児島県姶良郡湧水町川西800-1", "P29_006": "4", "P29_007": "0", "P29_008": "00", "P29_009": null }, "geometry": { "type": "Point", "coordinates": [ 130.739872560853655, 32.013056253882894 ] } },
{ "type": "Feature", "properties": { "P29_001": "46468", "P29_002": "A246310001656", "P29_003": "16013", "P29_004": "幼保連携型認定こども園南光保育園", "P29_005": "鹿児島県曽於郡大崎町仮宿1554-2", "P29_006": "4", "P29_007": "0", "P29_008": "00", "P29_009": null }, "geometry": { "type": "Point", "coordinates": [ 131.008048184654939, 31.428007417066549 ] } },
{ "type": "Feature", "properties": { "P29_001": "46468", "P29_002": "A246310001665", "P29_003": "16013", "P29_004": "幼保連携型認定こども園大崎保育園", "P29_005": "鹿児島県曽於郡大崎町仮宿1862", "P29_006": "4", "P29_007": "0", "P29_008": "00", "P29_009": null }, "geometry": { "type": "Point", "coordinates": [ 131.011160291230084, 31.430835484238809 ] } },
{ "type": "Feature", "properties": { "P29_001": "46468", "P29_002": "A246310001674", "P29_003": "16013", "P29_004": "認定こども園大丸保育園", "P29_005": "鹿児島県曽於郡大崎町横瀬2", "P29_006": "4", "P29_007": "0", "P29_008": "00", "P29_009": null }, "geometry": { "type": "Point", "coordinates": [ 131.016289332313562, 31.423684017647442 ] } },
{ "type": "Feature", "properties": { "P29_001": "46203", "P29_002": "A246310001683", "P29_003": "16013", "P29_004": "幼保連携型認定こども園第２こばと保育園", "P29_005": "鹿児島県鹿屋市新川町88-9", "P29_006": "4", "P29_007": "0", "P29_008": "00", "P29_009": null }, "geometry": { "type": "Point", "coordinates": [ 130.87448984124174, 31.374511183940573 ] } },
{ "type": "Feature", "properties": { "P29_001": "46215", "P29_002": "A246310001692", "P29_003": "16013", "P29_004": "若あゆこども園", "P29_005": "鹿児島県薩摩川内市東郷町斧渕4490-1", "P29_006": "4", "P29_007": "0", "P29_008": "00", "P29_009": null }, "geometry": { "type": "Point", "coordinates": [ 130.342740530605681, 31.869279551180924 ] } },
{ "type": "Feature", "properties": { "P29_001": "46208", "P29_002": "A246310001709", "P29_003": "16013", "P29_004": "太陽の子鹿島こども園", "P29_005": "鹿児島県出水市知識町299", "P29_006": "4", "P29_007": "0", "P29_008": "00", "P29_009": null }, "geometry": { "type": "Point", "coordinates": [ 130.333635897166602, 32.087629419487406 ] } },
{ "type": "Feature", "properties": { "P29_001": "46215", "P29_002": "A246310001718", "P29_003": "16013", "P29_004": "りぼんこども園", "P29_005": "鹿児島県薩摩川内市天辰町1866-1", "P29_006": "4", "P29_007": "0", "P29_008": "00", "P29_009": null }, "geometry": { "type": "Point", "coordinates": [ 130.325560443025608, 31.828360643128459 ] } },
{ "type": "Feature", "properties": { "P29_001": "46215", "P29_002": "A246310001727", "P29_003": "16013", "P29_004": "幼保連携型認定こども園なかよしこども園", "P29_005": "鹿児島県薩摩川内市祁答院町藺牟田295-1", "P29_006": "4", "P29_007": "0", "P29_008": "00", "P29_009": null }, "geometry": { "type": "Point", "coordinates": [ 130.49339927221655, 31.823094405388055 ] } },
{ "type": "Feature", "properties": { "P29_001": "46215", "P29_002": "A246310001736", "P29_003": "16013", "P29_004": "善福寺こども園", "P29_005": "鹿児島県薩摩川内市樋脇町塔之原1177", "P29_006": "4", "P29_007": "0", "P29_008": "00", "P29_009": null }, "geometry": { "type": "Point", "coordinates": [ 130.385345471391503, 31.820557695800304 ] } },
{ "type": "Feature", "properties": { "P29_001": "46217", "P29_002": "A246310001745", "P29_003": "16013", "P29_004": "しょうしん月の森こども園", "P29_005": "鹿児島県曽於市大隅町月野3659-1", "P29_006": "4", "P29_007": "0", "P29_008": "00", "P29_009": null }, "geometry": { "type": "Point", "coordinates": [ 131.003506287792931, 31.562338606365103 ] } },
{ "type": "Feature", "properties": { "P29_001": "46217", "P29_002": "A246310001754", "P29_003": "16013", "P29_004": "幼保連携型スイミー子ども園", "P29_005": "鹿児島県曽於市大隅町坂元481-31", "P29_006": "4", "P29_007": "0", "P29_008": "00", "P29_009": null }, "geometry": { "type": "Point", "coordinates": [ 130.901019943927679, 31.650815094100064 ] } },
{ "type": "Feature", "properties": { "P29_001": "46220", "P29_002": "A246310001763", "P29_003": "16013", "P29_004": "幼保連携型認定こども園加世田聖母幼稚園", "P29_005": "鹿児島県南さつま市加世田本町35-2", "P29_006": "4", "P29_007": "0", "P29_008": "00", "P29_009": null }, "geometry": { "type": "Point", "coordinates": [ 130.321186029772775, 31.417574096314191 ] } },
{ "type": "Feature", "properties": { "P29_001": "46220", "P29_002": "A246310001772", "P29_003": "16013", "P29_004": "阿多こども園", "P29_005": "鹿児島県南さつま市金峰町4104-5", "P29_006": "4", "P29_007": "0", "P29_008": "00", "P29_009": null }, "geometry": { "type": "Point", "coordinates": [ 130.337687099697746, 31.435397838122658 ] } },
{ "type": "Feature", "properties": { "P29_001": "46221", "P29_002": "A246310001781", "P29_003": "16013", "P29_004": "蓬原保育園", "P29_005": "鹿児島県志布志市有明町蓬原815", "P29_006": "4", "P29_007": "0", "P29_008": "00", "P29_009": null }, "geometry": { "type": "Point", "coordinates": [ 131.028595383933208, 31.481470290403401 ] } },
{ "type": "Feature", "properties": { "P29_001": "46221", "P29_002": "A246310001790", "P29_003": "16013", "P29_004": "城南保育園", "P29_005": "鹿児島県志布志市松山町新橋1564", "P29_006": "4", "P29_007": "0", "P29_008": "00", "P29_009": null }, "geometry": { "type": "Point", "coordinates": [ 131.040627093161106, 31.576012616147779 ] } },
{ "type": "Feature", "properties": { "P29_001": "46221", "P29_002": "A246310001807", "P29_003": "16013", "P29_004": "幼保連携型認定こども園あんらく保育園", "P29_005": "鹿児島県志布志市志布志町安楽1786-8", "P29_006": "4", "P29_007": "0", "P29_008": "00", "P29_009": null }, "geometry": { "type": "Point", "coordinates": [ 131.077623832647845, 31.481035616928484 ] } },
{ "type": "Feature", "properties": { "P29_001": "46221", "P29_002": "A246310001816", "P29_003": "16013", "P29_004": "認定西光こども園", "P29_005": "鹿児島県志布志市有明町原田2298-2", "P29_006": "4", "P29_007": "0", "P29_008": "00", "P29_009": null }, "geometry": { "type": "Point", "coordinates": [ 131.006912276822135, 31.481921967325931 ] } },
{ "type": "Feature", "properties": { "P29_001": "46221", "P29_002": "A246310001825", "P29_003": "16013", "P29_004": "通山こども園", "P29_005": "鹿児島県志布志市有明町野井倉8547-1", "P29_006": "4", "P29_007": "0", "P29_008": "00", "P29_009": null }, "geometry": { "type": "Point", "coordinates": [ 131.062287100101656, 31.459442512932448 ] } },
{ "type": "Feature", "properties": { "P29_001": "46222", "P29_002": "A246310001834", "P29_003": "16013", "P29_004": "幼保連携型認定こども園朝仁保育園", "P29_005": "鹿児島県奄美市名瀬朝仁新町25-18", "P29_006": "4", "P29_007": "0", "P29_008": "00", "P29_009": null }, "geometry": { "type": "Point", "coordinates": [ 129.485811742559093, 28.396356937667544 ] } },
{ "type": "Feature", "properties": { "P29_001": "46223", "P29_002": "A246310001843", "P29_003": "16013", "P29_004": "こども園　ほしのこ", "P29_005": "鹿児島県南九州市川辺町永田1861", "P29_006": "4", "P29_007": "0", "P29_008": "00", "P29_009": null }, "geometry": { "type": "Point", "coordinates": [ 130.376590113655283, 31.38406470501014 ] } },
{ "type": "Feature", "properties": { "P29_001": "46223", "P29_002": "A246310001852", "P29_003": "16013", "P29_004": "ちらん中央こども園", "P29_005": "鹿児島県南九州市知覧町瀬世5383-8", "P29_006": "4", "P29_007": "0", "P29_008": "00", "P29_009": null }, "geometry": { "type": "Point", "coordinates": [ 130.419495079467168, 31.338612855822529 ] } },
{ "type": "Feature", "properties": { "P29_001": "46225", "P29_002": "A246310001861", "P29_003": "16013", "P29_004": "幼保連携型認定こども園おひさまこども園", "P29_005": "鹿児島県姶良市西餠田3306-1", "P29_006": "4", "P29_007": "0", "P29_008": "00", "P29_009": null }, "geometry": { "type": "Point", "coordinates": [ 130.62217644870185, 31.719542618098647 ] } },
{ "type": "Feature", "properties": { "P29_001": "46482", "P29_002": "A246310001870", "P29_003": "16013", "P29_004": "認定こども園青葉保育園", "P29_005": "鹿児島県肝属郡東串良町川西1902", "P29_006": "4", "P29_007": "0", "P29_008": "00", "P29_009": null }, "geometry": { "type": "Point", "coordinates": [ 130.982708523334082, 31.39029987085074 ] } },
{ "type": "Feature", "properties": { "P29_001": "46482", "P29_002": "A246310001889", "P29_003": "16013", "P29_004": "認定こども園豊栄保育園", "P29_005": "鹿児島県肝属郡東串良町池之原997-1", "P29_006": "4", "P29_007": "0", "P29_008": "00", "P29_009": null }, "geometry": { "type": "Point", "coordinates": [ 130.967481746203504, 31.392229713335464 ] } },
{ "type": "Feature", "properties": { "P29_001": "46201", "P29_002": "A246310001898", "P29_003": "16013", "P29_004": "認定こども園たちばな保育園", "P29_005": "鹿児島県鹿児島市紫原6-40-27", "P29_006": "4", "P29_007": "0", "P29_008": "00", "P29_009": null }, "geometry": { "type": "Point", "coordinates": [ 130.527774612378494, 31.565373199325602 ] } },
{ "type": "Feature", "properties": { "P29_001": "46201", "P29_002": "A246310001905", "P29_003": "16013", "P29_004": "わくわく鹿児島中央認定こども園", "P29_005": "鹿児島県鹿児島市薬師2-30-15", "P29_006": "4", "P29_007": "0", "P29_008": "00", "P29_009": null }, "geometry": { "type": "Point", "coordinates": [ 130.536534550158052, 31.589883192607633 ] } },
{ "type": "Feature", "properties": { "P29_001": "46201", "P29_002": "A246310001914", "P29_003": "16013", "P29_004": "幼保連携型認定こども園松青こども園", "P29_005": "鹿児島県鹿児島市谷山中央4-4907-11", "P29_006": "4", "P29_007": "0", "P29_008": "00", "P29_009": null }, "geometry": { "type": "Point", "coordinates": [ 130.517153396810926, 31.520004709566585 ] } },
{ "type": "Feature", "properties": { "P29_001": "46201", "P29_002": "A246310001923", "P29_003": "16013", "P29_004": "幼保連携型認定こども園ベビーズ松青こども園", "P29_005": "鹿児島県鹿児島市谷山中央3-522", "P29_006": "4", "P29_007": "0", "P29_008": "00", "P29_009": null }, "geometry": { "type": "Point", "coordinates": [ 130.520154331814723, 31.520610131846976 ] } },
{ "type": "Feature", "properties": { "P29_001": "46201", "P29_002": "A246310001932", "P29_003": "16013", "P29_004": "社会福祉法人養母福祉会みのりこども園", "P29_005": "鹿児島県鹿児島市春山町388", "P29_006": "4", "P29_007": "0", "P29_008": "00", "P29_009": null }, "geometry": { "type": "Point", "coordinates": [ 130.460677730648257, 31.573270585160824 ] } },
{ "type": "Feature", "properties": { "P29_001": "46201", "P29_002": "A246310001941", "P29_003": "16013", "P29_004": "学校法人吉井学園認定こども園錦ヶ丘幼稚園", "P29_005": "鹿児島県鹿児島市吉野町2223-4", "P29_006": "4", "P29_007": "0", "P29_008": "00", "P29_009": null }, "geometry": { "type": "Point", "coordinates": [ 130.571153297565672, 31.639139646072799 ] } },
{ "type": "Feature", "properties": { "P29_001": "46203", "P29_002": "A246310001950", "P29_003": "16013", "P29_004": "幼保連携型認定こども園わかば保育園", "P29_005": "鹿児島県鹿屋市寿4-8-14", "P29_006": "4", "P29_007": "0", "P29_008": "00", "P29_009": null }, "geometry": { "type": "Point", "coordinates": [ 130.877506863606953, 31.392812317278015 ] } },
{ "type": "Feature", "properties": { "P29_001": "46210", "P29_002": "A246310001969", "P29_003": "16013", "P29_004": "幼保連携型認定こども園せいあこども園", "P29_005": "鹿児島県指宿市十二町541", "P29_006": "4", "P29_007": "0", "P29_008": "00", "P29_009": null }, "geometry": { "type": "Point", "coordinates": [ 130.640397185825975, 31.238988673956296 ] } },
{ "type": "Feature", "properties": { "P29_001": "46215", "P29_002": "A246310001978", "P29_003": "16013", "P29_004": "高江こども園", "P29_005": "鹿児島県薩摩川内市高江町1875", "P29_006": "4", "P29_007": "0", "P29_008": "00", "P29_009": null }, "geometry": { "type": "Point", "coordinates": [ 130.253519956743105, 31.823601004099977 ] } },
{ "type": "Feature", "properties": { "P29_001": "46216", "P29_002": "A246310001987", "P29_003": "16013", "P29_004": "吹上中央こども園", "P29_005": "鹿児島県日置市吹上町小牧田1793", "P29_006": "4", "P29_007": "0", "P29_008": "00", "P29_009": null }, "geometry": { "type": "Point", "coordinates": [ 130.356119260713115, 31.508431427781559 ] } },
{ "type": "Feature", "properties": { "P29_001": "46217", "P29_002": "A246310001996", "P29_003": "16013", "P29_004": "幼保連携型認定こども園樹心こども園", "P29_005": "鹿児島県曽於市末吉町二之方2125", "P29_006": "4", "P29_007": "0", "P29_008": "00", "P29_009": null }, "geometry": { "type": "Point", "coordinates": [ 131.021905884322223, 31.654422059160833 ] } },
{ "type": "Feature", "properties": { "P29_001": "46217", "P29_002": "A246310002003", "P29_003": "16013", "P29_004": "幼保連携型認定こども園太陽の子幼児園", "P29_005": "鹿児島県曽於市大隅町月野2243-1", "P29_006": "4", "P29_007": "0", "P29_008": "00", "P29_009": null }, "geometry": { "type": "Point", "coordinates": [ 131.004211297839305, 31.580898183137826 ] } },
{ "type": "Feature", "properties": { "P29_001": "46218", "P29_002": "A246310002012", "P29_003": "16013", "P29_004": "認定こども園さくら", "P29_005": "鹿児島県霧島市国分野口東1-18", "P29_006": "4", "P29_007": "0", "P29_008": "00", "P29_009": null }, "geometry": { "type": "Point", "coordinates": [ 130.758144311657844, 31.738737914539637 ] } },
{ "type": "Feature", "properties": { "P29_001": "46392", "P29_002": "A246310002021", "P29_003": "16013", "P29_004": "錦光こども園", "P29_005": "鹿児島県薩摩郡さつま町求名2735-7", "P29_006": "4", "P29_007": "0", "P29_008": "00", "P29_009": null }, "geometry": { "type": "Point", "coordinates": [ 130.531447035894502, 31.940243751646545 ] } },
{ "type": "Feature", "properties": { "P29_001": "46452", "P29_002": "A246310002030", "P29_003": "16013", "P29_004": "二ッ葉認定こども園", "P29_005": "鹿児島県姶良郡湧水町北方805", "P29_006": "4", "P29_007": "0", "P29_008": "00", "P29_009": null }, "geometry": { "type": "Point", "coordinates": [ 130.713706443718536, 31.954302756233865 ] } },
{ "type": "Feature", "properties": { "P29_001": "46490", "P29_002": "A246310002049", "P29_003": "16013", "P29_004": "幼保連携型認定こども園田代こども園", "P29_005": "鹿児島県肝属郡錦江町田代川原275-1", "P29_006": "4", "P29_007": "0", "P29_008": "00", "P29_009": null }, "geometry": { "type": "Point", "coordinates": [ 130.837590026251519, 31.190994897891382 ] } },
{ "type": "Feature", "properties": { "P29_001": "46505", "P29_002": "A246310002058", "P29_003": "16013", "P29_004": "幼保連携型認定こども園安房保育園", "P29_005": "鹿児島県熊毛郡屋久島町安房字向エ野2359-14", "P29_006": "4", "P29_007": "0", "P29_008": "00", "P29_009": null }, "geometry": { "type": "Point", "coordinates": [ 130.648084365123083, 30.312518711419727 ] } },
{ "type": "Feature", "properties": { "P29_001": "46532", "P29_002": "A246310002067", "P29_003": "16013", "P29_004": "幼保連携型わかば認定こども園", "P29_005": "鹿児島県大島郡伊仙町犬田布犬當778-3", "P29_006": "4", "P29_007": "0", "P29_008": "00", "P29_009": null }, "geometry": { "type": "Point", "coordinates": [ 128.909361570539772, 27.716071184097636 ] } },
{ "type": "Feature", "properties": { "P29_001": "46215", "P29_002": "A246310002076", "P29_003": "16013", "P29_004": "川内すわこども園ＳＥＣＯＮＤ", "P29_005": "鹿児島県薩摩川内市中郷3-327-1", "P29_006": "4", "P29_007": "0", "P29_008": "00", "P29_009": null }, "geometry": { "type": "Point", "coordinates": [ 130.316986629715529, 31.838527241240598 ] } },
{ "type": "Feature", "properties": { "P29_001": "46215", "P29_002": "A246310002085", "P29_003": "16013", "P29_004": "川内こども園", "P29_005": "鹿児島県薩摩川内市田崎町208-1", "P29_006": "4", "P29_007": "0", "P29_008": "00", "P29_009": null }, "geometry": { "type": "Point", "coordinates": [ 130.331748822700831, 31.812304736825137 ] } },
{ "type": "Feature", "properties": { "P29_001": "46201", "P29_002": "A246310002094", "P29_003": "16013", "P29_004": "ちはなこども園", "P29_005": "鹿児島県鹿児島市吉野町5652-1", "P29_006": "4", "P29_007": "0", "P29_008": "00", "P29_009": null }, "geometry": { "type": "Point", "coordinates": [ 130.583261630683523, 31.63735622070962 ] } },
{ "type": "Feature", "properties": { "P29_001": "46201", "P29_002": "A246310002101", "P29_003": "16013", "P29_004": "幼保連携型認定こども園光愛こども園", "P29_005": "鹿児島県鹿児島市西陵3-9-3", "P29_006": "4", "P29_007": "0", "P29_008": "00", "P29_009": null }, "geometry": { "type": "Point", "coordinates": [ 130.511426270275109, 31.582342227813022 ] } },
{ "type": "Feature", "properties": { "P29_001": "46201", "P29_002": "A246310002110", "P29_003": "16013", "P29_004": "幼保連携型認定こども園光愛こども園あいあい", "P29_005": "鹿児島県鹿児島市西陵3-19-7", "P29_006": "4", "P29_007": "0", "P29_008": "00", "P29_009": null }, "geometry": { "type": "Point", "coordinates": [ 130.512396490933781, 31.582541037437093 ] } },
{ "type": "Feature", "properties": { "P29_001": "46201", "P29_002": "A246310002129", "P29_003": "16013", "P29_004": "いちご認定こども園", "P29_005": "鹿児島県鹿児島市皇徳寺台1-30-2", "P29_006": "4", "P29_007": "0", "P29_008": "00", "P29_009": null }, "geometry": { "type": "Point", "coordinates": [ 130.496164410422665, 31.558656082738565 ] } },
{ "type": "Feature", "properties": { "P29_001": "46201", "P29_002": "A246310002138", "P29_003": "16013", "P29_004": "幼保連携型認定こども園おひさまこども園", "P29_005": "鹿児島県鹿児島市小原町12-1", "P29_006": "4", "P29_007": "0", "P29_008": "00", "P29_009": null }, "geometry": { "type": "Point", "coordinates": [ 130.529026779877853, 31.542304770084559 ] } },
{ "type": "Feature", "properties": { "P29_001": "46201", "P29_002": "A246310002147", "P29_003": "16013", "P29_004": "桜ヶ丘こども園", "P29_005": "鹿児島県鹿児島市桜ヶ丘6-47-1", "P29_006": "4", "P29_007": "0", "P29_008": "00", "P29_009": null }, "geometry": { "type": "Point", "coordinates": [ 130.522606953619515, 31.545509200869972 ] } },
{ "type": "Feature", "properties": { "P29_001": "46201", "P29_002": "A246310002156", "P29_003": "16013", "P29_004": "幼保連携型認定こども園錦城幼稚園", "P29_005": "鹿児島県鹿児島市星ヶ峯2-2-1", "P29_006": "4", "P29_007": "0", "P29_008": "00", "P29_009": null }, "geometry": { "type": "Point", "coordinates": [ 130.498301367803151, 31.573896304703904 ] } },
{ "type": "Feature", "properties": { "P29_001": "46201", "P29_002": "A246310002165", "P29_003": "16013", "P29_004": "幼保連携型認定こども園こまつばら幼稚園", "P29_005": "鹿児島県鹿児島市小松原2-10-4", "P29_006": "4", "P29_007": "0", "P29_008": "00", "P29_009": null }, "geometry": { "type": "Point", "coordinates": [ 130.528198001907668, 31.529057003646624 ] } },
{ "type": "Feature", "properties": { "P29_001": "46203", "P29_002": "A246310002174", "P29_003": "16013", "P29_004": "高隈こども園", "P29_005": "鹿児島県鹿屋市上高隈町77", "P29_006": "4", "P29_007": "0", "P29_008": "00", "P29_009": null }, "geometry": { "type": "Point", "coordinates": [ 130.874744971400332, 31.48870646699919 ] } },
{ "type": "Feature", "properties": { "P29_001": "46208", "P29_002": "A246310002183", "P29_003": "16013", "P29_004": "幼保連携型認定こども園ふくのえこども園", "P29_005": "鹿児島県出水市福ノ江町1030", "P29_006": "4", "P29_007": "0", "P29_008": "00", "P29_009": null }, "geometry": { "type": "Point", "coordinates": [ 130.316338921430827, 32.102608775902908 ] } },
{ "type": "Feature", "properties": { "P29_001": "46215", "P29_002": "A246310002209", "P29_003": "16013", "P29_004": "せいくんこども園", "P29_005": "鹿児島県薩摩川内市平佐町2843-1", "P29_006": "4", "P29_007": "0", "P29_008": "00", "P29_009": null }, "geometry": { "type": "Point", "coordinates": [ 130.313942863705819, 31.816491016913236 ] } },
{ "type": "Feature", "properties": { "P29_001": "46215", "P29_002": "A246310002218", "P29_003": "16013", "P29_004": "あいこども園", "P29_005": "鹿児島県薩摩川内市天辰町第57街区1", "P29_006": "4", "P29_007": "0", "P29_008": "00", "P29_009": null }, "geometry": { "type": "Point", "coordinates": [ 130.326149583663238, 31.827666919635195 ] } },
{ "type": "Feature", "properties": { "P29_001": "46217", "P29_002": "A246310002227", "P29_003": "16013", "P29_004": "りんこうこども園", "P29_005": "鹿児島県曽於市末吉町岩崎2122-2", "P29_006": "4", "P29_007": "0", "P29_008": "00", "P29_009": null }, "geometry": { "type": "Point", "coordinates": [ 131.002098572723582, 31.595544202153292 ] } },
{ "type": "Feature", "properties": { "P29_001": "46217", "P29_002": "A246310002236", "P29_003": "16013", "P29_004": "きらりの星こども園", "P29_005": "鹿児島県曽於市末吉町上町2-1-10", "P29_006": "4", "P29_007": "0", "P29_008": "00", "P29_009": null }, "geometry": { "type": "Point", "coordinates": [ 131.024608717375543, 31.651456819151115 ] } },
{ "type": "Feature", "properties": { "P29_001": "46218", "P29_002": "A246310002245", "P29_003": "16013", "P29_004": "きよみず認定こども園", "P29_005": "鹿児島県霧島市国分清水1-507-1", "P29_006": "4", "P29_007": "0", "P29_008": "00", "P29_009": null }, "geometry": { "type": "Point", "coordinates": [ 130.773926019513453, 31.751396729962426 ] } },
{ "type": "Feature", "properties": { "P29_001": "46218", "P29_002": "A246310002254", "P29_003": "16013", "P29_004": "しおんこども園", "P29_005": "鹿児島県霧島市国分中央3-22-23", "P29_006": "4", "P29_007": "0", "P29_008": "00", "P29_009": null }, "geometry": { "type": "Point", "coordinates": [ 130.766606384168739, 31.736821998770296 ] } },
{ "type": "Feature", "properties": { "P29_001": "46223", "P29_002": "A246310002263", "P29_003": "16013", "P29_004": "こばとこども園", "P29_005": "鹿児島県南九州市川辺町平山2533", "P29_006": "4", "P29_007": "0", "P29_008": "00", "P29_009": null }, "geometry": { "type": "Point", "coordinates": [ 130.390967118478414, 31.395171203138684 ] } },
{ "type": "Feature", "properties": { "P29_001": "46224", "P29_002": "A246310002272", "P29_003": "16013", "P29_004": "さくらの里こども園", "P29_005": "鹿児島県伊佐市大口大田字吉竹58-1", "P29_006": "4", "P29_007": "0", "P29_008": "00", "P29_009": null }, "geometry": { "type": "Point", "coordinates": [ 130.602787096821402, 32.065445445415349 ] } },
{ "type": "Feature", "properties": { "P29_001": "46224", "P29_002": "A246310002281", "P29_003": "16013", "P29_004": "大口さくらこども園", "P29_005": "鹿児島県伊佐市大口里字寺師池460-1", "P29_006": "4", "P29_007": "0", "P29_008": "00", "P29_009": null }, "geometry": { "type": "Point", "coordinates": [ 130.602799043235336, 32.059774289177568 ] } },
{ "type": "Feature", "properties": { "P29_001": "46224", "P29_002": "A246310002290", "P29_003": "16013", "P29_004": "こうようこども園", "P29_005": "鹿児島県伊佐市大口曽木字片平1827-1", "P29_006": "4", "P29_007": "0", "P29_008": "00", "P29_009": null }, "geometry": { "type": "Point", "coordinates": [ 130.600013013765363, 32.003003216026997 ] } },
{ "type": "Feature", "properties": { "P29_001": "46224", "P29_002": "A246310002307", "P29_003": "16013", "P29_004": "みどり認定こども園", "P29_005": "鹿児島県伊佐市大口里1842-2", "P29_006": "4", "P29_007": "0", "P29_008": "00", "P29_009": null }, "geometry": { "type": "Point", "coordinates": [ 130.614572765333833, 32.055466202835227 ] } },
{ "type": "Feature", "properties": { "P29_001": "46224", "P29_002": "A246310002316", "P29_003": "16013", "P29_004": "ひまわり認定こども園", "P29_005": "鹿児島県伊佐市大口里783-4", "P29_006": "4", "P29_007": "0", "P29_008": "00", "P29_009": null }, "geometry": { "type": "Point", "coordinates": [ 130.608926805517058, 32.055708934910491 ] } },
{ "type": "Feature", "properties": { "P29_001": "46224", "P29_002": "A246310002325", "P29_003": "16013", "P29_004": "田中認定こども園", "P29_005": "鹿児島県伊佐市菱刈重留1526-2", "P29_006": "4", "P29_007": "0", "P29_008": "00", "P29_009": null }, "geometry": { "type": "Point", "coordinates": [ 130.642489940951464, 32.03888942723443 ] } },
{ "type": "Feature", "properties": { "P29_001": "46224", "P29_002": "A246310002334", "P29_003": "16013", "P29_004": "本城こども園", "P29_005": "鹿児島県伊佐市菱刈南浦290-7", "P29_006": "4", "P29_007": "0", "P29_008": "00", "P29_009": null }, "geometry": { "type": "Point", "coordinates": [ 130.638957574992901, 31.987656162108934 ] } },
{ "type": "Feature", "properties": { "P29_001": "46224", "P29_002": "A246310002343", "P29_003": "16013", "P29_004": "あゆみ未来こども園", "P29_005": "鹿児島県伊佐市大口里2602", "P29_006": "4", "P29_007": "0", "P29_008": "00", "P29_009": null }, "geometry": { "type": "Point", "coordinates": [ 130.61031501525224, 32.066541593982258 ] } },
{ "type": "Feature", "properties": { "P29_001": "46392", "P29_002": "A246310002352", "P29_003": "16013", "P29_004": "恵光保育園", "P29_005": "鹿児島県薩摩郡さつま町中津川1986-1", "P29_006": "4", "P29_007": "0", "P29_008": "00", "P29_009": null }, "geometry": { "type": "Point", "coordinates": [ 130.543026328729496, 31.905922873841547 ] } },
{ "type": "Feature", "properties": { "P29_001": "46223", "P29_002": "A246310002361", "P29_003": "16013", "P29_004": "社会福祉法人知覧二葉福祉会幼保連携型認定こども園大心寺二葉保育園", "P29_005": "鹿児島県南九州市知覧町郡16758-2", "P29_006": "4", "P29_007": "0", "P29_008": "00", "P29_009": null }, "geometry": { "type": "Point", "coordinates": [ 130.439942172613002, 31.3784997953382 ] } },
{ "type": "Feature", "properties": { "P29_001": "46225", "P29_002": "A246310002370", "P29_003": "16013", "P29_004": "社会福祉法人太陽の風幼保連携型認定こども園太陽の子どもたち", "P29_005": "鹿児島県姶良市平松3032-1", "P29_006": "4", "P29_007": "0", "P29_008": "00", "P29_009": null }, "geometry": { "type": "Point", "coordinates": [ 130.605996701427728, 31.720415724260196 ] } },
{ "type": "Feature", "properties": { "P29_001": "46225", "P29_002": "A246310002389", "P29_003": "16013", "P29_004": "社会福祉法人実窓寺福祉会かじのきこども園", "P29_005": "鹿児島県姶良市加治木町3453-7", "P29_006": "4", "P29_007": "0", "P29_008": "00", "P29_009": null }, "geometry": { "type": "Point", "coordinates": [ 130.648717605277511, 31.747526220015327 ] } },
{ "type": "Feature", "properties": { "P29_001": "46532", "P29_002": "A246310002398", "P29_003": "16013", "P29_004": "社会福祉法人敬天会おもなわこども園", "P29_005": "鹿児島県大島郡伊仙町大字面縄1977", "P29_006": "4", "P29_007": "0", "P29_008": "00", "P29_009": null }, "geometry": { "type": "Point", "coordinates": [ 128.970174985752777, 27.675450829413627 ] } },
{ "type": "Feature", "properties": { "P29_001": "46201", "P29_002": "A246310002405", "P29_003": "16013", "P29_004": "学校法人福丸学園幼保連携型認定こども園武岡みらいえこども園", "P29_005": "鹿児島県鹿児島市武岡5-26-6", "P29_006": "4", "P29_007": "0", "P29_008": "00", "P29_009": null }, "geometry": { "type": "Point", "coordinates": [ 130.50748081529315, 31.59660248147625 ] } },
{ "type": "Feature", "properties": { "P29_001": "46215", "P29_002": "A246310002414", "P29_003": "16013", "P29_004": "社会福祉法人水引福祉協会水引こども園", "P29_005": "鹿児島県薩摩川内市水引町4795", "P29_006": "4", "P29_007": "0", "P29_008": "00", "P29_009": null }, "geometry": { "type": "Point", "coordinates": [ 130.243463221349288, 31.845517504816492 ] } },
{ "type": "Feature", "properties": { "P29_001": "46225", "P29_002": "A246310002423", "P29_003": "16013", "P29_004": "社会福祉法人太陽の風幼保連携型認定こども園蒲生てんてんこども園", "P29_005": "鹿児島県姶良市蒲生町上久徳1194-18", "P29_006": "4", "P29_007": "0", "P29_008": "00", "P29_009": null }, "geometry": { "type": "Point", "coordinates": [ 130.575409647633961, 31.761632771096778 ] } },
{ "type": "Feature", "properties": { "P29_001": "46208", "P29_002": "A246310002432", "P29_003": "16013", "P29_004": "出水中央こども園", "P29_005": "鹿児島県出水市西出水町1425", "P29_006": "4", "P29_007": "0", "P29_008": "00", "P29_009": null }, "geometry": { "type": "Point", "coordinates": [ 130.336965779397133, 32.073406025431119 ] } },
{ "type": "Feature", "properties": { "P29_001": "46218", "P29_002": "A246310002441", "P29_003": "16013", "P29_004": "のぐち童夢園", "P29_005": "鹿児島県霧島市霧島市国分野口西9-45", "P29_006": "4", "P29_007": "0", "P29_008": "00", "P29_009": null }, "geometry": { "type": "Point", "coordinates": [ 130.743032462740359, 31.738038172818239 ] } },
{ "type": "Feature", "properties": { "P29_001": "46527", "P29_002": "A246310002450", "P29_003": "16013", "P29_004": "健児こども園", "P29_005": "鹿児島県大島郡龍郷町瀬留1185-4", "P29_006": "4", "P29_007": "0", "P29_008": "00", "P29_009": null }, "geometry": { "type": "Point", "coordinates": [ 129.585252043052094, 28.402270848258887 ] } },
{ "type": "Feature", "properties": { "P29_001": "46217", "P29_002": "A246310002469", "P29_003": "16013", "P29_004": "おひさまの杜こども園", "P29_005": "鹿児島県曽於市大隅町岩川5565", "P29_006": "4", "P29_007": "0", "P29_008": "00", "P29_009": null }, "geometry": { "type": "Point", "coordinates": [ 130.989549380474131, 31.595397061440696 ] } },
{ "type": "Feature", "properties": { "P29_001": "46201", "P29_002": "A246310002478", "P29_003": "16013", "P29_004": "すみれこども園", "P29_005": "鹿児島県鹿児島市和田1-9-3", "P29_006": "4", "P29_007": "0", "P29_008": "00", "P29_009": null }, "geometry": { "type": "Point", "coordinates": [ 130.514380512950936, 31.513221673027047 ] } },
{ "type": "Feature", "properties": { "P29_001": "46201", "P29_002": "A246310002487", "P29_003": "16013", "P29_004": "錦ヶ丘ｎｅｏ", "P29_005": "鹿児島県鹿児島市吉野町2223-6", "P29_006": "4", "P29_007": "0", "P29_008": "00", "P29_009": null }, "geometry": { "type": "Point", "coordinates": [ 130.570609334789282, 31.638472921687448 ] } }
]
}
