{
"type": "FeatureCollection",
"name": "geo_46_通所リハビリテーション",
"crs": { "type": "name", "properties": { "name": "urn:ogc:def:crs:OGC:1.3:CRS84" } },
"features": [
{ "type": "Feature", "properties": { "内容": "仁愛会病院通所リハビリテーション【通所リハビリテーション】鹿児島県鹿児島市南栄5丁目10-195Ｆ", "url": "https://www.kaigokensaku.mhlw.go.jp/46/index.php?action_kouhyou_detail_004_kani=true&JigyosyoCd=4610126312-00&ServiceCd=160&Type=search", "url2": "http://www.jinaikai.com" }, "geometry": { "type": "Point", "coordinates": [ 130.517997350926208, 31.507005387111736 ] } },
{ "type": "Feature", "properties": { "内容": "とよやまクリニック【通所リハビリテーション】鹿児島県鹿児島市紫原７丁目１４番２号", "url": "https://www.kaigokensaku.mhlw.go.jp/46/index.php?action_kouhyou_detail_004_kani=true&JigyosyoCd=4610126627-00&ServiceCd=160&Type=search", "url2": null }, "geometry": { "type": "Point", "coordinates": [ 130.525129900000024, 31.5661229 ] } },
{ "type": "Feature", "properties": { "内容": "医療法人　慈恵会　城西ナーシングホーム　通所リハビリテーション【通所リハビリテーション】鹿児島市西田１丁目１６番地１", "url": "https://www.kaigokensaku.mhlw.go.jp/46/index.php?action_kouhyou_detail_004_kani=true&JigyosyoCd=4650180039-00&ServiceCd=160&Type=search", "url2": "http//www.jikeikai.net" }, "geometry": { "type": "Point", "coordinates": [ 130.543403, 31.5887818 ] } },
{ "type": "Feature", "properties": { "内容": "医療法人　仁風会　介護老人保健施設　西千石【通所リハビリテーション】鹿児島市西千石町８番１３号", "url": "https://www.kaigokensaku.mhlw.go.jp/46/index.php?action_kouhyou_detail_004_kani=true&JigyosyoCd=4650180112-00&ServiceCd=160&Type=search", "url2": "http://www.jinpuh.or.jp" }, "geometry": { "type": "Point", "coordinates": [ 130.5481221, 31.5883737 ] } },
{ "type": "Feature", "properties": { "内容": "安松整形外科　通所リハビリテーション【通所リハビリテーション】鹿児島県鹿児島市西田３丁目１３番２０号", "url": "https://www.kaigokensaku.mhlw.go.jp/46/index.php?action_kouhyou_detail_004_kani=true&JigyosyoCd=4610118319-00&ServiceCd=160&Type=search", "url2": null }, "geometry": { "type": "Point", "coordinates": [ 130.538591700000012, 31.5859874 ] } },
{ "type": "Feature", "properties": { "内容": "丸山整形外科【通所リハビリテーション】鹿児島市郡山町505番地3", "url": "https://www.kaigokensaku.mhlw.go.jp/46/index.php?action_kouhyou_detail_004_kani=true&JigyosyoCd=4610123608-00&ServiceCd=160&Type=search", "url2": "https://maruyamaseikeigeka.jp" }, "geometry": { "type": "Point", "coordinates": [ 130.475793399999958, 31.6710307 ] } },
{ "type": "Feature", "properties": { "内容": "デイケア　さくら【通所リハビリテーション】鹿児島市南郡元町24-15", "url": "https://www.kaigokensaku.mhlw.go.jp/46/index.php?action_kouhyou_detail_004_kani=true&JigyosyoCd=4610125595-00&ServiceCd=160&Type=search", "url2": "http://www.nissyoukai.or.jp" }, "geometry": { "type": "Point", "coordinates": [ 130.54415419999998, 31.5524303 ] } },
{ "type": "Feature", "properties": { "内容": "医療法人まこと会　はっぴー・クリニック　通所リハビリテーション【通所リハビリテーション】鹿児島市坂之上4丁目5番6号はっぴーデイケア", "url": "https://www.kaigokensaku.mhlw.go.jp/46/index.php?action_kouhyou_detail_004_kani=true&JigyosyoCd=4610124606-00&ServiceCd=160&Type=search", "url2": "http://happy-clinic-medical.com/index.html" }, "geometry": { "type": "Point", "coordinates": [ 130.505170264417956, 31.50123251478788 ] } },
{ "type": "Feature", "properties": { "内容": "健翔会病院【通所リハビリテーション】鹿児島県鹿児島市東郡元町５－１０", "url": "https://www.kaigokensaku.mhlw.go.jp/46/index.php?action_kouhyou_detail_004_kani=true&JigyosyoCd=4610125934-00&ServiceCd=160&Type=search", "url2": "https://kensho-kai.or.jp" }, "geometry": { "type": "Point", "coordinates": [ 130.549916390213014, 31.554861428767762 ] } },
{ "type": "Feature", "properties": { "内容": "介護老人保健施設　吉田ナーシングホーム　通所リハビリテーション【通所リハビリテーション】鹿児島市本名町472番地吉田ナーシングホーム", "url": "https://www.kaigokensaku.mhlw.go.jp/46/index.php?action_kouhyou_detail_004_kani=true&JigyosyoCd=4652180011-00&ServiceCd=160&Type=search", "url2": "https://nurshing.sekisaikai.jp" }, "geometry": { "type": "Point", "coordinates": [ 130.546221, 31.6922444 ] } },
{ "type": "Feature", "properties": { "内容": "石原山下整形外科内科医院【通所リハビリテーション】鹿児島市皷川町5-10", "url": "https://www.kaigokensaku.mhlw.go.jp/46/index.php?action_kouhyou_detail_004_kani=true&JigyosyoCd=4610122931-00&ServiceCd=160&Type=search", "url2": "http://www.ishihara-y.com" }, "geometry": { "type": "Point", "coordinates": [ 130.564312277384943, 31.611045688920129 ] } },
{ "type": "Feature", "properties": { "内容": "きいれ浜田クリニック【通所リハビリテーション】鹿児島市喜入町6988番地1", "url": "https://www.kaigokensaku.mhlw.go.jp/46/index.php?action_kouhyou_detail_004_kani=true&JigyosyoCd=4610123558-00&ServiceCd=160&Type=search", "url2": "http://hamada-gr.jp/" }, "geometry": { "type": "Point", "coordinates": [ 130.540833600000042, 31.3738292 ] } },
{ "type": "Feature", "properties": { "内容": "福祉生活協同組合むぎのめ　ひとむぎ診療所【通所リハビリテーション】鹿児島県鹿児島市吉野1丁目40-26", "url": "https://www.kaigokensaku.mhlw.go.jp/46/index.php?action_kouhyou_detail_004_kani=true&JigyosyoCd=4610127518-00&ServiceCd=160&Type=search", "url2": null }, "geometry": { "type": "Point", "coordinates": [ 130.566212, 31.6505295 ] } },
{ "type": "Feature", "properties": { "内容": "伊敷台内科　通所リハビリテーション　福の里【通所リハビリテーション】鹿児島県鹿児島市伊敷台４丁目７番１７号", "url": "https://www.kaigokensaku.mhlw.go.jp/46/index.php?action_kouhyou_detail_004_kani=true&JigyosyoCd=4610122543-00&ServiceCd=160&Type=search", "url2": null }, "geometry": { "type": "Point", "coordinates": [ 130.536410199999978, 31.628703 ] } },
{ "type": "Feature", "properties": { "内容": "整形外科福村クリニック【通所リハビリテーション】鹿児島市武岡1丁目116-24", "url": "https://www.kaigokensaku.mhlw.go.jp/46/index.php?action_kouhyou_detail_004_kani=true&JigyosyoCd=4610124515-00&ServiceCd=160&Type=search", "url2": null }, "geometry": { "type": "Point", "coordinates": [ 130.5253842, 31.5868837 ] } },
{ "type": "Feature", "properties": { "内容": "整形外科吉野台クリニック　通所リハビリテーション【通所リハビリテーション】鹿児島市吉野町１４８６－１", "url": "https://www.kaigokensaku.mhlw.go.jp/46/index.php?action_kouhyou_detail_004_kani=true&JigyosyoCd=4610123723-00&ServiceCd=160&Type=search", "url2": "http://www.syunwakai.jp/" }, "geometry": { "type": "Point", "coordinates": [ 130.571407733085607, 31.629279946737459 ] } },
{ "type": "Feature", "properties": { "内容": "かばやま整形外科【通所リハビリテーション】鹿児島県鹿児島市吉野町2286番地", "url": "https://www.kaigokensaku.mhlw.go.jp/46/index.php?action_kouhyou_detail_004_kani=true&JigyosyoCd=4610123889-00&ServiceCd=160&Type=search", "url2": "https://kabayama-seikei.wixsite.com/kabayama-seikei" }, "geometry": { "type": "Point", "coordinates": [ 130.5673243, 31.6390995 ] } },
{ "type": "Feature", "properties": { "内容": "医療法人梅津整形外科医院【通所リハビリテーション】鹿児島県鹿児島市吉野二丁目１４－１５", "url": "https://www.kaigokensaku.mhlw.go.jp/46/index.php?action_kouhyou_detail_004_kani=true&JigyosyoCd=4610124424-00&ServiceCd=160&Type=search", "url2": "umezuseikei.com" }, "geometry": { "type": "Point", "coordinates": [ 130.567259700000022, 31.6567256 ] } },
{ "type": "Feature", "properties": { "内容": "医療法人徳洲会　介護老人保健施設　光徳苑【通所リハビリテーション】谷山中央2-4515", "url": "https://www.kaigokensaku.mhlw.go.jp/46/index.php?action_kouhyou_detail_004_kani=true&JigyosyoCd=4650180195-00&ServiceCd=160&Type=search", "url2": "https://www.tokushukai.or.jp" }, "geometry": { "type": "Point", "coordinates": [ 130.5193696, 31.5230589 ] } },
{ "type": "Feature", "properties": { "内容": "医療法人木村外科内科　通所リハビリテーション【通所リハビリテーション】鹿児島市石谷町2101番地7", "url": "https://www.kaigokensaku.mhlw.go.jp/46/index.php?action_kouhyou_detail_004_kani=true&JigyosyoCd=4610123632-00&ServiceCd=160&Type=search", "url2": "kimuragekanaika.com" }, "geometry": { "type": "Point", "coordinates": [ 130.463573499999939, 31.5959421 ] } },
{ "type": "Feature", "properties": { "内容": "通所ﾘﾊﾋﾞﾘﾃｰｼｮﾝらんらん【通所リハビリテーション】鹿児島市伊敷5丁目18番1号健成ビル", "url": "https://www.kaigokensaku.mhlw.go.jp/46/index.php?action_kouhyou_detail_004_kani=true&JigyosyoCd=4670112855-00&ServiceCd=160&Type=search", "url2": null }, "geometry": { "type": "Point", "coordinates": [ 130.5263871, 31.6269687 ] } },
{ "type": "Feature", "properties": { "内容": "医療法人信和会　整形外科みなと大通りクリニック【通所リハビリテーション】鹿児島県鹿児島市易居町1-34リミビル1F", "url": "https://www.kaigokensaku.mhlw.go.jp/46/index.php?action_kouhyou_detail_004_kani=true&JigyosyoCd=4610128151-00&ServiceCd=160&Type=search", "url2": "minato-st.jp" }, "geometry": { "type": "Point", "coordinates": [ 130.5585825, 31.5964346 ] } },
{ "type": "Feature", "properties": { "内容": "わきだ整形外科通所リハビリふれあいの森【通所リハビリテーション】東谷山3-33-7", "url": "https://www.kaigokensaku.mhlw.go.jp/46/index.php?action_kouhyou_detail_004_kani=true&JigyosyoCd=4610117766-00&ServiceCd=160&Type=search", "url2": "http://wakida.org" }, "geometry": { "type": "Point", "coordinates": [ 130.517110399999979, 31.5296464 ] } },
{ "type": "Feature", "properties": { "内容": "豊島病院【通所リハビリテーション】鹿児島市下荒田三丁目２７番１号", "url": "https://www.kaigokensaku.mhlw.go.jp/46/index.php?action_kouhyou_detail_004_kani=true&JigyosyoCd=4610115919-00&ServiceCd=160&Type=search", "url2": "http://keishinkai-med.jp/" }, "geometry": { "type": "Point", "coordinates": [ 130.552589099999977, 31.5710037 ] } },
{ "type": "Feature", "properties": { "内容": "かめざわ整形外科【通所リハビリテーション】中山町1225-1かめざわ整形外科", "url": "https://www.kaigokensaku.mhlw.go.jp/46/index.php?action_kouhyou_detail_004_kani=true&JigyosyoCd=4610120976-00&ServiceCd=160&Type=search", "url2": null }, "geometry": { "type": "Point", "coordinates": [ 130.502469799999972, 31.5496664 ] } },
{ "type": "Feature", "properties": { "内容": "橋口整形外科【通所リハビリテーション】鹿児島県鹿児島市小松原一丁目４１番３号", "url": "https://www.kaigokensaku.mhlw.go.jp/46/index.php?action_kouhyou_detail_004_kani=true&JigyosyoCd=4670112145-00&ServiceCd=160&Type=search", "url2": "https://hashi-seikei.jp/" }, "geometry": { "type": "Point", "coordinates": [ 130.531483799999933, 31.5343154 ] } },
{ "type": "Feature", "properties": { "内容": "通所リハビリテーション　ウェルネスじあい【通所リハビリテーション】鹿児島県鹿児島市堀江町3番3号ウェルネスじあい4階", "url": "https://www.kaigokensaku.mhlw.go.jp/46/index.php?action_kouhyou_detail_004_kani=true&JigyosyoCd=4610119739-00&ServiceCd=160&Type=search", "url2": "https://www.jiaikai.or.jp/idzuro-imamura/medicalhouse" }, "geometry": { "type": "Point", "coordinates": [ 130.559454599999981, 31.5910931 ] } },
{ "type": "Feature", "properties": { "内容": "医療法人博康会　アクラス中央病院　通所リハビリテーション【通所リハビリテーション】鹿児島県鹿児島市武岡1丁目121番5号", "url": "https://www.kaigokensaku.mhlw.go.jp/46/index.php?action_kouhyou_detail_004_kani=true&JigyosyoCd=4610126437-00&ServiceCd=160&Type=search", "url2": "https://acras-hp.com/" }, "geometry": { "type": "Point", "coordinates": [ 130.526707171163906, 31.586313396917649 ] } },
{ "type": "Feature", "properties": { "内容": "萩原整形外科通所リハビリテーション【通所リハビリテーション】鹿児島県鹿児島市西谷山ニ丁目7番38号", "url": "https://www.kaigokensaku.mhlw.go.jp/46/index.php?action_kouhyou_detail_004_kani=true&JigyosyoCd=4610125090-00&ServiceCd=160&Type=search", "url2": null }, "geometry": { "type": "Point", "coordinates": [ 130.5060257, 31.520966399999967 ] } },
{ "type": "Feature", "properties": { "内容": "三船病院　通所リハセンター【通所リハビリテーション】鹿児島市吉野町１０００４番地１", "url": "https://www.kaigokensaku.mhlw.go.jp/46/index.php?action_kouhyou_detail_004_kani=true&JigyosyoCd=4610110985-00&ServiceCd=160&Type=search", "url2": "http://www.toufuukai.jp/" }, "geometry": { "type": "Point", "coordinates": [ 130.600847700000031, 31.6333809 ] } },
{ "type": "Feature", "properties": { "内容": "介護老人保健施設　愛と結の街【通所リハビリテーション】鹿児島市小原町8-3", "url": "https://www.kaigokensaku.mhlw.go.jp/46/index.php?action_kouhyou_detail_004_kani=true&JigyosyoCd=4650180070-00&ServiceCd=160&Type=search", "url2": "http://www.jiaikai.or.jp/aitoyui/" }, "geometry": { "type": "Point", "coordinates": [ 130.531036299999982, 31.5418619 ] } },
{ "type": "Feature", "properties": { "内容": "児玉整形外科クリニック　通所リハビリテーション【通所リハビリテーション】鹿児島市谷山中央１丁目５００２番地", "url": "https://www.kaigokensaku.mhlw.go.jp/46/index.php?action_kouhyou_detail_004_kani=true&JigyosyoCd=4610124986-00&ServiceCd=160&Type=search", "url2": "http://www.kodamaseikeigekaclinic.com" }, "geometry": { "type": "Point", "coordinates": [ 130.515960700000051, 31.5233608 ] } },
{ "type": "Feature", "properties": { "内容": "介護老人保健施設　ナーシングホーム城山の森　通所リハビリテーション【通所リハビリテーション】鹿児島県鹿児島市長田町２２３番地", "url": "https://www.kaigokensaku.mhlw.go.jp/46/index.php?action_kouhyou_detail_004_kani=true&JigyosyoCd=4650180153-00&ServiceCd=160&Type=search", "url2": "htt:/www.shiroyamanomori.com/" }, "geometry": { "type": "Point", "coordinates": [ 130.549778873232952, 31.600891373136648 ] } },
{ "type": "Feature", "properties": { "内容": "谷山生協クリニック【通所リハビリテーション】鹿児島市谷山中央5-21-22", "url": "https://www.kaigokensaku.mhlw.go.jp/46/index.php?action_kouhyou_detail_004_kani=true&JigyosyoCd=4610122675-00&ServiceCd=160&Type=search", "url2": "http://taniyama-seikyo.jp/" }, "geometry": { "type": "Point", "coordinates": [ 130.513430500000027, 31.5173363 ] } },
{ "type": "Feature", "properties": { "内容": "河井脳神経外科【通所リハビリテーション】鹿児島県鹿児島市小松原二丁目10番19号", "url": "https://www.kaigokensaku.mhlw.go.jp/46/index.php?action_kouhyou_detail_004_kani=true&JigyosyoCd=4610123004-00&ServiceCd=160&Type=search", "url2": "http://www.kawai-ns-hp.or.jp/" }, "geometry": { "type": "Point", "coordinates": [ 130.526820500000014, 31.5293798 ] } },
{ "type": "Feature", "properties": { "内容": "医療法人一誠会三宅病院【通所リハビリテーション】鹿児島県鹿児島市谷山中央7丁目3番1号", "url": "https://www.kaigokensaku.mhlw.go.jp/46/index.php?action_kouhyou_detail_004_kani=true&JigyosyoCd=4610116818-00&ServiceCd=160&Type=search", "url2": "http://www.miyake-hp.or.jp/" }, "geometry": { "type": "Point", "coordinates": [ 130.5142697, 31.5240594 ] } },
{ "type": "Feature", "properties": { "内容": "清泉クリニック整形外科内科通所リハビリテーションせいせん【通所リハビリテーション】鹿児島県鹿児島市住吉町12-16", "url": "https://www.kaigokensaku.mhlw.go.jp/46/index.php?action_kouhyou_detail_004_kani=true&JigyosyoCd=4610125355-00&ServiceCd=160&Type=search", "url2": "https://seisen.info/kagoshima/daycare/" }, "geometry": { "type": "Point", "coordinates": [ 130.561916577961938, 31.591551579512373 ] } },
{ "type": "Feature", "properties": { "内容": "米沢病院【通所リハビリテーション】鹿児島市新照院町19-8", "url": "https://www.kaigokensaku.mhlw.go.jp/46/index.php?action_kouhyou_detail_004_kani=true&JigyosyoCd=4610117493-00&ServiceCd=160&Type=search", "url2": "https://www.yonezawa.or.jp/" }, "geometry": { "type": "Point", "coordinates": [ 130.543355600000041, 31.5935674 ] } },
{ "type": "Feature", "properties": { "内容": "医療法人草清会　いいだクリック　通所リビリテーション【通所リハビリテーション】鹿児島市草牟田2-17-3", "url": "https://www.kaigokensaku.mhlw.go.jp/46/index.php?action_kouhyou_detail_004_kani=true&JigyosyoCd=4610121438-00&ServiceCd=160&Type=search", "url2": "http://www.iida-cl.com" }, "geometry": { "type": "Point", "coordinates": [ 130.5385973, 31.6029133 ] } },
{ "type": "Feature", "properties": { "内容": "上原クリニック通所リハビリテーション【通所リハビリテーション】鹿児島市山田町73番地5", "url": "https://www.kaigokensaku.mhlw.go.jp/46/index.php?action_kouhyou_detail_004_kani=true&JigyosyoCd=4610119267-00&ServiceCd=160&Type=search", "url2": "http://ueharaclinic.jp" }, "geometry": { "type": "Point", "coordinates": [ 130.503494499999988, 31.5530938 ] } },
{ "type": "Feature", "properties": { "内容": "桜島病院【通所リハビリテーション】野尻町59番地", "url": "https://www.kaigokensaku.mhlw.go.jp/46/index.php?action_kouhyou_detail_004_kani=true&JigyosyoCd=4610110811-00&ServiceCd=160&Type=search", "url2": "http://www.tenyoukai.org/sakurazima/index.html" }, "geometry": { "type": "Point", "coordinates": [ 130.616308500000059, 31.5685679 ] } },
{ "type": "Feature", "properties": { "内容": "デイケアいちょう【通所リハビリテーション】鹿児島県鹿児島市上福元町5723-3", "url": "https://www.kaigokensaku.mhlw.go.jp/46/index.php?action_kouhyou_detail_004_kani=true&JigyosyoCd=4610117964-00&ServiceCd=160&Type=search", "url2": null }, "geometry": { "type": "Point", "coordinates": [ 130.506767099999934, 31.5298991 ] } },
{ "type": "Feature", "properties": { "内容": "林内科胃腸科病院　指定通所リハビリテーション　指定介護予防通所リハビリテーション【通所リハビリテーション】鹿児島市武2丁目33番8号病院内2Ｆ", "url": "https://www.kaigokensaku.mhlw.go.jp/46/index.php?action_kouhyou_detail_004_kani=true&JigyosyoCd=4610123178-00&ServiceCd=160&Type=search", "url2": "https://hayashi-hp.or.jp" }, "geometry": { "type": "Point", "coordinates": [ 130.536434099999951, 31.5849349 ] } },
{ "type": "Feature", "properties": { "内容": "大勝病院通所リハビリテーション【通所リハビリテーション】真砂本町３－９５", "url": "https://www.kaigokensaku.mhlw.go.jp/46/index.php?action_kouhyou_detail_004_kani=true&JigyosyoCd=4610115513-00&ServiceCd=160&Type=search", "url2": "https://ookatsu.jp" }, "geometry": { "type": "Point", "coordinates": [ 130.54824877235265, 31.557655477230838 ] } },
{ "type": "Feature", "properties": { "内容": "介護老人保健施設スイートケアなかよし【通所リハビリテーション】鹿児島県鹿児島市下伊敷１丁目１番５号", "url": "https://www.kaigokensaku.mhlw.go.jp/46/index.php?action_kouhyou_detail_004_kani=true&JigyosyoCd=4650180021-00&ServiceCd=160&Type=search", "url2": "https://gyokusuikai.jp" }, "geometry": { "type": "Point", "coordinates": [ 130.53485, 31.60881 ] } },
{ "type": "Feature", "properties": { "内容": "介護老人保健施設　通所リハビリテーションさくらんぼ【通所リハビリテーション】鹿児島市下田町1759番地", "url": "https://www.kaigokensaku.mhlw.go.jp/46/index.php?action_kouhyou_detail_004_kani=true&JigyosyoCd=4650180047-00&ServiceCd=160&Type=search", "url2": "http://www.kanyoukai.or.jp/sakuranbo/index.html" }, "geometry": { "type": "Point", "coordinates": [ 130.545236599999953, 31.6460182 ] } },
{ "type": "Feature", "properties": { "内容": "田中整形外科クリニック通所リハビリテーション【通所リハビリテーション】鹿児島県鹿児島市紫原4丁目19−10", "url": "https://www.kaigokensaku.mhlw.go.jp/46/index.php?action_kouhyou_detail_004_kani=true&JigyosyoCd=4610119432-00&ServiceCd=160&Type=search", "url2": null }, "geometry": { "type": "Point", "coordinates": [ 130.533795879762238, 31.556994795811597 ] } },
{ "type": "Feature", "properties": { "内容": "坂之上生協クリニック【通所リハビリテーション】鹿児島市坂之上２丁目１４番１７号", "url": "https://www.kaigokensaku.mhlw.go.jp/46/index.php?action_kouhyou_detail_004_kani=true&JigyosyoCd=4610120612-00&ServiceCd=160&Type=search", "url2": "http://sakanoue-seikyo.jp" }, "geometry": { "type": "Point", "coordinates": [ 130.506484199999932, 31.5021956 ] } },
{ "type": "Feature", "properties": { "内容": "沖野循環器科病院【通所リハビリテーション】鹿児島県鹿児島市西千石町１３番３０号", "url": "https://www.kaigokensaku.mhlw.go.jp/46/index.php?action_kouhyou_detail_004_kani=true&JigyosyoCd=4610121537-00&ServiceCd=160&Type=search", "url2": "http://okino-hp.or.jp" }, "geometry": { "type": "Point", "coordinates": [ 130.549232, 31.5895447 ] } },
{ "type": "Feature", "properties": { "内容": "医療法人博十会　　いとう整形外科クリニック【通所リハビリテーション】鹿児島市谷山中央2丁目4515番地", "url": "https://www.kaigokensaku.mhlw.go.jp/46/index.php?action_kouhyou_detail_004_kani=true&JigyosyoCd=4610123947-00&ServiceCd=160&Type=search", "url2": null }, "geometry": { "type": "Point", "coordinates": [ 130.519200787696832, 31.522851041912407 ] } },
{ "type": "Feature", "properties": { "内容": "医療法人　天百合会　ふるたクリニック【通所リハビリテーション】鹿児島市　宇宿9丁目6番5号", "url": "https://www.kaigokensaku.mhlw.go.jp/46/index.php?action_kouhyou_detail_004_kani=true&JigyosyoCd=4610124945-00&ServiceCd=160&Type=search", "url2": "www.amayurikai.or.jp" }, "geometry": { "type": "Point", "coordinates": [ 130.524341700000036, 31.5552825 ] } },
{ "type": "Feature", "properties": { "内容": "医療法人　徳洲会　鹿児島徳洲会病院　通所リハビリテーション【通所リハビリテーション】鹿児島県鹿児島市南栄5丁目10番地51鹿児島徳洲会病院　4階", "url": "https://www.kaigokensaku.mhlw.go.jp/46/index.php?action_kouhyou_detail_004_kani=true&JigyosyoCd=4610128086-00&ServiceCd=160&Type=search", "url2": "http://www.kagotoku.jp/kaigo.htm" }, "geometry": { "type": "Point", "coordinates": [ 130.517070873016365, 31.507387028907551 ] } },
{ "type": "Feature", "properties": { "内容": "あさひ【通所リハビリテーション】鹿児島市泉町8番2号", "url": "https://www.kaigokensaku.mhlw.go.jp/46/index.php?action_kouhyou_detail_004_kani=true&JigyosyoCd=4650180088-00&ServiceCd=160&Type=search", "url2": "https://www.tenyoukai.jp/" }, "geometry": { "type": "Point", "coordinates": [ 130.559285100000011, 31.5936956 ] } },
{ "type": "Feature", "properties": { "内容": "介護老人保健施設ひまわり【通所リハビリテーション】真砂本町３－８１介護老人保健施設ひまわり", "url": "https://www.kaigokensaku.mhlw.go.jp/46/index.php?action_kouhyou_detail_004_kani=true&JigyosyoCd=4650180096-00&ServiceCd=160&Type=search", "url2": "https://ookatsu.jp/kanrenshisetu/himawari" }, "geometry": { "type": "Point", "coordinates": [ 130.549162, 31.5571077 ] } },
{ "type": "Feature", "properties": { "内容": "まろにえ介護老人保健施設【通所リハビリテーション】鹿児島市草牟田二丁目26番45号", "url": "https://www.kaigokensaku.mhlw.go.jp/46/index.php?action_kouhyou_detail_004_kani=true&JigyosyoCd=4650180120-00&ServiceCd=160&Type=search", "url2": "https://www.yonemorihp.jp/maronierouken/" }, "geometry": { "type": "Point", "coordinates": [ 130.538861, 31.6069824 ] } },
{ "type": "Feature", "properties": { "内容": "鴨池慈風苑【通所リハビリテーション】東郡元町11番6号", "url": "https://www.kaigokensaku.mhlw.go.jp/46/index.php?action_kouhyou_detail_004_kani=true&JigyosyoCd=4650180062-00&ServiceCd=160&Type=search", "url2": "http://www.jifukai.jp/" }, "geometry": { "type": "Point", "coordinates": [ 130.549820400000044, 31.5540052 ] } },
{ "type": "Feature", "properties": { "内容": "介護老人保健施設　ナーシングホーム田上苑【通所リハビリテーション】西陵6丁目21番18号", "url": "https://www.kaigokensaku.mhlw.go.jp/46/index.php?action_kouhyou_detail_004_kani=true&JigyosyoCd=4650180138-00&ServiceCd=160&Type=search", "url2": "https://www.tagamien.com/" }, "geometry": { "type": "Point", "coordinates": [ 130.504184799999962, 31.5817406 ] } },
{ "type": "Feature", "properties": { "内容": "介護老人保健施設フレンドホーム【通所リハビリテーション】山田町450番地介護老人保健施設フレンドホーム", "url": "https://www.kaigokensaku.mhlw.go.jp/46/index.php?action_kouhyou_detail_004_kani=true&JigyosyoCd=4650180054-00&ServiceCd=160&Type=search", "url2": "http://friend.thch.jp/" }, "geometry": { "type": "Point", "coordinates": [ 130.5080077, 31.5539159 ] } },
{ "type": "Feature", "properties": { "内容": "通所リハビリテーション　ろうけん青空【通所リハビリテーション】鹿児島市吉野町6040-7", "url": "https://www.kaigokensaku.mhlw.go.jp/46/index.php?action_kouhyou_detail_004_kani=true&JigyosyoCd=4650180161-00&ServiceCd=160&Type=search", "url2": "http://www.meikikai.com" }, "geometry": { "type": "Point", "coordinates": [ 130.591561700000057, 31.6507374 ] } },
{ "type": "Feature", "properties": { "内容": "西田橋小田原病院【通所リハビリテーション】鹿児島市平之町１－２７西田橋小田原病院", "url": "https://www.kaigokensaku.mhlw.go.jp/46/index.php?action_kouhyou_detail_004_kani=true&JigyosyoCd=4610112031-00&ServiceCd=160&Type=search", "url2": "https://shouaikai.com/daycare/" }, "geometry": { "type": "Point", "coordinates": [ 130.545832793254021, 31.589173488307285 ] } },
{ "type": "Feature", "properties": { "内容": "吉田記念病院【通所リハビリテーション】鹿児島県鹿児島市本名町470番地", "url": "https://www.kaigokensaku.mhlw.go.jp/46/index.php?action_kouhyou_detail_004_kani=true&JigyosyoCd=4610123459-00&ServiceCd=160&Type=search", "url2": "http://www.sekisaikai.jp/" }, "geometry": { "type": "Point", "coordinates": [ 130.5465266, 31.6919139 ] } },
{ "type": "Feature", "properties": { "内容": "医療法人川原会かわはら脳神経外科クリニック・デイケアかわはら【通所リハビリテーション】鹿児島県鹿児島市和田１丁目17-10", "url": "https://www.kaigokensaku.mhlw.go.jp/46/index.php?action_kouhyou_detail_004_kani=true&JigyosyoCd=4610124630-00&ServiceCd=160&Type=search", "url2": "https://www.kawaharans.com/" }, "geometry": { "type": "Point", "coordinates": [ 130.51295570000002, 31.511686699999984 ] } },
{ "type": "Feature", "properties": { "内容": "うすき整形・外科・内科病院　通所リハビリテーション【通所リハビリテーション】鹿児島市　宇宿1丁目　32番1号", "url": "https://www.kaigokensaku.mhlw.go.jp/46/index.php?action_kouhyou_detail_004_kani=true&JigyosyoCd=4610119671-00&ServiceCd=160&Type=search", "url2": "http://usukiseikei.jp" }, "geometry": { "type": "Point", "coordinates": [ 130.541946300000063, 31.5471364 ] } },
{ "type": "Feature", "properties": { "内容": "川島病院通所リハビリテーション【通所リハビリテーション】鹿児島市谷山中央1丁目15番1号", "url": "https://www.kaigokensaku.mhlw.go.jp/46/index.php?action_kouhyou_detail_004_kani=true&JigyosyoCd=4610112577-00&ServiceCd=160&Type=search", "url2": null }, "geometry": { "type": "Point", "coordinates": [ 130.519057302148695, 31.525935946722814 ] } },
{ "type": "Feature", "properties": { "内容": "医療法人　中山整形外科【通所リハビリテーション】鹿児島県鹿児島市中山町5237-1", "url": "https://www.kaigokensaku.mhlw.go.jp/46/index.php?action_kouhyou_detail_004_kani=true&JigyosyoCd=4670112335-00&ServiceCd=160&Type=search", "url2": "https://www.chuzan-hp.jp/" }, "geometry": { "type": "Point", "coordinates": [ 130.499823399999968, 31.5365736 ] } },
{ "type": "Feature", "properties": { "内容": "吉野東ホームクリニック　デイケアスマイル【通所リハビリテーション】鹿児島県鹿児島市吉野町5208-1", "url": "https://www.kaigokensaku.mhlw.go.jp/46/index.php?action_kouhyou_detail_004_kani=true&JigyosyoCd=4610126544-00&ServiceCd=160&Type=search", "url2": "http://www.meikikai.com" }, "geometry": { "type": "Point", "coordinates": [ 130.58448450000003, 31.6463877 ] } },
{ "type": "Feature", "properties": { "内容": "明輝会クリニック通所リハビリテーションかがやき【通所リハビリテーション】鹿児島市吉野３丁目２番５号明輝会クリニック　通所リハビリテーションかがやき", "url": "https://www.kaigokensaku.mhlw.go.jp/46/index.php?action_kouhyou_detail_004_kani=true&JigyosyoCd=4610124457-00&ServiceCd=160&Type=search", "url2": "http://www.meikikai.com" }, "geometry": { "type": "Point", "coordinates": [ 130.5687153, 31.6545786 ] } },
{ "type": "Feature", "properties": { "内容": "医療法人光風会有馬・藤島内科クリニック【通所リハビリテーション】与次郎一丁目３番１２号", "url": "https://www.kaigokensaku.mhlw.go.jp/46/index.php?action_kouhyou_detail_004_kani=true&JigyosyoCd=4610119259-00&ServiceCd=160&Type=search", "url2": "http:www.koufuu-kai.com/" }, "geometry": { "type": "Point", "coordinates": [ 130.559921900000063, 31.5680402 ] } },
{ "type": "Feature", "properties": { "内容": "かわもと記念クリニック　通所リハビリテーションゆうゆう【通所リハビリテーション】鹿児島市吉野町５３９７－３-", "url": "https://www.kaigokensaku.mhlw.go.jp/46/index.php?action_kouhyou_detail_004_kani=true&JigyosyoCd=4610118491-00&ServiceCd=160&Type=search", "url2": "http://www.kawamoto-cl.or.jp/" }, "geometry": { "type": "Point", "coordinates": [ 130.576037700000029, 31.6440712 ] } },
{ "type": "Feature", "properties": { "内容": "いりょうほうじんこうゆうかい　なかむらせいけいげかくりにっく【通所リハビリテーション】鹿児島県鹿児島市西伊敷1丁目2－12", "url": "https://www.kaigokensaku.mhlw.go.jp/46/index.php?action_kouhyou_detail_004_kani=true&JigyosyoCd=4610121719-00&ServiceCd=160&Type=search", "url2": "http://www.nakamuraseikei.jp" }, "geometry": { "type": "Point", "coordinates": [ 130.528875699999986, 31.6345271 ] } },
{ "type": "Feature", "properties": { "内容": "医療法人　康成会　介護老人保健施設　城山老健施設【通所リハビリテーション】鹿児島市草牟田一丁目４番１０号", "url": "https://www.kaigokensaku.mhlw.go.jp/46/index.php?action_kouhyou_detail_004_kani=true&JigyosyoCd=4650180013-00&ServiceCd=160&Type=search", "url2": "http://www.koseikai-uemura.jp" }, "geometry": { "type": "Point", "coordinates": [ 130.539263900000037, 31.6022634 ] } },
{ "type": "Feature", "properties": { "内容": "デイ・ケア　うえやま【通所リハビリテーション】鹿児島市吉野町719-1", "url": "https://www.kaigokensaku.mhlw.go.jp/46/index.php?action_kouhyou_detail_004_kani=true&JigyosyoCd=4610123400-00&ServiceCd=160&Type=search", "url2": "http://www.ueyama-clinic.com" }, "geometry": { "type": "Point", "coordinates": [ 130.559685800000011, 31.6366163 ] } },
{ "type": "Feature", "properties": { "内容": "天神南クリニック【通所リハビリテーション】鹿児島県鹿児島市田上2－16－16天神南クリニック", "url": "https://www.kaigokensaku.mhlw.go.jp/46/index.php?action_kouhyou_detail_004_kani=true&JigyosyoCd=4610122022-00&ServiceCd=160&Type=search", "url2": "https://sites.google.com/view/tenjinminami/%E3%83%9B%E3%83%BC%E3%83%A0" }, "geometry": { "type": "Point", "coordinates": [ 130.533211727647398, 31.574517529731096 ] } },
{ "type": "Feature", "properties": { "内容": "老人保健施設サンシャインきいれ【通所リハビリテーション】鹿児島県鹿児島市喜入前之浜町7808番地１", "url": "https://www.kaigokensaku.mhlw.go.jp/46/index.php?action_kouhyou_detail_004_kani=true&JigyosyoCd=4652280019-00&ServiceCd=160&Type=search", "url2": "http://kiire.jp" }, "geometry": { "type": "Point", "coordinates": [ 130.552994600000034, 31.3508791 ] } },
{ "type": "Feature", "properties": { "内容": "通所リハビリテーションきいれ【通所リハビリテーション】鹿児島県鹿児島市喜入町6074-1きいれセントラルクリニック", "url": "https://www.kaigokensaku.mhlw.go.jp/46/index.php?action_kouhyou_detail_004_kani=true&JigyosyoCd=4610126791-00&ServiceCd=160&Type=search", "url2": "http://kiire.jp" }, "geometry": { "type": "Point", "coordinates": [ 130.542894400000023, 31.3803674 ] } },
{ "type": "Feature", "properties": { "内容": "医療法人健幸会天辰病院　通所リハビリテーション【通所リハビリテーション】鹿児島県鹿児島市桜ケ丘4-1-8", "url": "https://www.kaigokensaku.mhlw.go.jp/46/index.php?action_kouhyou_detail_004_kani=true&JigyosyoCd=4610120885-00&ServiceCd=160&Type=search", "url2": "https://amatatsu-hosp.info/" }, "geometry": { "type": "Point", "coordinates": [ 130.517459800000012, 31.5506058 ] } },
{ "type": "Feature", "properties": { "内容": "医療法人　裕智会　東・うえまつクリニック　指定通所リハビリテーション【通所リハビリテーション】鹿児島市荒田１丁目11番1号", "url": "https://www.kaigokensaku.mhlw.go.jp/46/index.php?action_kouhyou_detail_004_kani=true&JigyosyoCd=4610121701-00&ServiceCd=160&Type=search", "url2": "https://higashi-u-clinic.com/daycare.html" }, "geometry": { "type": "Point", "coordinates": [ 130.5521278, 31.5775445 ] } },
{ "type": "Feature", "properties": { "内容": "三愛クリニック【通所リハビリテーション】鹿児島市郡元三丁目3番7号", "url": "https://www.kaigokensaku.mhlw.go.jp/46/index.php?action_kouhyou_detail_004_kani=true&JigyosyoCd=4610122733-00&ServiceCd=160&Type=search", "url2": "https://www.sanaikai.or.jp/sanai-clinic/riha/" }, "geometry": { "type": "Point", "coordinates": [ 130.549566523942531, 31.560252174195519 ] } },
{ "type": "Feature", "properties": { "内容": "鮫島整形外科医院【通所リハビリテーション】鹿児島県鹿屋市寿一丁目１番１号", "url": "https://www.kaigokensaku.mhlw.go.jp/46/index.php?action_kouhyou_detail_004_kani=true&JigyosyoCd=4610312151-00&ServiceCd=160&Type=search", "url2": "http://www.synapse.ne.jp/~kanoyaisikai/iryoukikan/samesima/sameshima.html" }, "geometry": { "type": "Point", "coordinates": [ 130.8522618, 31.3782477 ] } },
{ "type": "Feature", "properties": { "内容": "井ノ上病院通所リハビリテーション【通所リハビリテーション】鹿屋市王子町3980番地1", "url": "https://www.kaigokensaku.mhlw.go.jp/46/index.php?action_kouhyou_detail_004_kani=true&JigyosyoCd=4610311427-00&ServiceCd=160&Type=search", "url2": "https://inouehosp.org/" }, "geometry": { "type": "Point", "coordinates": [ 130.862864800000011, 31.4016765 ] } },
{ "type": "Feature", "properties": { "内容": "恒心会おぐら病院【通所リハビリテーション】鹿児島県鹿屋市笠之原町２７－２２恒心会おぐら病院", "url": "https://www.kaigokensaku.mhlw.go.jp/46/index.php?action_kouhyou_detail_004_kani=true&JigyosyoCd=4610311492-00&ServiceCd=160&Type=search", "url2": "http://www.koshinkai.or.jp" }, "geometry": { "type": "Point", "coordinates": [ 130.881966299999931, 31.3867951 ] } },
{ "type": "Feature", "properties": { "内容": "吾平クリニック【通所リハビリテーション】鹿児島県鹿屋市吾平町麓3322-1", "url": "https://www.kaigokensaku.mhlw.go.jp/46/index.php?action_kouhyou_detail_004_kani=true&JigyosyoCd=4610311997-00&ServiceCd=160&Type=search", "url2": "https://www.tokushukai.or.jp/introduction/facility/cl-gohei" }, "geometry": { "type": "Point", "coordinates": [ 130.89716939999991, 31.332645600000049 ] } },
{ "type": "Feature", "properties": { "内容": "ヴィラかのや　通所リハビリテーション【通所リハビリテーション】鹿屋市寿八丁目21番2号", "url": "https://www.kaigokensaku.mhlw.go.jp/46/index.php?action_kouhyou_detail_004_kani=true&JigyosyoCd=4650380027-00&ServiceCd=160&Type=search", "url2": "http://www.koshinkai.or.jp" }, "geometry": { "type": "Point", "coordinates": [ 130.880299799999989, 31.3865256 ] } },
{ "type": "Feature", "properties": { "内容": "老人保健施設　おさしお【通所リハビリテーション】鹿児島県鹿屋市吾平町麓3766番地1", "url": "https://www.kaigokensaku.mhlw.go.jp/46/index.php?action_kouhyou_detail_004_kani=true&JigyosyoCd=4653080020-00&ServiceCd=160&Type=search", "url2": "http://www.minc.ne.jp/osasio/" }, "geometry": { "type": "Point", "coordinates": [ 130.892253699999969, 31.3236409 ] } },
{ "type": "Feature", "properties": { "内容": "せぐち整形外科【通所リハビリテーション】鹿屋市北田町８－２０", "url": "https://www.kaigokensaku.mhlw.go.jp/46/index.php?action_kouhyou_detail_004_kani=true&JigyosyoCd=4610311591-00&ServiceCd=160&Type=search", "url2": "syoseikai.com" }, "geometry": { "type": "Point", "coordinates": [ 130.847830199999947, 31.3886828 ] } },
{ "type": "Feature", "properties": { "内容": "グリーンバードクリニック　通所リハビリテーション【通所リハビリテーション】鹿児島県鹿屋市輝北町市成2119番地2", "url": "https://www.kaigokensaku.mhlw.go.jp/46/index.php?action_kouhyou_detail_004_kani=true&JigyosyoCd=4670301227-00&ServiceCd=160&Type=search", "url2": "https://shuhokai.info/" }, "geometry": { "type": "Point", "coordinates": [ 130.8616505, 31.585667 ] } },
{ "type": "Feature", "properties": { "内容": "介護老人保健施設　ハーモニーガーデン【通所リハビリテーション】鹿児島県鹿屋市寿4丁目1番43号", "url": "https://www.kaigokensaku.mhlw.go.jp/46/index.php?action_kouhyou_detail_004_kani=true&JigyosyoCd=4650380035-00&ServiceCd=160&Type=search", "url2": "http://wakeikai-g.or.jp/" }, "geometry": { "type": "Point", "coordinates": [ 130.873611399999959, 31.3890474 ] } },
{ "type": "Feature", "properties": { "内容": "介護老人保健施設　ナーシングホームひだまり【通所リハビリテーション】鹿児島県鹿屋市下祓川町1853", "url": "https://www.kaigokensaku.mhlw.go.jp/46/index.php?action_kouhyou_detail_004_kani=true&JigyosyoCd=4650380019-00&ServiceCd=160&Type=search", "url2": "http://ikeda-hp.com" }, "geometry": { "type": "Point", "coordinates": [ 130.851387499999987, 31.4140111 ] } },
{ "type": "Feature", "properties": { "内容": "はるしま整形外科クリニック【通所リハビリテーション】鹿児島県鹿屋市旭原町2572-2", "url": "https://www.kaigokensaku.mhlw.go.jp/46/index.php?action_kouhyou_detail_004_kani=true&JigyosyoCd=4610311658-00&ServiceCd=160&Type=search", "url2": null }, "geometry": { "type": "Point", "coordinates": [ 130.882130299999972, 31.409336 ] } },
{ "type": "Feature", "properties": { "内容": "医療法人徳洲会　大隅鹿屋病院【通所リハビリテーション】鹿児島県鹿屋市新川町6081番地1", "url": "https://www.kaigokensaku.mhlw.go.jp/46/index.php?action_kouhyou_detail_004_kani=true&JigyosyoCd=4610311260-00&ServiceCd=160&Type=search", "url2": "http://www.kanoya-aishinkai.com/" }, "geometry": { "type": "Point", "coordinates": [ 130.860946199999944, 31.3773481 ] } },
{ "type": "Feature", "properties": { "内容": "エスポワール立神【通所リハビリテーション】鹿児島県枕崎市火之神町６３０番地", "url": "https://www.kaigokensaku.mhlw.go.jp/46/index.php?action_kouhyou_detail_004_kani=true&JigyosyoCd=4650480017-00&ServiceCd=160&Type=search", "url2": "http://www5.synapse.ne.jp/espotategami/" }, "geometry": { "type": "Point", "coordinates": [ 130.276817899999969, 31.2542208 ] } },
{ "type": "Feature", "properties": { "内容": "尾辻【通所リハビリテーション】鹿児島県枕崎市住吉町60番地", "url": "https://www.kaigokensaku.mhlw.go.jp/46/index.php?action_kouhyou_detail_004_kani=true&JigyosyoCd=4610410476-00&ServiceCd=160&Type=search", "url2": "http://fumiwakai.com/" }, "geometry": { "type": "Point", "coordinates": [ 130.2968313, 31.2719953 ] } },
{ "type": "Feature", "properties": { "内容": "小原病院　通所リハビリテーション生き粋き【通所リハビリテーション】枕崎市折口町１０９小原病院　２階総合リハビリテーション室内", "url": "https://www.kaigokensaku.mhlw.go.jp/46/index.php?action_kouhyou_detail_004_kani=true&JigyosyoCd=4610410070-00&ServiceCd=160&Type=search", "url2": "https://ko-seikai.jp" }, "geometry": { "type": "Point", "coordinates": [ 130.295929600000022, 31.2694867 ] } },
{ "type": "Feature", "properties": { "内容": "サザンケア通所リハビリテーション【通所リハビリテーション】鹿児島県枕崎市緑町236番地", "url": "https://www.kaigokensaku.mhlw.go.jp/46/index.php?action_kouhyou_detail_004_kani=true&JigyosyoCd=4650480025-00&ServiceCd=160&Type=search", "url2": "http://www.southernregion.jp/" }, "geometry": { "type": "Point", "coordinates": [ 130.293268500000067, 31.2772663 ] } },
{ "type": "Feature", "properties": { "内容": "介護老人保健施設グリーンフォレストみかさ【通所リハビリテーション】阿久根市脇本字柞木迫6313番地1", "url": "https://www.kaigokensaku.mhlw.go.jp/46/index.php?action_kouhyou_detail_004_kani=true&JigyosyoCd=4650680020-00&ServiceCd=160&Type=search", "url2": null }, "geometry": { "type": "Point", "coordinates": [ 130.177752100000021, 32.0901826 ] } },
{ "type": "Feature", "properties": { "内容": "通所リハビリテーション　すこやか【通所リハビリテーション】阿久根市浜町２２", "url": "https://www.kaigokensaku.mhlw.go.jp/46/index.php?action_kouhyou_detail_004_kani=true&JigyosyoCd=4610610588-00&ServiceCd=160&Type=search", "url2": null }, "geometry": { "type": "Point", "coordinates": [ 130.194063650926182, 32.019444896639463 ] } },
{ "type": "Feature", "properties": { "内容": "介護老人保健施設　回生苑【通所リハビリテーション】阿久根市赤瀬川551番地", "url": "https://www.kaigokensaku.mhlw.go.jp/46/index.php?action_kouhyou_detail_004_kani=true&JigyosyoCd=4650680012-00&ServiceCd=160&Type=search", "url2": "http://www.kouwaーkaiseien.com/" }, "geometry": { "type": "Point", "coordinates": [ 130.20155879999993, 32.0262465 ] } },
{ "type": "Feature", "properties": { "内容": "ニューライフいずみ【通所リハビリテーション】鹿児島県出水市平和町336番地1", "url": "https://www.kaigokensaku.mhlw.go.jp/46/index.php?action_kouhyou_detail_004_kani=true&JigyosyoCd=4650880018-00&ServiceCd=160&Type=search", "url2": "http:/kisshokai.com/" }, "geometry": { "type": "Point", "coordinates": [ 130.323682700000063, 32.0823558 ] } },
{ "type": "Feature", "properties": { "内容": "介護老人保健施設　ラ・フォンテいずみ【通所リハビリテーション】鹿児島県出水市五万石町２８１番地", "url": "https://www.kaigokensaku.mhlw.go.jp/46/index.php?action_kouhyou_detail_004_kani=true&JigyosyoCd=4650880026-00&ServiceCd=160&Type=search", "url2": null }, "geometry": { "type": "Point", "coordinates": [ 130.344215, 32.073693 ] } },
{ "type": "Feature", "properties": { "内容": "三慶医院　通所リハビリテーション【通所リハビリテーション】鹿児島県出水市上鯖淵1966番地", "url": "https://www.kaigokensaku.mhlw.go.jp/46/index.php?action_kouhyou_detail_004_kani=true&JigyosyoCd=4610810964-00&ServiceCd=160&Type=search", "url2": "http://www.ochahoku.com/" }, "geometry": { "type": "Point", "coordinates": [ 130.3660825, 32.0802877 ] } },
{ "type": "Feature", "properties": { "内容": "ユニット型老健　グランアージュ　通所リハビリ【通所リハビリテーション】平和町236", "url": "https://www.kaigokensaku.mhlw.go.jp/46/index.php?action_kouhyou_detail_004_kani=true&JigyosyoCd=4650880034-00&ServiceCd=160&Type=search", "url2": "http://www.minc.ne.jp/kishoukai" }, "geometry": { "type": "Point", "coordinates": [ 130.330735, 32.0824364 ] } },
{ "type": "Feature", "properties": { "内容": "医療法人吉祥会　吉井整形外科内科中央病院【通所リハビリテーション】出水市平和町336番地", "url": "https://www.kaigokensaku.mhlw.go.jp/46/index.php?action_kouhyou_detail_004_kani=true&JigyosyoCd=4610810451-00&ServiceCd=160&Type=search", "url2": "http://www.minc.ne.jp/kisshokai" }, "geometry": { "type": "Point", "coordinates": [ 130.321624, 32.0867879 ] } },
{ "type": "Feature", "properties": { "内容": "医療法人三徳会　東医院【通所リハビリテーション】鹿児島県出水市六月田町360番地", "url": "https://www.kaigokensaku.mhlw.go.jp/46/index.php?action_kouhyou_detail_004_kani=true&JigyosyoCd=4610810493-00&ServiceCd=160&Type=search", "url2": "http://3norikai.jp/" }, "geometry": { "type": "Point", "coordinates": [ 130.344529948548825, 32.107356993445805 ] } },
{ "type": "Feature", "properties": { "内容": "介護老人保健施設ヴァンベールみどりの風【通所リハビリテーション】鹿児島県指宿市山川大山2056-4", "url": "https://www.kaigokensaku.mhlw.go.jp/46/index.php?action_kouhyou_detail_004_kani=true&JigyosyoCd=4652280027-00&ServiceCd=160&Type=search", "url2": "https://ventvert-1001.com" }, "geometry": { "type": "Point", "coordinates": [ 130.592072599999938, 31.2007765 ] } },
{ "type": "Feature", "properties": { "内容": "医療法人徳洲会山川病院【通所リハビリテーション】鹿児島県指宿市山川小川1571山川病院", "url": "https://www.kaigokensaku.mhlw.go.jp/46/index.php?action_kouhyou_detail_004_kani=true&JigyosyoCd=4611011133-00&ServiceCd=160&Type=search", "url2": "http://www.tokusyukai.or.jp/hsp/yamakawa/" }, "geometry": { "type": "Point", "coordinates": [ 130.60346149009905, 31.199724347416765 ] } },
{ "type": "Feature", "properties": { "内容": "指宿やすらぎ園【通所リハビリテーション】鹿児島県指宿市東方7531番地", "url": "https://www.kaigokensaku.mhlw.go.jp/46/index.php?action_kouhyou_detail_004_kani=true&JigyosyoCd=4651080022-00&ServiceCd=160&Type=search", "url2": "https://www.ibutake.com/" }, "geometry": { "type": "Point", "coordinates": [ 130.6219489, 31.256153 ] } },
{ "type": "Feature", "properties": { "内容": "指宿さがら病院【通所リハビリテーション】鹿児島県指宿市湯の浜１－１１－２９", "url": "https://www.kaigokensaku.mhlw.go.jp/46/index.php?action_kouhyou_detail_004_kani=true&JigyosyoCd=4611010705-00&ServiceCd=160&Type=search", "url2": "http://ibusuki-sagara.jp/" }, "geometry": { "type": "Point", "coordinates": [ 130.643958699999985, 31.2362055 ] } },
{ "type": "Feature", "properties": { "内容": "介護老人保健施設　指宿温泉菜の花苑【通所リハビリテーション】指宿市十町418-1", "url": "https://www.kaigokensaku.mhlw.go.jp/46/index.php?action_kouhyou_detail_004_kani=true&JigyosyoCd=4651080014-00&ServiceCd=160&Type=search", "url2": "http://www.meiseikai.or.jp/" }, "geometry": { "type": "Point", "coordinates": [ 130.633622899999978, 31.253709 ] } },
{ "type": "Feature", "properties": { "内容": "医療法人浩然会　指宿浩然会病院【通所リハビリテーション】指宿市十町1130番地医療法人浩然会　指宿浩然会病院", "url": "https://www.kaigokensaku.mhlw.go.jp/46/index.php?action_kouhyou_detail_004_kani=true&JigyosyoCd=4611010259-00&ServiceCd=160&Type=search", "url2": "www.kouzenkai-hp.or.jp" }, "geometry": { "type": "Point", "coordinates": [ 130.639548437362095, 31.249243339320124 ] } },
{ "type": "Feature", "properties": { "内容": "指宿脳神経外科通所リハビリテーションセンター【通所リハビリテーション】鹿児島県指宿市東方8714-3", "url": "https://www.kaigokensaku.mhlw.go.jp/46/index.php?action_kouhyou_detail_004_kani=true&JigyosyoCd=4611010853-00&ServiceCd=160&Type=search", "url2": "https://ibusuki-noushinkeigeka.com/" }, "geometry": { "type": "Point", "coordinates": [ 130.643877631213371, 31.255761610152387 ] } },
{ "type": "Feature", "properties": { "内容": "介護老人保健施設わらび苑【通所リハビリテーション】西之表市西之表２９８１－１", "url": "https://www.kaigokensaku.mhlw.go.jp/46/index.php?action_kouhyou_detail_004_kani=true&JigyosyoCd=4651380018-00&ServiceCd=160&Type=search", "url2": "warabien-care.jp" }, "geometry": { "type": "Point", "coordinates": [ 131.025852100000066, 30.7376235 ] } },
{ "type": "Feature", "properties": { "内容": "介護老人保健施設　絆　通所リハビリテーション【通所リハビリテーション】垂水市田神3536番地1", "url": "https://www.kaigokensaku.mhlw.go.jp/46/index.php?action_kouhyou_detail_004_kani=true&JigyosyoCd=4651480024-00&ServiceCd=160&Type=search", "url2": "http://www.kouaikai.or.jp/" }, "geometry": { "type": "Point", "coordinates": [ 130.698536600000011, 31.4970003 ] } },
{ "type": "Feature", "properties": { "内容": "池田温泉クリニック　通所リハビリテーション【通所リハビリテーション】鹿児島県垂水市田神3536番地1", "url": "https://www.kaigokensaku.mhlw.go.jp/46/index.php?action_kouhyou_detail_004_kani=true&JigyosyoCd=4611410426-00&ServiceCd=160&Type=search", "url2": "http://www.kouaikai.or.jp" }, "geometry": { "type": "Point", "coordinates": [ 130.698509800000011, 31.4969319 ] } },
{ "type": "Feature", "properties": { "内容": "垂水市立介護老人保健施設コスモス苑【通所リハビリテーション】垂水市錦江町1-140", "url": "https://www.kaigokensaku.mhlw.go.jp/46/index.php?action_kouhyou_detail_004_kani=true&JigyosyoCd=4651480016-00&ServiceCd=160&Type=search", "url2": "http://www.cosmos-en.jp/" }, "geometry": { "type": "Point", "coordinates": [ 130.693326333065755, 31.490741145857111 ] } },
{ "type": "Feature", "properties": { "内容": "高江記念病院【通所リハビリテーション】鹿児島県薩摩川内市永利町　２５０４－１", "url": "https://www.kaigokensaku.mhlw.go.jp/46/index.php?action_kouhyou_detail_004_kani=true&JigyosyoCd=4611511314-00&ServiceCd=160&Type=search", "url2": "http://www.takaekinen-hp.com" }, "geometry": { "type": "Point", "coordinates": [ 130.346158100000025, 31.8080826 ] } },
{ "type": "Feature", "properties": { "内容": "医療法人大誠会若松記念病院【通所リハビリテーション】神田町11番20号", "url": "https://www.kaigokensaku.mhlw.go.jp/46/index.php?action_kouhyou_detail_004_kani=true&JigyosyoCd=4611510423-00&ServiceCd=160&Type=search", "url2": "ｈｔｔｐ//www.wakamatsu-jp/" }, "geometry": { "type": "Point", "coordinates": [ 130.303116700000032, 31.8156169 ] } },
{ "type": "Feature", "properties": { "内容": "介護老人保健施設　グラン・ベリテひわき【通所リハビリテーション】鹿児島県薩摩川内市樋脇町市比野２９９５番地", "url": "https://www.kaigokensaku.mhlw.go.jp/46/index.php?action_kouhyou_detail_004_kani=true&JigyosyoCd=4652580038-00&ServiceCd=160&Type=search", "url2": "https://www.takushokai.com/" }, "geometry": { "type": "Point", "coordinates": [ 130.402179599999954, 31.7863604 ] } },
{ "type": "Feature", "properties": { "内容": "クリニックのぞみ【通所リハビリテーション】祁答院町藺牟田２１０３番地６", "url": "https://www.kaigokensaku.mhlw.go.jp/46/index.php?action_kouhyou_detail_004_kani=true&JigyosyoCd=4611511066-00&ServiceCd=160&Type=search", "url2": null }, "geometry": { "type": "Point", "coordinates": [ 130.4859616, 31.8085072 ] } },
{ "type": "Feature", "properties": { "内容": "森園病院　通所リハビリテーション【通所リハビリテーション】大小路町19-38", "url": "https://www.kaigokensaku.mhlw.go.jp/46/index.php?action_kouhyou_detail_004_kani=true&JigyosyoCd=4671500942-00&ServiceCd=160&Type=search", "url2": "https://www.morizono.or.jp/" }, "geometry": { "type": "Point", "coordinates": [ 130.303477500000014, 31.8218113 ] } },
{ "type": "Feature", "properties": { "内容": "介護老人保健施設　グリーンライフ川内【通所リハビリテーション】鹿児島県薩摩川内市宮内町２６３３", "url": "https://www.kaigokensaku.mhlw.go.jp/46/index.php?action_kouhyou_detail_004_kani=true&JigyosyoCd=4650280037-00&ServiceCd=160&Type=search", "url2": "http://enokai.jp/" }, "geometry": { "type": "Point", "coordinates": [ 130.291559, 31.8306096 ] } },
{ "type": "Feature", "properties": { "内容": "手塚医院　通所リハビリテーション【通所リハビリテーション】薩摩川内市大小路町43番25号", "url": "https://www.kaigokensaku.mhlw.go.jp/46/index.php?action_kouhyou_detail_004_kani=true&JigyosyoCd=4611510514-00&ServiceCd=160&Type=search", "url2": "http://tedukaiinn.jimdo.com/" }, "geometry": { "type": "Point", "coordinates": [ 130.303302600000052, 31.8241967 ] } },
{ "type": "Feature", "properties": { "内容": "介護老人保健施設　あじさい苑【通所リハビリテーション】鹿児島県薩摩川内市横馬場町８番１１号", "url": "https://www.kaigokensaku.mhlw.go.jp/46/index.php?action_kouhyou_detail_004_kani=true&JigyosyoCd=4650280011-00&ServiceCd=160&Type=search", "url2": "http:ajisaien-kagoshima.com" }, "geometry": { "type": "Point", "coordinates": [ 130.310393800000043, 31.8172281 ] } },
{ "type": "Feature", "properties": { "内容": "医療法人　山下医院【通所リハビリテーション】薩摩川内市向田町９９５番地１", "url": "https://www.kaigokensaku.mhlw.go.jp/46/index.php?action_kouhyou_detail_004_kani=true&JigyosyoCd=4611510308-00&ServiceCd=160&Type=search", "url2": null }, "geometry": { "type": "Point", "coordinates": [ 130.31172719999995, 31.8105676 ] } },
{ "type": "Feature", "properties": { "内容": "介護老人保健施設グレースホーム【通所リハビリテーション】東郷町斧渕8920", "url": "https://www.kaigokensaku.mhlw.go.jp/46/index.php?action_kouhyou_detail_004_kani=true&JigyosyoCd=4652580046-00&ServiceCd=160&Type=search", "url2": "http//www.kamimura-hp.com" }, "geometry": { "type": "Point", "coordinates": [ 130.3332031, 31.874797 ] } },
{ "type": "Feature", "properties": { "内容": "今村クリニック　通所リハビリテーション【通所リハビリテーション】鹿児島県薩摩川内市宮内町2641番地今村クリニック", "url": "https://www.kaigokensaku.mhlw.go.jp/46/index.php?action_kouhyou_detail_004_kani=true&JigyosyoCd=4611510712-00&ServiceCd=160&Type=search", "url2": "http://enokai.jp/" }, "geometry": { "type": "Point", "coordinates": [ 130.292061699999977, 31.8307318 ] } },
{ "type": "Feature", "properties": { "内容": "上小鶴外科胃腸科　通所リハビリテーション【通所リハビリテーション】鹿児島県薩摩川内市御陵下町14-12", "url": "https://www.kaigokensaku.mhlw.go.jp/46/index.php?action_kouhyou_detail_004_kani=true&JigyosyoCd=4611510662-00&ServiceCd=160&Type=search", "url2": "https://kamikozuru.jp/" }, "geometry": { "type": "Point", "coordinates": [ 130.296617, 31.8304062 ] } },
{ "type": "Feature", "properties": { "内容": "新門整形外科【通所リハビリテーション】鹿児島県薩摩川内市中郷一丁目8番16号", "url": "https://www.kaigokensaku.mhlw.go.jp/46/index.php?action_kouhyou_detail_004_kani=true&JigyosyoCd=4611510605-00&ServiceCd=160&Type=search", "url2": "https://kusunokikai.or.jp/" }, "geometry": { "type": "Point", "coordinates": [ 130.310298900000021, 31.8313434 ] } },
{ "type": "Feature", "properties": { "内容": "大海宮崎クリニック【通所リハビリテーション】鹿児島県薩摩川内市宮崎町3000番地", "url": "https://www.kaigokensaku.mhlw.go.jp/46/index.php?action_kouhyou_detail_004_kani=true&JigyosyoCd=4611511439-00&ServiceCd=160&Type=search", "url2": "http://m.taikaicrinic.or.jp/" }, "geometry": { "type": "Point", "coordinates": [ 130.3207069, 31.7985555 ] } },
{ "type": "Feature", "properties": { "内容": "介護老人保健施設　長生園ナーシングセンター【通所リハビリテーション】薩摩川内市大小路町５１番３号", "url": "https://www.kaigokensaku.mhlw.go.jp/46/index.php?action_kouhyou_detail_004_kani=true&JigyosyoCd=4650280029-00&ServiceCd=160&Type=search", "url2": "http://www.doujunkai.or.jp" }, "geometry": { "type": "Point", "coordinates": [ 130.303533099999981, 31.8235162 ] } },
{ "type": "Feature", "properties": { "内容": "新門リハビリテーションクリニック　通所リハビリテーション【通所リハビリテーション】鹿児島県薩摩川内市中郷1丁目7番6号新門リハビリテーションクリニック", "url": "https://www.kaigokensaku.mhlw.go.jp/46/index.php?action_kouhyou_detail_004_kani=true&JigyosyoCd=4611511173-00&ServiceCd=160&Type=search", "url2": "https://kusunokikai.or.jp/" }, "geometry": { "type": "Point", "coordinates": [ 130.309460800000011, 31.8311799 ] } },
{ "type": "Feature", "properties": { "内容": "医療法人敬安会伊達病院【通所リハビリテーション】鹿児島県薩摩川内市神田町４－２５", "url": "https://www.kaigokensaku.mhlw.go.jp/46/index.php?action_kouhyou_detail_004_kani=true&JigyosyoCd=4611510191-00&ServiceCd=160&Type=search", "url2": "hpdate8155@gmail.com" }, "geometry": { "type": "Point", "coordinates": [ 130.305336, 31.8141004 ] } },
{ "type": "Feature", "properties": { "内容": "馬場病院【通所リハビリテーション】鹿児島県日置市吹上町湯之浦2378", "url": "https://www.kaigokensaku.mhlw.go.jp/46/index.php?action_kouhyou_detail_004_kani=true&JigyosyoCd=4611610025-00&ServiceCd=160&Type=search", "url2": "http:/babahp/" }, "geometry": { "type": "Point", "coordinates": [ 130.359010657008412, 31.503087034442519 ] } },
{ "type": "Feature", "properties": { "内容": "百花クリニックデイケアセンター【通所リハビリテーション】鹿児島県日置市伊集院町徳重338-1", "url": "https://www.kaigokensaku.mhlw.go.jp/46/index.php?action_kouhyou_detail_004_kani=true&JigyosyoCd=4611610603-00&ServiceCd=160&Type=search", "url2": null }, "geometry": { "type": "Point", "coordinates": [ 130.395834, 31.629162 ] } },
{ "type": "Feature", "properties": { "内容": "シルバーセンター光の里【通所リハビリテーション】鹿児島県日置市伊集院町妙円寺1丁目1番地6", "url": "https://www.kaigokensaku.mhlw.go.jp/46/index.php?action_kouhyou_detail_004_kani=true&JigyosyoCd=4652480015-00&ServiceCd=160&Type=search", "url2": "http://www.seishinーkai.org" }, "geometry": { "type": "Point", "coordinates": [ 130.395295088140159, 31.641217362822943 ] } },
{ "type": "Feature", "properties": { "内容": "博悠会温泉病院通所リハビリテーション【通所リハビリテーション】東市来町湯田4648", "url": "https://www.kaigokensaku.mhlw.go.jp/46/index.php?action_kouhyou_detail_004_kani=true&JigyosyoCd=4611610207-00&ServiceCd=160&Type=search", "url2": "www.hakuyukai-group.jp/" }, "geometry": { "type": "Point", "coordinates": [ 130.34880469999996, 31.6754446 ] } },
{ "type": "Feature", "properties": { "内容": "湯之元記念クリニック短時間（介護予防）通所リハビリテーション【通所リハビリテーション】鹿児島県日置市東市来町湯田3614番地", "url": "https://www.kaigokensaku.mhlw.go.jp/46/index.php?action_kouhyou_detail_004_kani=true&JigyosyoCd=4611610660-00&ServiceCd=160&Type=search", "url2": "http://www.seishin-kai.org/" }, "geometry": { "type": "Point", "coordinates": [ 130.33686560000001, 31.6729553 ] } },
{ "type": "Feature", "properties": { "内容": "久保内科デイケア　ひっとべ【通所リハビリテーション】鹿児島県日置市伊集院町下谷口2272-1", "url": "https://www.kaigokensaku.mhlw.go.jp/46/index.php?action_kouhyou_detail_004_kani=true&JigyosyoCd=4611610363-00&ServiceCd=160&Type=search", "url2": "naikakubo.jimdofree.com" }, "geometry": { "type": "Point", "coordinates": [ 130.402201599999984, 31.62416 ] } },
{ "type": "Feature", "properties": { "内容": "前原やすしクリニック【通所リハビリテーション】鹿児島県　日置市吹上町小野1481-1", "url": "https://www.kaigokensaku.mhlw.go.jp/46/index.php?action_kouhyou_detail_004_kani=true&JigyosyoCd=4611610348-00&ServiceCd=160&Type=search", "url2": "http://www.seishin-kai.org" }, "geometry": { "type": "Point", "coordinates": [ 130.338284199999947, 31.5374245 ] } },
{ "type": "Feature", "properties": { "内容": "医療法人みゆき会みゆきクリニック　通所リハビリテーション【通所リハビリテーション】日置市日吉町日置390-1", "url": "https://www.kaigokensaku.mhlw.go.jp/46/index.php?action_kouhyou_detail_004_kani=true&JigyosyoCd=4611610496-00&ServiceCd=160&Type=search", "url2": "http://www.miyuki-clinic.net/" }, "geometry": { "type": "Point", "coordinates": [ 130.346351174204955, 31.590661845454726 ] } },
{ "type": "Feature", "properties": { "内容": "前原総合医療病院　短時間通所リハビリテーション【通所リハビリテーション】鹿児島県日置市伊集院町妙円寺一丁目１番地6", "url": "https://www.kaigokensaku.mhlw.go.jp/46/index.php?action_kouhyou_detail_004_kani=true&JigyosyoCd=4611610652-00&ServiceCd=160&Type=search", "url2": "https://www.seishin-kai.org/" }, "geometry": { "type": "Point", "coordinates": [ 130.395108, 31.6405046 ] } },
{ "type": "Feature", "properties": { "内容": "いじゅういん脳神経外科　通所リハビリテーションセンター【通所リハビリテーション】鹿児島県日置市伊集院町徳重1丁目12-2", "url": "https://www.kaigokensaku.mhlw.go.jp/46/index.php?action_kouhyou_detail_004_kani=true&JigyosyoCd=4611610454-00&ServiceCd=160&Type=search", "url2": "https://ijuin-ns.jp/" }, "geometry": { "type": "Point", "coordinates": [ 130.402508, 31.6316282 ] } },
{ "type": "Feature", "properties": { "内容": "医療法人昭泉会　湯の浦ナーシングホーム【通所リハビリテーション】日置市吹上町湯之浦1353", "url": "https://www.kaigokensaku.mhlw.go.jp/46/index.php?action_kouhyou_detail_004_kani=true&JigyosyoCd=4652480023-00&ServiceCd=160&Type=search", "url2": null }, "geometry": { "type": "Point", "coordinates": [ 130.358958499999972, 31.5032449 ] } },
{ "type": "Feature", "properties": { "内容": "守屋病院通所リハビリテーション【通所リハビリテーション】伊集院町徳重2丁目5番地5", "url": "https://www.kaigokensaku.mhlw.go.jp/46/index.php?action_kouhyou_detail_004_kani=true&JigyosyoCd=4611610306-00&ServiceCd=160&Type=search", "url2": "info@yuushikai.or.jp" }, "geometry": { "type": "Point", "coordinates": [ 130.400237181614671, 31.630718974752593 ] } },
{ "type": "Feature", "properties": { "内容": "湯田内科病院【通所リハビリテーション】日置市東市来町湯田２９９４番地", "url": "https://www.kaigokensaku.mhlw.go.jp/46/index.php?action_kouhyou_detail_004_kani=true&JigyosyoCd=4611610199-00&ServiceCd=160&Type=search", "url2": "https://kenseikai.biz/yuda/" }, "geometry": { "type": "Point", "coordinates": [ 130.331011399999966, 31.6725056 ] } },
{ "type": "Feature", "properties": { "内容": "介護老人保健施設　アンダンテ伊集院【通所リハビリテーション】日置市伊集院町妙円寺3-1303-10", "url": "https://www.kaigokensaku.mhlw.go.jp/46/index.php?action_kouhyou_detail_004_kani=true&JigyosyoCd=4652480031-00&ServiceCd=160&Type=search", "url2": "http://kenseikai.biz" }, "geometry": { "type": "Point", "coordinates": [ 130.401468600000044, 31.6464072 ] } },
{ "type": "Feature", "properties": { "内容": "高原ナーシングホーム【通所リハビリテーション】曽於市末吉町栄町二丁目11番地1号", "url": "https://www.kaigokensaku.mhlw.go.jp/46/index.php?action_kouhyou_detail_004_kani=true&JigyosyoCd=4652980014-00&ServiceCd=160&Type=search", "url2": "http://www.takahara-net.or.jp" }, "geometry": { "type": "Point", "coordinates": [ 131.017973899999987, 31.6570457 ] } },
{ "type": "Feature", "properties": { "内容": "昭南病院【通所リハビリテーション】鹿児島県曽於市大隅町下窪町1番地", "url": "https://www.kaigokensaku.mhlw.go.jp/46/index.php?action_kouhyou_detail_004_kani=true&JigyosyoCd=4611710270-00&ServiceCd=160&Type=search", "url2": "http://www.aisei₋kai.com/" }, "geometry": { "type": "Point", "coordinates": [ 131.000963, 31.583368 ] } },
{ "type": "Feature", "properties": { "内容": "中島病院【通所リハビリテーション】鹿児島県曽於市末吉町栄町1-6-6", "url": "https://www.kaigokensaku.mhlw.go.jp/46/index.php?action_kouhyou_detail_004_kani=true&JigyosyoCd=4611710262-00&ServiceCd=160&Type=search", "url2": "http://www.nakashima-h.or.jp" }, "geometry": { "type": "Point", "coordinates": [ 131.018818399999986, 31.6545293 ] } },
{ "type": "Feature", "properties": { "内容": "塩川医院【通所リハビリテーション】鹿児島県曽於市末吉町上町4丁目2番地6", "url": "https://www.kaigokensaku.mhlw.go.jp/46/index.php?action_kouhyou_detail_004_kani=true&JigyosyoCd=4611710171-00&ServiceCd=160&Type=search", "url2": null }, "geometry": { "type": "Point", "coordinates": [ 131.0206235, 31.6523416 ] } },
{ "type": "Feature", "properties": { "内容": "財部記念病院通所リハビリテーション【通所リハビリテーション】財部町南俣3619-1", "url": "https://www.kaigokensaku.mhlw.go.jp/46/index.php?action_kouhyou_detail_004_kani=true&JigyosyoCd=4611710148-00&ServiceCd=160&Type=search", "url2": "https://www.takarabekai.com/" }, "geometry": { "type": "Point", "coordinates": [ 130.961943799999972, 31.704148 ] } },
{ "type": "Feature", "properties": { "内容": "きりしま内科リハビリクリニック【通所リハビリテーション】隼人町松永1-36", "url": "https://www.kaigokensaku.mhlw.go.jp/46/index.php?action_kouhyou_detail_004_kani=true&JigyosyoCd=4611911159-00&ServiceCd=160&Type=search", "url2": "kirisimanaika.wik.com/kirisimanaika" }, "geometry": { "type": "Point", "coordinates": [ 130.759759799999983, 31.7741874 ] } },
{ "type": "Feature", "properties": { "内容": "佐藤医院【通所リハビリテーション】鹿児島県霧島市溝辺町有川３２７－２", "url": "https://www.kaigokensaku.mhlw.go.jp/46/index.php?action_kouhyou_detail_004_kani=true&JigyosyoCd=4611910565-00&ServiceCd=160&Type=search", "url2": "satoday@po.minc.ne.jp" }, "geometry": { "type": "Point", "coordinates": [ 130.680468099999985, 31.8304601 ] } },
{ "type": "Feature", "properties": { "内容": "医療法人　財団　浩誠会　霧島杉安病院【通所リハビリテーション】霧島市霧島田口２１４３番地", "url": "https://www.kaigokensaku.mhlw.go.jp/46/index.php?action_kouhyou_detail_004_kani=true&JigyosyoCd=4611910706-00&ServiceCd=160&Type=search", "url2": "http://www.kouseikai.info" }, "geometry": { "type": "Point", "coordinates": [ 130.855677600000035, 31.8471042 ] } },
{ "type": "Feature", "properties": { "内容": "介護老人保健施設きりしま【通所リハビリテーション】鹿児島県霧島市霧島田口２１１５番地１", "url": "https://www.kaigokensaku.mhlw.go.jp/46/index.php?action_kouhyou_detail_004_kani=true&JigyosyoCd=4652880073-00&ServiceCd=160&Type=search", "url2": "https://www.kouseikai.info/" }, "geometry": { "type": "Point", "coordinates": [ 130.855155400000058, 31.8487513 ] } },
{ "type": "Feature", "properties": { "内容": "介護老人保健施設サンライトホーム【通所リハビリテーション】牧園町高千穂3617番地623", "url": "https://www.kaigokensaku.mhlw.go.jp/46/index.php?action_kouhyou_detail_004_kani=true&JigyosyoCd=4652880057-00&ServiceCd=160&Type=search", "url2": "http://www.toukeikai.jp/" }, "geometry": { "type": "Point", "coordinates": [ 130.818434600000046, 31.8799288 ] } },
{ "type": "Feature", "properties": { "内容": "医療法人　桃蹊会　霧島桜ヶ丘病院【通所リハビリテーション】牧園町高千穂3617番地98", "url": "https://www.kaigokensaku.mhlw.go.jp/46/index.php?action_kouhyou_detail_004_kani=true&JigyosyoCd=4611910557-00&ServiceCd=160&Type=search", "url2": "http://www.toukeikai/jp/" }, "geometry": { "type": "Point", "coordinates": [ 130.81901229999994, 31.8792428 ] } },
{ "type": "Feature", "properties": { "内容": "介護老人保健施設　希望の里【通所リハビリテーション】霧島市隼人町姫城二丁目157番地", "url": "https://www.kaigokensaku.mhlw.go.jp/46/index.php?action_kouhyou_detail_004_kani=true&JigyosyoCd=4652880016-00&ServiceCd=160&Type=search", "url2": "http://hayato-spa.hospi.jp/" }, "geometry": { "type": "Point", "coordinates": [ 130.757654699999989, 31.7657049 ] } },
{ "type": "Feature", "properties": { "内容": "医療法人松城会　隼人温泉病院　通所リハビリテーション【通所リハビリテーション】隼人町姫城1丁目２６４－２", "url": "https://www.kaigokensaku.mhlw.go.jp/46/index.php?action_kouhyou_detail_004_kani=true&JigyosyoCd=4611910508-00&ServiceCd=160&Type=search", "url2": null }, "geometry": { "type": "Point", "coordinates": [ 130.7565981, 31.7658484 ] } },
{ "type": "Feature", "properties": { "内容": "国分生協病院【通所リハビリテーション】霧島市国分中央３丁目３８番１４号", "url": "https://www.kaigokensaku.mhlw.go.jp/46/index.php?action_kouhyou_detail_004_kani=true&JigyosyoCd=4611911407-00&ServiceCd=160&Type=search", "url2": "http://kokubu-seikyo.jp/" }, "geometry": { "type": "Point", "coordinates": [ 130.761905689684681, 31.739514211177987 ] } },
{ "type": "Feature", "properties": { "内容": "国分脳神経外科病院　通所リハビリテーション【通所リハビリテーション】鹿児島県霧島市国分向花154番地1", "url": "https://www.kaigokensaku.mhlw.go.jp/46/index.php?action_kouhyou_detail_004_kani=true&JigyosyoCd=4611911449-00&ServiceCd=160&Type=search", "url2": "http://kokubu-nougeka.jp/" }, "geometry": { "type": "Point", "coordinates": [ 130.776370739286762, 31.760160475948183 ] } },
{ "type": "Feature", "properties": { "内容": "介護老人保健施設　アメニティ国分【通所リハビリテーション】霧島市国分重久３６１－１", "url": "https://www.kaigokensaku.mhlw.go.jp/46/index.php?action_kouhyou_detail_004_kani=true&JigyosyoCd=4651280010-00&ServiceCd=160&Type=search", "url2": "https://syunseikai.or.jp" }, "geometry": { "type": "Point", "coordinates": [ 130.778378299999986, 31.7676187 ] } },
{ "type": "Feature", "properties": { "内容": "霧島記念病院【通所リハビリテーション】国分福島一丁目5番19号", "url": "https://www.kaigokensaku.mhlw.go.jp/46/index.php?action_kouhyou_detail_004_kani=true&JigyosyoCd=4611910276-00&ServiceCd=160&Type=search", "url2": "http://kirishima-memorial.jp/" }, "geometry": { "type": "Point", "coordinates": [ 130.753315499999985, 31.7283136 ] } },
{ "type": "Feature", "properties": { "内容": "国分中央病院通所リハビリテーション【通所リハビリテーション】霧島市国分中央１丁目25-51メディカーサ国分中央内", "url": "https://www.kaigokensaku.mhlw.go.jp/46/index.php?action_kouhyou_detail_004_kani=true&JigyosyoCd=4611910359-00&ServiceCd=160&Type=search", "url2": "http://www.misakikai.or.jp/" }, "geometry": { "type": "Point", "coordinates": [ 130.7695857, 31.7416293 ] } },
{ "type": "Feature", "properties": { "内容": "医療法人協愛会　協愛病院通所リハビリテーション【通所リハビリテーション】鹿児島県霧島市国分新町1丁目52-6号", "url": "https://www.kaigokensaku.mhlw.go.jp/46/index.php?action_kouhyou_detail_004_kani=true&JigyosyoCd=4611911316-00&ServiceCd=160&Type=search", "url2": "http://kyouai-hospitai.jp/" }, "geometry": { "type": "Point", "coordinates": [ 130.760982905032364, 31.750701087122064 ] } },
{ "type": "Feature", "properties": { "内容": "春田クリニック【通所リハビリテーション】鹿児島県いちき串木野市春日町116", "url": "https://www.kaigokensaku.mhlw.go.jp/46/index.php?action_kouhyou_detail_004_kani=true&JigyosyoCd=4611810344-00&ServiceCd=160&Type=search", "url2": "seiaikai-haruta.or.jp" }, "geometry": { "type": "Point", "coordinates": [ 130.267808, 31.7216884 ] } },
{ "type": "Feature", "properties": { "内容": "介護老人保健施設　ライフハーバーいちき【通所リハビリテーション】鹿児島県いちき串木野市大里2901-2", "url": "https://www.kaigokensaku.mhlw.go.jp/46/index.php?action_kouhyou_detail_004_kani=true&JigyosyoCd=4652480056-00&ServiceCd=160&Type=search", "url2": "http://www.maruta.or.jp/" }, "geometry": { "type": "Point", "coordinates": [ 130.3015246, 31.6662087 ] } },
{ "type": "Feature", "properties": { "内容": "いちき串木野市医師会立脳神経外科センター【通所リハビリテーション】鹿児島県いちき串木野市生福5391-3", "url": "https://www.kaigokensaku.mhlw.go.jp/46/index.php?action_kouhyou_detail_004_kani=true&JigyosyoCd=4611810229-00&ServiceCd=160&Type=search", "url2": "http://www.kunc99.jp/" }, "geometry": { "type": "Point", "coordinates": [ 130.3017827, 31.7205688 ] } },
{ "type": "Feature", "properties": { "内容": "えんでん内科クリニック【通所リハビリテーション】いちき串木野市東塩田町３５番地", "url": "https://www.kaigokensaku.mhlw.go.jp/46/index.php?action_kouhyou_detail_004_kani=true&JigyosyoCd=4611810203-00&ServiceCd=160&Type=search", "url2": null }, "geometry": { "type": "Point", "coordinates": [ 130.272106399999984, 31.7246602 ] } },
{ "type": "Feature", "properties": { "内容": "ふくもと整形外科・内科クリニック【通所リハビリテーション】鹿児島県いちき串木野市春日町８番地", "url": "https://www.kaigokensaku.mhlw.go.jp/46/index.php?action_kouhyou_detail_004_kani=true&JigyosyoCd=4611810146-00&ServiceCd=160&Type=search", "url2": "https://fukumoto.or.jp" }, "geometry": { "type": "Point", "coordinates": [ 130.269070599999964, 31.7209383 ] } },
{ "type": "Feature", "properties": { "内容": "介護老人保健施設　さるびあ苑【通所リハビリテーション】いちき串木野市春日町６３番地", "url": "https://www.kaigokensaku.mhlw.go.jp/46/index.php?action_kouhyou_detail_004_kani=true&JigyosyoCd=4650580014-00&ServiceCd=160&Type=search", "url2": "https://jiseikai-kushikino.jp/" }, "geometry": { "type": "Point", "coordinates": [ 130.268170599999962, 31.7201494 ] } },
{ "type": "Feature", "properties": { "内容": "南洲整形外科病院【通所リハビリテーション】いちき串木野市別府3994-5", "url": "https://www.kaigokensaku.mhlw.go.jp/46/index.php?action_kouhyou_detail_004_kani=true&JigyosyoCd=4611810195-00&ServiceCd=160&Type=search", "url2": "http://www.nanshu-seikei.com" }, "geometry": { "type": "Point", "coordinates": [ 130.283358799999974, 31.7027459 ] } },
{ "type": "Feature", "properties": { "内容": "さつま野菊園【通所リハビリテーション】鹿児島県南さつま市笠沙町赤生木１１３７２－３９７", "url": "https://www.kaigokensaku.mhlw.go.jp/46/index.php?action_kouhyou_detail_004_kani=true&JigyosyoCd=4652380025-00&ServiceCd=160&Type=search", "url2": "www.koujin-ayanokai.or.jp/" }, "geometry": { "type": "Point", "coordinates": [ 130.208908, 31.3903139 ] } },
{ "type": "Feature", "properties": { "内容": "真愛病院【通所リハビリテーション】加世田東本町7-5", "url": "https://www.kaigokensaku.mhlw.go.jp/46/index.php?action_kouhyou_detail_004_kani=true&JigyosyoCd=4614010173-00&ServiceCd=160&Type=search", "url2": null }, "geometry": { "type": "Point", "coordinates": [ 130.32516540000006, 31.4199783 ] } },
{ "type": "Feature", "properties": { "内容": "アルテンハイムリハビリテーションクリニック本町【通所リハビリテーション】鹿児島県南さつま市加世田本町37－2", "url": "https://www.kaigokensaku.mhlw.go.jp/46/index.php?action_kouhyou_detail_004_kani=true&JigyosyoCd=4614010454-00&ServiceCd=160&Type=search", "url2": "/http://www.nonohanakai.or.jp/" }, "geometry": { "type": "Point", "coordinates": [ 130.3214202, 31.416639 ] } },
{ "type": "Feature", "properties": { "内容": "有馬病院【通所リハビリテーション】鹿児島県南さつま市加世田地頭所５７０有馬病院", "url": "https://www.kaigokensaku.mhlw.go.jp/46/index.php?action_kouhyou_detail_004_kani=true&JigyosyoCd=4614010132-00&ServiceCd=160&Type=search", "url2": "http://www.ahp.or.jp/" }, "geometry": { "type": "Point", "coordinates": [ 130.321321300000022, 31.4227917 ] } },
{ "type": "Feature", "properties": { "内容": "ラポール吉井　デイケア【通所リハビリテーション】南さつま市加世田村原1丁目10-10", "url": "https://www.kaigokensaku.mhlw.go.jp/46/index.php?action_kouhyou_detail_004_kani=true&JigyosyoCd=4651180012-00&ServiceCd=160&Type=search", "url2": "http://www.nonohanakai.or.jp" }, "geometry": { "type": "Point", "coordinates": [ 130.326004099999977, 31.4227418 ] } },
{ "type": "Feature", "properties": { "内容": "小山クリニック【通所リハビリテーション】鹿児島県南さつま市金峰町尾下３５４番地", "url": "https://www.kaigokensaku.mhlw.go.jp/46/index.php?action_kouhyou_detail_004_kani=true&JigyosyoCd=4614010389-00&ServiceCd=160&Type=search", "url2": null }, "geometry": { "type": "Point", "coordinates": [ 130.3450868, 31.4592564 ] } },
{ "type": "Feature", "properties": { "内容": "徳久整形外科　デイケア向日葵【通所リハビリテーション】南さつま市加世田白亀1285ー1", "url": "https://www.kaigokensaku.mhlw.go.jp/46/index.php?action_kouhyou_detail_004_kani=true&JigyosyoCd=4614010140-00&ServiceCd=160&Type=search", "url2": "tokuhisa-seikei.com" }, "geometry": { "type": "Point", "coordinates": [ 130.313811500000043, 31.4187589 ] } },
{ "type": "Feature", "properties": { "内容": "びろうの樹通所ﾘﾊﾋﾞﾘﾃｰｼｮﾝ【通所リハビリテーション】鹿児島県志布志市有明町野井倉8041番地1", "url": "https://www.kaigokensaku.mhlw.go.jp/46/index.php?action_kouhyou_detail_004_kani=true&JigyosyoCd=4614110171-00&ServiceCd=160&Type=search", "url2": "http://wwww.birounoKi.com" }, "geometry": { "type": "Point", "coordinates": [ 131.0592024, 31.452457199999969 ] } },
{ "type": "Feature", "properties": { "内容": "ありあけ苑【通所リハビリテーション】志布志市有明町野井倉8288番地1", "url": "https://www.kaigokensaku.mhlw.go.jp/46/index.php?action_kouhyou_detail_004_kani=true&JigyosyoCd=4652980055-00&ServiceCd=160&Type=search", "url2": "http://www.btvm.ne.jp/~r-ariake/" }, "geometry": { "type": "Point", "coordinates": [ 131.066721, 31.455654 ] } },
{ "type": "Feature", "properties": { "内容": "藤後クリニック【通所リハビリテーション】志布志町志布志一丁目13番1号", "url": "https://www.kaigokensaku.mhlw.go.jp/46/index.php?action_kouhyou_detail_004_kani=true&JigyosyoCd=4614110221-00&ServiceCd=160&Type=search", "url2": "http://www.sayuukai.or.jp/clinic/" }, "geometry": { "type": "Point", "coordinates": [ 131.103069, 31.4767387 ] } },
{ "type": "Feature", "properties": { "内容": "介護老人保健施設つわぶき【通所リハビリテーション】鹿児島県志布志市志布志町志布志１丁目13番3号", "url": "https://www.kaigokensaku.mhlw.go.jp/46/index.php?action_kouhyou_detail_004_kani=true&JigyosyoCd=4652980030-00&ServiceCd=160&Type=search", "url2": "http://www.sayuukai.or.jp" }, "geometry": { "type": "Point", "coordinates": [ 131.103263500000025, 31.4767082 ] } },
{ "type": "Feature", "properties": { "内容": "医療法人SAKURA　志布志中央クリニック【通所リハビリテーション】鹿児島県志布志市志布志町志布志1290-1", "url": "https://www.kaigokensaku.mhlw.go.jp/46/index.php?action_kouhyou_detail_004_kani=true&JigyosyoCd=4614110296-00&ServiceCd=160&Type=search", "url2": "http://www.med-sakura.or.jp/" }, "geometry": { "type": "Point", "coordinates": [ 131.08650646322937, 31.483616057366596 ] } },
{ "type": "Feature", "properties": { "内容": "奄美中央病院通所リハビリテーション【通所リハビリテーション】鹿児島県奄美市名瀬長浜町16番5号奄美中央病院　１階", "url": "https://www.kaigokensaku.mhlw.go.jp/46/index.php?action_kouhyou_detail_004_kani=true&JigyosyoCd=4614210658-00&ServiceCd=160&Type=search", "url2": "https://amami-hca.or.jp/achweb/" }, "geometry": { "type": "Point", "coordinates": [ 129.493457, 28.3944351 ] } },
{ "type": "Feature", "properties": { "内容": "むかいクリニック通所リハビリテーション【通所リハビリテーション】名瀬小浜町24-10", "url": "https://www.kaigokensaku.mhlw.go.jp/46/index.php?action_kouhyou_detail_004_kani=true&JigyosyoCd=4614210278-00&ServiceCd=160&Type=search", "url2": "https://mukai.ryukyu/" }, "geometry": { "type": "Point", "coordinates": [ 129.501314800000046, 28.3853751 ] } },
{ "type": "Feature", "properties": { "内容": "医療法人　徳洲会　　笠利病院【通所リハビリテーション】鹿児島県奄美市笠利町中金久１２０", "url": "https://www.kaigokensaku.mhlw.go.jp/46/index.php?action_kouhyou_detail_004_kani=true&JigyosyoCd=4614210542-00&ServiceCd=160&Type=search", "url2": "http://kasarihp.com" }, "geometry": { "type": "Point", "coordinates": [ 129.6764875, 28.4535582 ] } },
{ "type": "Feature", "properties": { "内容": "医療法人　碧山会　介護老人保健施設アマンデー【通所リハビリテーション】鹿児島県奄美市笠利町節田１４５１－１", "url": "https://www.kaigokensaku.mhlw.go.jp/46/index.php?action_kouhyou_detail_004_kani=true&JigyosyoCd=4653280067-00&ServiceCd=160&Type=search", "url2": "https://amande.synapse.kagoshima.jp" }, "geometry": { "type": "Point", "coordinates": [ 129.679199899999958, 28.4131557 ] } },
{ "type": "Feature", "properties": { "内容": "奄美市笠利国民健康保険診療所【通所リハビリテーション】鹿児島県奄美市笠利町中金久45番地ふれ愛の郷", "url": "https://www.kaigokensaku.mhlw.go.jp/46/index.php?action_kouhyou_detail_004_kani=true&JigyosyoCd=4614210401-00&ServiceCd=160&Type=search", "url2": null }, "geometry": { "type": "Point", "coordinates": [ 129.674881899999946, 28.4562163 ] } },
{ "type": "Feature", "properties": { "内容": "稲医院デイケアセンター【通所リハビリテーション】名瀬金久町5-4", "url": "https://www.kaigokensaku.mhlw.go.jp/46/index.php?action_kouhyou_detail_004_kani=true&JigyosyoCd=4614210120-00&ServiceCd=160&Type=search", "url2": null }, "geometry": { "type": "Point", "coordinates": [ 129.491972176721248, 28.381565061796724 ] } },
{ "type": "Feature", "properties": { "内容": "虹の丘通所リハビリテーション【通所リハビリテーション】名瀬小宿字苗代田３４１６番１", "url": "https://www.kaigokensaku.mhlw.go.jp/46/index.php?action_kouhyou_detail_004_kani=true&JigyosyoCd=4650780010-00&ServiceCd=160&Type=search", "url2": "http://www4.synapse.ne.jp/nijinooka" }, "geometry": { "type": "Point", "coordinates": [ 129.474689, 28.385852 ] } },
{ "type": "Feature", "properties": { "内容": "松岡救急クリニック通所リハビリテーション【通所リハビリテーション】鹿児島県南九州市川辺町永田4164-6", "url": "https://www.kaigokensaku.mhlw.go.jp/46/index.php?action_kouhyou_detail_004_kani=true&JigyosyoCd=4614310417-00&ServiceCd=160&Type=search", "url2": "http://matsuoka-ems.net/" }, "geometry": { "type": "Point", "coordinates": [ 130.370252299999947, 31.386917 ] } },
{ "type": "Feature", "properties": { "内容": "南九州サザン・リハビリセンター【通所リハビリテーション】鹿児島県南九州市知覧町郡１７７８９－１番地", "url": "https://www.kaigokensaku.mhlw.go.jp/46/index.php?action_kouhyou_detail_004_kani=true&JigyosyoCd=4614310425-00&ServiceCd=160&Type=search", "url2": "https://southern-reha.jp/" }, "geometry": { "type": "Point", "coordinates": [ 130.430959413636742, 31.360264548614648 ] } },
{ "type": "Feature", "properties": { "内容": "菊野病院通所リハビリテーションひかり【通所リハビリテーション】鹿児島県南九州市川辺町平山3815番地", "url": "https://www.kaigokensaku.mhlw.go.jp/46/index.php?action_kouhyou_detail_004_kani=true&JigyosyoCd=4614310292-00&ServiceCd=160&Type=search", "url2": "https://kikunokai.jp/通所リハビリテーション-ひかり/" }, "geometry": { "type": "Point", "coordinates": [ 130.390669980378902, 31.385914515421643 ] } },
{ "type": "Feature", "properties": { "内容": "中村温泉病院【通所リハビリテーション】鹿児島県南九州市頴娃町別府１番地", "url": "https://www.kaigokensaku.mhlw.go.jp/46/index.php?action_kouhyou_detail_004_kani=true&JigyosyoCd=4614310045-00&ServiceCd=160&Type=search", "url2": "https://www.shiseikai-naon.com" }, "geometry": { "type": "Point", "coordinates": [ 130.455823099999947, 31.2534036 ] } },
{ "type": "Feature", "properties": { "内容": "医療法人七福会　笹川医院【通所リハビリテーション】鹿児島県南九州市頴娃町別府11700-2", "url": "https://www.kaigokensaku.mhlw.go.jp/46/index.php?action_kouhyou_detail_004_kani=true&JigyosyoCd=4614310409-00&ServiceCd=160&Type=search", "url2": null }, "geometry": { "type": "Point", "coordinates": [ 130.433512899999982, 31.2891999 ] } },
{ "type": "Feature", "properties": { "内容": "老人保健施設かわなべ寿光苑通所リハビリテーションそよかぜ【通所リハビリテーション】南九州市川辺町田部田4848-4", "url": "https://www.kaigokensaku.mhlw.go.jp/46/index.php?action_kouhyou_detail_004_kani=true&JigyosyoCd=4652380017-00&ServiceCd=160&Type=search", "url2": "https://kikunokai.jp/related-facilities/soyokaze/" }, "geometry": { "type": "Point", "coordinates": [ 130.389656100000025, 31.3868176 ] } },
{ "type": "Feature", "properties": { "内容": "シルバーライフちらん通所リハビリテーション【通所リハビリテーション】鹿児島県南九州市知覧町塩屋１６０１６番地", "url": "https://www.kaigokensaku.mhlw.go.jp/46/index.php?action_kouhyou_detail_004_kani=true&JigyosyoCd=4652380033-00&ServiceCd=160&Type=search", "url2": "http://www.roken-chiran.or.jp" }, "geometry": { "type": "Point", "coordinates": [ 130.38199910000003, 31.2893897 ] } },
{ "type": "Feature", "properties": { "内容": "医療法人　心晴　菱刈中央医院　通所リハビリテーション楓【通所リハビリテーション】鹿児島県伊佐市菱刈前目７９０－１", "url": "https://www.kaigokensaku.mhlw.go.jp/46/index.php?action_kouhyou_detail_004_kani=true&JigyosyoCd=4614410225-00&ServiceCd=160&Type=search", "url2": null }, "geometry": { "type": "Point", "coordinates": [ 130.637932500000034, 32.0139993 ] } },
{ "type": "Feature", "properties": { "内容": "柏葉会水間病院【通所リハビリテーション】鹿児島県伊佐市菱刈前目２１２５", "url": "https://www.kaigokensaku.mhlw.go.jp/46/index.php?action_kouhyou_detail_004_kani=true&JigyosyoCd=4614410217-00&ServiceCd=160&Type=search", "url2": "http://mizumahp.net/" }, "geometry": { "type": "Point", "coordinates": [ 130.643715499999985, 32.0110219 ] } },
{ "type": "Feature", "properties": { "内容": "介護老人保健施設はやひと【通所リハビリテーション】伊佐市大口青木3022番地33", "url": "https://www.kaigokensaku.mhlw.go.jp/46/index.php?action_kouhyou_detail_004_kani=true&JigyosyoCd=4650980016-00&ServiceCd=160&Type=search", "url2": "http//www.hayahito.com" }, "geometry": { "type": "Point", "coordinates": [ 130.633753500000012, 32.0569036 ] } },
{ "type": "Feature", "properties": { "内容": "坂元内科【通所リハビリテーション】鹿児島県伊佐市菱刈重留1353坂元内科", "url": "https://www.kaigokensaku.mhlw.go.jp/46/index.php?action_kouhyou_detail_004_kani=true&JigyosyoCd=4614410241-00&ServiceCd=160&Type=search", "url2": null }, "geometry": { "type": "Point", "coordinates": [ 130.632981699999959, 32.0369221 ] } },
{ "type": "Feature", "properties": { "内容": "整形外科松元病院通所リハビリテーション【通所リハビリテーション】伊佐市大口里491-2", "url": "https://www.kaigokensaku.mhlw.go.jp/46/index.php?action_kouhyou_detail_004_kani=true&JigyosyoCd=4614410050-00&ServiceCd=160&Type=search", "url2": "http://www.matsumoto-hp.net/" }, "geometry": { "type": "Point", "coordinates": [ 130.604307795106507, 32.060623762742011 ] } },
{ "type": "Feature", "properties": { "内容": "シルバータウン加治木【通所リハビリテーション】鹿児島県姶良市加治木町木田4719-1", "url": "https://www.kaigokensaku.mhlw.go.jp/46/index.php?action_kouhyou_detail_004_kani=true&JigyosyoCd=4652880032-00&ServiceCd=160&Type=search", "url2": "http://kajiki-shokikai.jp/silver-t-k" }, "geometry": { "type": "Point", "coordinates": [ 130.66289304615475, 31.750603559109457 ] } },
{ "type": "Feature", "properties": { "内容": "加治木整形外科病院　通所リハビリテーション【通所リハビリテーション】鹿児島県姶良市加治木町港町145番地1", "url": "https://www.kaigokensaku.mhlw.go.jp/46/index.php?action_kouhyou_detail_004_kani=true&JigyosyoCd=4614511014-00&ServiceCd=160&Type=search", "url2": "http://www.keiyoukaikajiki.or.jp" }, "geometry": { "type": "Point", "coordinates": [ 130.665782323160784, 31.733299417718939 ] } },
{ "type": "Feature", "properties": { "内容": "介護老人保健施設　ろうけん大楠【通所リハビリテーション】鹿児島県姶良市蒲生町下久徳１２４９－１", "url": "https://www.kaigokensaku.mhlw.go.jp/46/index.php?action_kouhyou_detail_004_kani=true&JigyosyoCd=4652880081-00&ServiceCd=160&Type=search", "url2": null }, "geometry": { "type": "Point", "coordinates": [ 130.5954931, 31.7509729 ] } },
{ "type": "Feature", "properties": { "内容": "たけうちクリニック【通所リハビリテーション】鹿児島県姶良市西餅田140", "url": "https://www.kaigokensaku.mhlw.go.jp/46/index.php?action_kouhyou_detail_004_kani=true&JigyosyoCd=4614510446-00&ServiceCd=160&Type=search", "url2": "http://www.takeuchi-clinic.info/" }, "geometry": { "type": "Point", "coordinates": [ 130.628923799999939, 31.7356721 ] } },
{ "type": "Feature", "properties": { "内容": "医療法人　こころの陽　こまき内科循環器科クリニック【通所リハビリテーション】鹿児島県姶良市宮島町55-10", "url": "https://www.kaigokensaku.mhlw.go.jp/46/index.php?action_kouhyou_detail_004_kani=true&JigyosyoCd=4614510602-00&ServiceCd=160&Type=search", "url2": "http://www.kokoronohi.net" }, "geometry": { "type": "Point", "coordinates": [ 130.624602399999958, 31.7250871 ] } },
{ "type": "Feature", "properties": { "内容": "山下わたる内科通所リハビリテーションそよ風【通所リハビリテーション】鹿児島県姶良市東餅田424-1", "url": "https://www.kaigokensaku.mhlw.go.jp/46/index.php?action_kouhyou_detail_004_kani=true&JigyosyoCd=4674500907-00&ServiceCd=160&Type=search", "url2": null }, "geometry": { "type": "Point", "coordinates": [ 130.6333763, 31.7341217 ] } },
{ "type": "Feature", "properties": { "内容": "クオラリハビリテーション病院あいら【通所リハビリテーション】鹿児島県姶良市西餅田2300番地1", "url": "https://www.kaigokensaku.mhlw.go.jp/46/index.php?action_kouhyou_detail_004_kani=true&JigyosyoCd=4614510859-00&ServiceCd=160&Type=search", "url2": "http://www.qoler.jp" }, "geometry": { "type": "Point", "coordinates": [ 130.617931421800705, 31.728616892749447 ] } },
{ "type": "Feature", "properties": { "内容": "ザ王病院介護医療院　通所リハビリテーション【通所リハビリテーション】鹿児島県姶良市加治木町反土２１５１－１", "url": "https://www.kaigokensaku.mhlw.go.jp/46/index.php?action_kouhyou_detail_004_kani=true&JigyosyoCd=46B4500031-00&ServiceCd=160&Type=search", "url2": "http://zaouhp.jp" }, "geometry": { "type": "Point", "coordinates": [ 130.6656533, 31.7463617 ] } },
{ "type": "Feature", "properties": { "内容": "尾田内科胃腸科　通所リハビリテーション【通所リハビリテーション】鹿児島県姶良市平松４７３０", "url": "https://www.kaigokensaku.mhlw.go.jp/46/index.php?action_kouhyou_detail_004_kani=true&JigyosyoCd=4614510370-00&ServiceCd=160&Type=search", "url2": "https://odanaika-ityouka.com/" }, "geometry": { "type": "Point", "coordinates": [ 130.6033579, 31.7124405 ] } },
{ "type": "Feature", "properties": { "内容": "ろうけん姶良【通所リハビリテーション】鹿児島県姶良市平松5062番地", "url": "https://www.kaigokensaku.mhlw.go.jp/46/index.php?action_kouhyou_detail_004_kani=true&JigyosyoCd=4652880065-00&ServiceCd=160&Type=search", "url2": "https://www.daishin-kibou.com/" }, "geometry": { "type": "Point", "coordinates": [ 130.59741669999994, 31.7124431 ] } },
{ "type": "Feature", "properties": { "内容": "吉留クリニック　通所リハビリテーション【通所リハビリテーション】姶良市蒲生町上久徳2561", "url": "https://www.kaigokensaku.mhlw.go.jp/46/index.php?action_kouhyou_detail_004_kani=true&JigyosyoCd=4614510693-00&ServiceCd=160&Type=search", "url2": "http://www.ichioukai.or.jp" }, "geometry": { "type": "Point", "coordinates": [ 130.573011599999973, 31.7602858 ] } },
{ "type": "Feature", "properties": { "内容": "パラディーノ　ほたるの里【通所リハビリテーション】鹿児島県薩摩郡さつま町柏原493-5", "url": "https://www.kaigokensaku.mhlw.go.jp/46/index.php?action_kouhyou_detail_004_kani=true&JigyosyoCd=4652580020-00&ServiceCd=160&Type=search", "url2": null }, "geometry": { "type": "Point", "coordinates": [ 130.457508700000062, 31.9314979 ] } },
{ "type": "Feature", "properties": { "内容": "稲津内科病院通所リハビリテーション【通所リハビリテーション】鹿児島県薩摩郡さつま町宮之城屋地１３７８", "url": "https://www.kaigokensaku.mhlw.go.jp/46/index.php?action_kouhyou_detail_004_kani=true&JigyosyoCd=4612511354-00&ServiceCd=160&Type=search", "url2": null }, "geometry": { "type": "Point", "coordinates": [ 130.45388509999998, 31.8977713 ] } },
{ "type": "Feature", "properties": { "内容": "介護老人保健施設クオリエ【通所リハビリテーション】薩摩郡さつま町船木2311番地8", "url": "https://www.kaigokensaku.mhlw.go.jp/46/index.php?action_kouhyou_detail_004_kani=true&JigyosyoCd=4652580012-00&ServiceCd=160&Type=search", "url2": "https://www.qoler.jp/qualie/" }, "geometry": { "type": "Point", "coordinates": [ 130.440254099999947, 31.8730211 ] } },
{ "type": "Feature", "properties": { "内容": "医療法人海江田医院【通所リハビリテーション】薩摩郡さつま町宮之城屋地1461", "url": "https://www.kaigokensaku.mhlw.go.jp/46/index.php?action_kouhyou_detail_004_kani=true&JigyosyoCd=4612511248-00&ServiceCd=160&Type=search", "url2": "http://kaieda-hospital.sakura.ne.jp" }, "geometry": { "type": "Point", "coordinates": [ 130.453859800000032, 31.902459699999987 ] } },
{ "type": "Feature", "properties": { "内容": "林内科医院【通所リハビリテーション】姶良郡湧水町中津川498番地", "url": "https://www.kaigokensaku.mhlw.go.jp/46/index.php?action_kouhyou_detail_004_kani=true&JigyosyoCd=4612811606-00&ServiceCd=160&Type=search", "url2": null }, "geometry": { "type": "Point", "coordinates": [ 130.743181400000026, 32.0144177 ] } },
{ "type": "Feature", "properties": { "内容": "医療法人玲心会　はるびゅうクリニック　通所リハビリテーション【通所リハビリテーション】鹿児島県曽於郡大崎町野方6045番地1", "url": "https://www.kaigokensaku.mhlw.go.jp/46/index.php?action_kouhyou_detail_004_kani=true&JigyosyoCd=4612911240-00&ServiceCd=160&Type=search", "url2": "http://www.reishinkai.or.jp/" }, "geometry": { "type": "Point", "coordinates": [ 130.942122899999958, 31.5089475 ] } },
{ "type": "Feature", "properties": { "内容": "介護老人保健施設サンセリテのがた【通所リハビリテーション】鹿児島県曽於郡大崎町野方6047番地3", "url": "https://www.kaigokensaku.mhlw.go.jp/46/index.php?action_kouhyou_detail_004_kani=true&JigyosyoCd=4652980048-00&ServiceCd=160&Type=search", "url2": "http://www.reishinkai.or.jp/" }, "geometry": { "type": "Point", "coordinates": [ 130.942374083467143, 31.509456829192398 ] } },
{ "type": "Feature", "properties": { "内容": "肝属郡医師会立介護老人保健施設みなみかぜ【通所リハビリテーション】鹿児島県肝属郡錦江町神川88-1", "url": "https://www.kaigokensaku.mhlw.go.jp/46/index.php?action_kouhyou_detail_004_kani=true&JigyosyoCd=4653080038-00&ServiceCd=160&Type=search", "url2": "http://k-minamikaze.jp/" }, "geometry": { "type": "Point", "coordinates": [ 130.7916831, 31.259772800000011 ] } },
{ "type": "Feature", "properties": { "内容": "肝付町立病院【通所リハビリテーション】鹿児島県肝属郡肝付町北方1953番地", "url": "https://www.kaigokensaku.mhlw.go.jp/46/index.php?action_kouhyou_detail_004_kani=true&JigyosyoCd=4613010554-00&ServiceCd=160&Type=search", "url2": "https://kimotsuki-town.jp/soshiki/byouin/index.html" }, "geometry": { "type": "Point", "coordinates": [ 131.072936900000059, 31.282895 ] } },
{ "type": "Feature", "properties": { "内容": "老春苑通所リハビリテーション【通所リハビリテーション】鹿児島県肝属郡肝付町新富525番地", "url": "https://www.kaigokensaku.mhlw.go.jp/46/index.php?action_kouhyou_detail_004_kani=true&JigyosyoCd=4653080012-00&ServiceCd=160&Type=search", "url2": null }, "geometry": { "type": "Point", "coordinates": [ 130.9470781, 31.3518693 ] } },
{ "type": "Feature", "properties": { "内容": "医療法人徳洲会　高山クリニック【通所リハビリテーション】鹿児島県肝属郡肝付町新富818番地1", "url": "https://www.kaigokensaku.mhlw.go.jp/46/index.php?action_kouhyou_detail_004_kani=true&JigyosyoCd=4613011388-00&ServiceCd=160&Type=search", "url2": "http//www.tokushukai.or.jp" }, "geometry": { "type": "Point", "coordinates": [ 130.952645649737519, 31.347442578311224 ] } },
{ "type": "Feature", "properties": { "内容": "医療法人徳洲会屋久島徳洲会介護ｾﾝﾀｰ【通所リハビリテーション】熊毛郡屋久島町宮之浦２４６７番地屋久島徳洲会病院", "url": "https://www.kaigokensaku.mhlw.go.jp/46/index.php?action_kouhyou_detail_004_kani=true&JigyosyoCd=4678200124-00&ServiceCd=160&Type=search", "url2": "http://Yakutoku．com/" }, "geometry": { "type": "Point", "coordinates": [ 130.586549800000057, 30.4183409 ] } },
{ "type": "Feature", "properties": { "内容": "介護老人保健施設せとうち【通所リハビリテーション】鹿児島県大島郡瀬戸内町阿木名1975介護老人保健施設　せとうち", "url": "https://www.kaigokensaku.mhlw.go.jp/46/index.php?action_kouhyou_detail_004_kani=true&JigyosyoCd=4653280042-00&ServiceCd=160&Type=search", "url2": null }, "geometry": { "type": "Point", "coordinates": [ 129.3357277, 28.1705905 ] } },
{ "type": "Feature", "properties": { "内容": "医療法人　徳洲会　瀬戸内徳洲会病院介護センター　通所リハビリテーション【通所リハビリテーション】鹿児島県大島郡瀬戸内町古仁屋トンキャン原1358-1", "url": "https://www.kaigokensaku.mhlw.go.jp/46/index.php?action_kouhyou_detail_004_kani=true&JigyosyoCd=4678600141-00&ServiceCd=160&Type=search", "url2": "http://www.setouchitokushukai.or.jp" }, "geometry": { "type": "Point", "coordinates": [ 129.322388678001431, 28.137605861603003 ] } },
{ "type": "Feature", "properties": { "内容": "医療法人徳洲会　　喜界徳洲会介護センター【通所リハビリテーション】大島郡喜界町赤連105-5喜界徳洲会病院", "url": "https://www.kaigokensaku.mhlw.go.jp/46/index.php?action_kouhyou_detail_004_kani=true&JigyosyoCd=4679000143-00&ServiceCd=160&Type=search", "url2": "http://kikai-tokushukai.com/" }, "geometry": { "type": "Point", "coordinates": [ 129.947273864340218, 28.315759264302613 ] } },
{ "type": "Feature", "properties": { "内容": "宮上病院　通所リハビリテーション【通所リハビリテーション】亀津７２６８", "url": "https://www.kaigokensaku.mhlw.go.jp/46/index.php?action_kouhyou_detail_004_kani=true&JigyosyoCd=4613210634-00&ServiceCd=160&Type=search", "url2": null }, "geometry": { "type": "Point", "coordinates": [ 129.018846599999961, 27.7276089 ] } },
{ "type": "Feature", "properties": { "内容": "医療法人徳洲会　徳之島徳洲会介護センター【通所リハビリテーション】大島郡徳之島町亀徳2277番1", "url": "https://www.kaigokensaku.mhlw.go.jp/46/index.php?action_kouhyou_detail_004_kani=true&JigyosyoCd=4679100182-00&ServiceCd=160&Type=search", "url2": "http://www.tokunoshima-tokushukai.com/" }, "geometry": { "type": "Point", "coordinates": [ 129.026609612362904, 27.745440753367497 ] } },
{ "type": "Feature", "properties": { "内容": "医療法人徳洲会介護老人保健施設愛心園【通所リハビリテーション】瀬滝398番地", "url": "https://www.kaigokensaku.mhlw.go.jp/46/index.php?action_kouhyou_detail_004_kani=true&JigyosyoCd=4653280026-00&ServiceCd=160&Type=search", "url2": "aisinen@voice.ocn.ne.jp" }, "geometry": { "type": "Point", "coordinates": [ 128.913485199999968, 27.7758815 ] } },
{ "type": "Feature", "properties": { "内容": "医療法人徳洲会　伊仙クリニック【通所リハビリテーション】鹿児島県大島郡伊仙町伊仙２０９７", "url": "https://www.kaigokensaku.mhlw.go.jp/46/index.php?action_kouhyou_detail_004_kani=true&JigyosyoCd=4613211558-00&ServiceCd=160&Type=search", "url2": null }, "geometry": { "type": "Point", "coordinates": [ 128.936558389549191, 27.674520086894223 ] } },
{ "type": "Feature", "properties": { "内容": "沖永良部寿恵苑　通所リハビリテーション【通所リハビリテーション】大島郡和泊町和泊９５－１", "url": "https://www.kaigokensaku.mhlw.go.jp/46/index.php?action_kouhyou_detail_004_kani=true&JigyosyoCd=4653280018-00&ServiceCd=160&Type=search", "url2": null }, "geometry": { "type": "Point", "coordinates": [ 128.65301420000003, 27.3883096 ] } },
{ "type": "Feature", "properties": { "内容": "朝戸医院通所リハビリテーション【通所リハビリテーション】鹿児島県大島郡和泊町和泊１４番地", "url": "https://www.kaigokensaku.mhlw.go.jp/46/index.php?action_kouhyou_detail_004_kani=true&JigyosyoCd=4613211038-00&ServiceCd=160&Type=search", "url2": null }, "geometry": { "type": "Point", "coordinates": [ 128.654696800000011, 27.3927927 ] } },
{ "type": "Feature", "properties": { "内容": "医療法人徳洲会沖永良部徳洲会介護センター【通所リハビリテーション】鹿児島県大島郡知名町瀬利覚字小米原2208番地沖永良部徳洲会病院　通所リハビリテーション室", "url": "https://www.kaigokensaku.mhlw.go.jp/46/index.php?action_kouhyou_detail_004_kani=true&JigyosyoCd=4679500118-00&ServiceCd=160&Type=search", "url2": "http://www.okitoku.net" }, "geometry": { "type": "Point", "coordinates": [ 128.576752199999987, 27.335181 ] } }
]
}
