{
"type": "FeatureCollection",
"name": "geo_46_特定福祉用具販売",
"crs": { "type": "name", "properties": { "name": "urn:ogc:def:crs:OGC:1.3:CRS84" } },
"features": [
{ "type": "Feature", "properties": { "内容": "株式会社カインドネス真【特定福祉用具販売】谷山中央二丁目４１６８番地", "url": "https://www.kaigokensaku.mhlw.go.jp/46/index.php?action_kouhyou_detail_004_kani=true&JigyosyoCd=4670110784-00&ServiceCd=410&Type=search", "url2": null }, "geometry": { "type": "Point", "coordinates": [ 130.521697602748645, 31.525819270028919 ] } },
{ "type": "Feature", "properties": { "内容": "きらりケアネット【特定福祉用具販売】小松原１丁目５０番２２号四元ビル", "url": "https://www.kaigokensaku.mhlw.go.jp/46/index.php?action_kouhyou_detail_004_kani=true&JigyosyoCd=4670113325-00&ServiceCd=410&Type=search", "url2": null }, "geometry": { "type": "Point", "coordinates": [ 130.529622194328539, 31.534808416019807 ] } },
{ "type": "Feature", "properties": { "内容": "エミング【特定福祉用具販売】錦江台1丁目65-8", "url": "https://www.kaigokensaku.mhlw.go.jp/46/index.php?action_kouhyou_detail_004_kani=true&JigyosyoCd=4670102948-00&ServiceCd=410&Type=search", "url2": null }, "geometry": { "type": "Point", "coordinates": [ 130.49300489999996, 31.5009703 ] } },
{ "type": "Feature", "properties": { "内容": "きいれんと【特定福祉用具販売】鹿児島県鹿児島市喜入町7020番地1", "url": "https://www.kaigokensaku.mhlw.go.jp/46/index.php?action_kouhyou_detail_004_kani=true&JigyosyoCd=4670109752-00&ServiceCd=410&Type=search", "url2": null }, "geometry": { "type": "Point", "coordinates": [ 130.542908399999988, 31.3738792 ] } },
{ "type": "Feature", "properties": { "内容": "株式会社手摺本舗【特定福祉用具販売】鹿児島市下福元町2892番地1", "url": "https://www.kaigokensaku.mhlw.go.jp/46/index.php?action_kouhyou_detail_004_kani=true&JigyosyoCd=4670112277-00&ServiceCd=410&Type=search", "url2": null }, "geometry": { "type": "Point", "coordinates": [ 130.489915600000018, 31.513118 ] } },
{ "type": "Feature", "properties": { "内容": "フィールド･ケア【特定福祉用具販売】本名町1141-2", "url": "https://www.kaigokensaku.mhlw.go.jp/46/index.php?action_kouhyou_detail_004_kani=true&JigyosyoCd=4671500074-00&ServiceCd=410&Type=search", "url2": null }, "geometry": { "type": "Point", "coordinates": [ 130.5518098, 31.685070199999959 ] } },
{ "type": "Feature", "properties": { "内容": "株式会社　サンハート【特定福祉用具販売】向陽2丁目11-10", "url": "https://www.kaigokensaku.mhlw.go.jp/46/index.php?action_kouhyou_detail_004_kani=true&JigyosyoCd=4670102393-00&ServiceCd=410&Type=search", "url2": null }, "geometry": { "type": "Point", "coordinates": [ 130.51924550099659, 31.558695189949265 ] } },
{ "type": "Feature", "properties": { "内容": "パナソニック　エイジフリーショップ富士【特定福祉用具販売】鹿児島県鹿児島市宇宿2丁目22-15", "url": "https://www.kaigokensaku.mhlw.go.jp/46/index.php?action_kouhyou_detail_004_kani=true&JigyosyoCd=4670111261-00&ServiceCd=410&Type=search", "url2": "https://sumai.panasonic.jp/agefree/map/detail.php?id=228" }, "geometry": { "type": "Point", "coordinates": [ 130.540843900000027, 31.5388511 ] } },
{ "type": "Feature", "properties": { "内容": "株式会社ケアネスト【特定福祉用具販売】鹿児島県鹿児島市小松原１丁目１６番１１号", "url": "https://www.kaigokensaku.mhlw.go.jp/46/index.php?action_kouhyou_detail_004_kani=true&JigyosyoCd=4670109893-00&ServiceCd=410&Type=search", "url2": null }, "geometry": { "type": "Point", "coordinates": [ 130.533453, 31.5373235 ] } },
{ "type": "Feature", "properties": { "内容": "住まいるライフ株式会社【特定福祉用具販売】鹿児島県鹿児島市武岡3丁目2-2", "url": "https://www.kaigokensaku.mhlw.go.jp/46/index.php?action_kouhyou_detail_004_kani=true&JigyosyoCd=4670112673-00&ServiceCd=410&Type=search", "url2": "http://www4.synapse.ne.jp/smilelife/" }, "geometry": { "type": "Point", "coordinates": [ 130.516788, 31.5908156 ] } },
{ "type": "Feature", "properties": { "内容": "有限会社　南州メディカル　鹿児島店【特定福祉用具販売】鹿児島市下伊敷3丁目22番28号", "url": "https://www.kaigokensaku.mhlw.go.jp/46/index.php?action_kouhyou_detail_004_kani=true&JigyosyoCd=4670107764-00&ServiceCd=410&Type=search", "url2": "https://nansyu-m.co.jp/" }, "geometry": { "type": "Point", "coordinates": [ 130.537749299999973, 31.6205564 ] } },
{ "type": "Feature", "properties": { "内容": "有限会社　南州メディカル　谷山店【特定福祉用具販売】鹿児島市谷山中央3丁目4642", "url": "https://www.kaigokensaku.mhlw.go.jp/46/index.php?action_kouhyou_detail_004_kani=true&JigyosyoCd=4670112301-00&ServiceCd=410&Type=search", "url2": "https://nansyu-m.co.jp/" }, "geometry": { "type": "Point", "coordinates": [ 130.518313300000045, 31.5186112 ] } },
{ "type": "Feature", "properties": { "内容": "あおぞらケアテクノロジー【特定福祉用具販売】鹿児島県鹿児島市下荒田3丁目17‐1レジデンス久野ビル３F", "url": "https://www.kaigokensaku.mhlw.go.jp/46/index.php?action_kouhyou_detail_004_kani=true&JigyosyoCd=4670113242-00&ServiceCd=410&Type=search", "url2": "https://www.aozora-gp.com/" }, "geometry": { "type": "Point", "coordinates": [ 130.552951, 31.5721152 ] } },
{ "type": "Feature", "properties": { "内容": "ケアネット・たから【特定福祉用具販売】山田町2174-6", "url": "https://www.kaigokensaku.mhlw.go.jp/46/index.php?action_kouhyou_detail_004_kani=true&JigyosyoCd=4670106600-00&ServiceCd=410&Type=search", "url2": "http://tkr3a.co.jp/" }, "geometry": { "type": "Point", "coordinates": [ 130.5074962, 31.5650729 ] } },
{ "type": "Feature", "properties": { "内容": "ダスキンヘルスレント鹿児島ステーション【特定福祉用具販売】鹿児島県鹿児島市新栄町32-36", "url": "https://www.kaigokensaku.mhlw.go.jp/46/index.php?action_kouhyou_detail_004_kani=true&JigyosyoCd=4670103391-00&ServiceCd=410&Type=search", "url2": "http://healthrent.duskin.jp/" }, "geometry": { "type": "Point", "coordinates": [ 130.552551561696077, 31.546776325454932 ] } },
{ "type": "Feature", "properties": { "内容": "株式会社フロンティア【特定福祉用具販売】鹿児島県鹿児島市東谷山6丁目17番3号", "url": "https://www.kaigokensaku.mhlw.go.jp/46/index.php?action_kouhyou_detail_004_kani=true&JigyosyoCd=4670111568-00&ServiceCd=410&Type=search", "url2": "https://www.frontier-ph.com/welfare_home/" }, "geometry": { "type": "Point", "coordinates": [ 130.520762600000012, 31.5366402 ] } },
{ "type": "Feature", "properties": { "内容": "メディコープ・ケアプラザ【特定福祉用具販売】鹿児島市谷山中央5丁目16-2", "url": "https://www.kaigokensaku.mhlw.go.jp/46/index.php?action_kouhyou_detail_004_kani=true&JigyosyoCd=4670101320-00&ServiceCd=410&Type=search", "url2": "http://www.medicorp.co.jp/kouri.html" }, "geometry": { "type": "Point", "coordinates": [ 130.512830600000029, 31.5180167 ] } },
{ "type": "Feature", "properties": { "内容": "株式会社　さくら医療器械【特定福祉用具販売】鹿児島市新照院町17-11", "url": "https://www.kaigokensaku.mhlw.go.jp/46/index.php?action_kouhyou_detail_004_kani=true&JigyosyoCd=4670100843-00&ServiceCd=410&Type=search", "url2": "http://www.sakurairyo.jp/" }, "geometry": { "type": "Point", "coordinates": [ 130.543905600000016, 31.5941867 ] } },
{ "type": "Feature", "properties": { "内容": "ケアサポート【特定福祉用具販売】鹿児島市上谷口町２８６４－６", "url": "https://www.kaigokensaku.mhlw.go.jp/46/index.php?action_kouhyou_detail_004_kani=true&JigyosyoCd=4670104464-00&ServiceCd=410&Type=search", "url2": "https://www.caresupportkagoshima.com/" }, "geometry": { "type": "Point", "coordinates": [ 130.43650266483462, 31.605278736782967 ] } },
{ "type": "Feature", "properties": { "内容": "鹿児島市大明丘二丁目23番12号【特定福祉用具販売】大明丘二丁目23番12号", "url": "https://www.kaigokensaku.mhlw.go.jp/46/index.php?action_kouhyou_detail_004_kani=true&JigyosyoCd=4670106766-00&ServiceCd=410&Type=search", "url2": null }, "geometry": { "type": "Point", "coordinates": [ 130.570060699999971, 31.630094799999988 ] } },
{ "type": "Feature", "properties": { "内容": "有限会社　グランケア【特定福祉用具販売】鹿児島県鹿児島市皇徳寺台5丁目27-1", "url": "https://www.kaigokensaku.mhlw.go.jp/46/index.php?action_kouhyou_detail_004_kani=true&JigyosyoCd=4670102401-00&ServiceCd=410&Type=search", "url2": "https://grancare.jp" }, "geometry": { "type": "Point", "coordinates": [ 130.480137508845473, 31.565071852633835 ] } },
{ "type": "Feature", "properties": { "内容": "有限会社　平成メディカル【特定福祉用具販売】鹿児島市宮之浦町1424-1", "url": "https://www.kaigokensaku.mhlw.go.jp/46/index.php?action_kouhyou_detail_004_kani=true&JigyosyoCd=4670101957-00&ServiceCd=410&Type=search", "url2": "http://heisei-m" }, "geometry": { "type": "Point", "coordinates": [ 130.564242599999943, 31.6738158 ] } },
{ "type": "Feature", "properties": { "内容": "有限会社ウェルフェア【特定福祉用具販売】下荒田1-8-11松久保ビル2Ｆ", "url": "https://www.kaigokensaku.mhlw.go.jp/46/index.php?action_kouhyou_detail_004_kani=true&JigyosyoCd=4670103961-00&ServiceCd=410&Type=search", "url2": "http://welfare-kaigo.com/" }, "geometry": { "type": "Point", "coordinates": [ 130.554786, 31.5763003 ] } },
{ "type": "Feature", "properties": { "内容": "有限会社よしとく福祉【特定福祉用具販売】吉野町3221番地5", "url": "https://www.kaigokensaku.mhlw.go.jp/46/index.php?action_kouhyou_detail_004_kani=true&JigyosyoCd=4670102492-00&ServiceCd=410&Type=search", "url2": "http://www.yoshitoku-wel.com" }, "geometry": { "type": "Point", "coordinates": [ 130.570607500000051, 31.641427 ] } },
{ "type": "Feature", "properties": { "内容": "株式会社カクイックスウィング鹿児島中央営業所【特定福祉用具販売】鹿児島県鹿児島市加治屋町3-1", "url": "https://www.kaigokensaku.mhlw.go.jp/46/index.php?action_kouhyou_detail_004_kani=true&JigyosyoCd=4670105388-00&ServiceCd=410&Type=search", "url2": "https:www.kakuix-wing.com" }, "geometry": { "type": "Point", "coordinates": [ 130.5473179, 31.5854606 ] } },
{ "type": "Feature", "properties": { "内容": "かうぴり【特定福祉用具販売】鹿児島県鹿児島市清和3丁目12-26シャルム松元A01", "url": "https://www.kaigokensaku.mhlw.go.jp/46/index.php?action_kouhyou_detail_004_kani=true&JigyosyoCd=4670113374-00&ServiceCd=410&Type=search", "url2": null }, "geometry": { "type": "Point", "coordinates": [ 130.508792699999987, 31.5345191 ] } },
{ "type": "Feature", "properties": { "内容": "カクイックスウィング鹿児島営業所【特定福祉用具販売】鹿児島市谷山港1-2-7", "url": "https://www.kaigokensaku.mhlw.go.jp/46/index.php?action_kouhyou_detail_004_kani=true&JigyosyoCd=4670100108-00&ServiceCd=410&Type=search", "url2": "https://www.kakuix-wing.com" }, "geometry": { "type": "Point", "coordinates": [ 130.522263400000043, 31.499321399999975 ] } },
{ "type": "Feature", "properties": { "内容": "株式会社　中礼義肢製作所【特定福祉用具販売】鹿児島市加治屋町１１番３号", "url": "https://www.kaigokensaku.mhlw.go.jp/46/index.php?action_kouhyou_detail_004_kani=true&JigyosyoCd=4670101593-00&ServiceCd=410&Type=search", "url2": "http://www.chureigishi.co.jp" }, "geometry": { "type": "Point", "coordinates": [ 130.548913800000037, 31.5869155 ] } },
{ "type": "Feature", "properties": { "内容": "メイワ医科工業株式会社【特定福祉用具販売】七ッ島１丁目４－８", "url": "https://www.kaigokensaku.mhlw.go.jp/46/index.php?action_kouhyou_detail_004_kani=true&JigyosyoCd=4670101940-00&ServiceCd=410&Type=search", "url2": "http://meiwaika.com" }, "geometry": { "type": "Point", "coordinates": [ 130.512978100000026, 31.4712042 ] } },
{ "type": "Feature", "properties": { "内容": "有限会社三井・メディックス　鹿児島営業所【特定福祉用具販売】鹿児島県鹿児島市南栄5丁目10-4にわシティビル", "url": "https://www.kaigokensaku.mhlw.go.jp/46/index.php?action_kouhyou_detail_004_kani=true&JigyosyoCd=4670112137-00&ServiceCd=410&Type=search", "url2": "http.//mitsui-medix.co.jp/" }, "geometry": { "type": "Point", "coordinates": [ 130.519144, 31.5100842 ] } },
{ "type": "Feature", "properties": { "内容": "ＱＣＣ鹿児島【特定福祉用具販売】鹿児島県鹿児島市吉野1丁目12番23号", "url": "https://www.kaigokensaku.mhlw.go.jp/46/index.php?action_kouhyou_detail_004_kani=true&JigyosyoCd=4670112533-00&ServiceCd=410&Type=search", "url2": "https://www.facebook.com/libertywellnesshhc/" }, "geometry": { "type": "Point", "coordinates": [ 130.569101499999988, 31.6480149 ] } },
{ "type": "Feature", "properties": { "内容": "レンタル丸屋　鹿児島営業所【特定福祉用具販売】鹿児島県鹿児島市西別府町3010-37", "url": "https://www.kaigokensaku.mhlw.go.jp/46/index.php?action_kouhyou_detail_004_kani=true&JigyosyoCd=4670112715-00&ServiceCd=410&Type=search", "url2": "http://www.rental-maruya.com" }, "geometry": { "type": "Point", "coordinates": [ 130.501086500000042, 31.5918807 ] } },
{ "type": "Feature", "properties": { "内容": "㈱ミライクル【特定福祉用具販売】鹿児島市桜ヶ丘六丁目16番12-102号", "url": "https://www.kaigokensaku.mhlw.go.jp/46/index.php?action_kouhyou_detail_004_kani=true&JigyosyoCd=4670113648-00&ServiceCd=410&Type=search", "url2": null }, "geometry": { "type": "Point", "coordinates": [ 130.521199200000012, 31.5470956 ] } },
{ "type": "Feature", "properties": { "内容": "ケアプラス【特定福祉用具販売】武岡四丁目20番10号", "url": "https://www.kaigokensaku.mhlw.go.jp/46/index.php?action_kouhyou_detail_004_kani=true&JigyosyoCd=4670110289-00&ServiceCd=410&Type=search", "url2": null }, "geometry": { "type": "Point", "coordinates": [ 130.510581749737497, 31.595113448129119 ] } },
{ "type": "Feature", "properties": { "内容": "えん【特定福祉用具販売】鹿児島県鹿児島市吉野町11390番地5", "url": "https://www.kaigokensaku.mhlw.go.jp/46/index.php?action_kouhyou_detail_004_kani=true&JigyosyoCd=4670114083-00&ServiceCd=410&Type=search", "url2": null }, "geometry": { "type": "Point", "coordinates": [ 130.590499552114835, 31.659193660737493 ] } },
{ "type": "Feature", "properties": { "内容": "株式会社エルシア【特定福祉用具販売】鹿児島市西谷山二丁目11番１号", "url": "https://www.kaigokensaku.mhlw.go.jp/46/index.php?action_kouhyou_detail_004_kani=true&JigyosyoCd=4670107962-00&ServiceCd=410&Type=search", "url2": null }, "geometry": { "type": "Point", "coordinates": [ 130.507988043425485, 31.520463306376953 ] } },
{ "type": "Feature", "properties": { "内容": "株式会社やさしい手　住環境事業本部鹿児島営業所【特定福祉用具販売】鹿児島県鹿児島市荒田2-74-20", "url": "https://www.kaigokensaku.mhlw.go.jp/46/index.php?action_kouhyou_detail_004_kani=true&JigyosyoCd=4670113085-00&ServiceCd=410&Type=search", "url2": "https://www.yasashiite.com" }, "geometry": { "type": "Point", "coordinates": [ 130.550837699999988, 31.5700152 ] } },
{ "type": "Feature", "properties": { "内容": "有限会社　結愛【特定福祉用具販売】鹿児島県鹿屋市寿８丁目７２４４番地８", "url": "https://www.kaigokensaku.mhlw.go.jp/46/index.php?action_kouhyou_detail_004_kani=true&JigyosyoCd=4670301508-00&ServiceCd=410&Type=search", "url2": "http://yuuai-care.com/" }, "geometry": { "type": "Point", "coordinates": [ 130.879975, 31.3789929 ] } },
{ "type": "Feature", "properties": { "内容": "株式会社トータルケア【特定福祉用具販売】鹿児島県鹿屋市横山町２７６０番地１", "url": "https://www.kaigokensaku.mhlw.go.jp/46/index.php?action_kouhyou_detail_004_kani=true&JigyosyoCd=4670300781-00&ServiceCd=410&Type=search", "url2": null }, "geometry": { "type": "Point", "coordinates": [ 130.8213442, 31.3447887 ] } },
{ "type": "Feature", "properties": { "内容": "ＱＣＣ鹿屋【特定福祉用具販売】笠之原町1912-1", "url": "https://www.kaigokensaku.mhlw.go.jp/46/index.php?action_kouhyou_detail_004_kani=true&JigyosyoCd=4670300401-00&ServiceCd=410&Type=search", "url2": "http://qcc-sc.com/" }, "geometry": { "type": "Point", "coordinates": [ 130.887715221126882, 31.398849065250797 ] } },
{ "type": "Feature", "properties": { "内容": "株式会社　カクイックスウィング鹿屋営業所【特定福祉用具販売】鹿屋市王子町3961-4", "url": "https://www.kaigokensaku.mhlw.go.jp/46/index.php?action_kouhyou_detail_004_kani=true&JigyosyoCd=4670300369-00&ServiceCd=410&Type=search", "url2": "http://www.kakuix-wing.com/" }, "geometry": { "type": "Point", "coordinates": [ 130.86597, 31.4023182 ] } },
{ "type": "Feature", "properties": { "内容": "有限会社三井・メディックス【特定福祉用具販売】鹿屋市上祓川町8469番地1", "url": "https://www.kaigokensaku.mhlw.go.jp/46/index.php?action_kouhyou_detail_004_kani=true&JigyosyoCd=4670300385-00&ServiceCd=410&Type=search", "url2": "http：//mitsui-medix.co.jp/" }, "geometry": { "type": "Point", "coordinates": [ 130.8567253, 31.4381202 ] } },
{ "type": "Feature", "properties": { "内容": "株式会社　鹿児島ヒューマンサービス【特定福祉用具販売】鹿児島県鹿屋市新川町８６２番地", "url": "https://www.kaigokensaku.mhlw.go.jp/46/index.php?action_kouhyou_detail_004_kani=true&JigyosyoCd=4670300377-00&ServiceCd=410&Type=search", "url2": "http:/www.miyazaki-human.co.jp" }, "geometry": { "type": "Point", "coordinates": [ 130.862401699999964, 31.3763871 ] } },
{ "type": "Feature", "properties": { "内容": "有限会社　南州メディカル　枕崎店【特定福祉用具販売】枕崎市住吉町1番地三愛ビル1B", "url": "https://www.kaigokensaku.mhlw.go.jp/46/index.php?action_kouhyou_detail_004_kani=true&JigyosyoCd=4670400235-00&ServiceCd=410&Type=search", "url2": "https://nansyu-m.co.jp/" }, "geometry": { "type": "Point", "coordinates": [ 130.2982766, 31.2725947 ] } },
{ "type": "Feature", "properties": { "内容": "有限会社平成メディカル　福祉住宅体験型営業所まくらざき【特定福祉用具販売】鹿児島県枕崎市中央町185", "url": "https://www.kaigokensaku.mhlw.go.jp/46/index.php?action_kouhyou_detail_004_kani=true&JigyosyoCd=4670400375-00&ServiceCd=410&Type=search", "url2": "https://heisei-m.com/" }, "geometry": { "type": "Point", "coordinates": [ 130.2838805, 31.2739408 ] } },
{ "type": "Feature", "properties": { "内容": "暖家【特定福祉用具販売】鹿児島県阿久根市港町６５番地４株式会社　太田電機工業所", "url": "https://www.kaigokensaku.mhlw.go.jp/46/index.php?action_kouhyou_detail_004_kani=true&JigyosyoCd=4670600396-00&ServiceCd=410&Type=search", "url2": "http://danke-care.com/" }, "geometry": { "type": "Point", "coordinates": [ 130.194898299999977, 32.0154029 ] } },
{ "type": "Feature", "properties": { "内容": "株式会社タートルシルバーショップ雅鹿児島店【特定福祉用具販売】鹿児島県阿久根市赤瀬川2660-1", "url": "https://www.kaigokensaku.mhlw.go.jp/46/index.php?action_kouhyou_detail_004_kani=true&JigyosyoCd=4670600040-00&ServiceCd=410&Type=search", "url2": null }, "geometry": { "type": "Point", "coordinates": [ 130.2134271, 32.036085 ] } },
{ "type": "Feature", "properties": { "内容": "有限会社　南州メディカル　出水店【特定福祉用具販売】出水市西出水町1646番地", "url": "https://www.kaigokensaku.mhlw.go.jp/46/index.php?action_kouhyou_detail_004_kani=true&JigyosyoCd=4670800368-00&ServiceCd=410&Type=search", "url2": "https://nansyu-m.co.jp/" }, "geometry": { "type": "Point", "coordinates": [ 130.3376766, 32.0705822 ] } },
{ "type": "Feature", "properties": { "内容": "株式会社カクイックスウィング　出水サテライト【特定福祉用具販売】出水市高尾野町下水流字西永城2119-12", "url": "https://www.kaigokensaku.mhlw.go.jp/46/index.php?action_kouhyou_detail_004_kani=true&JigyosyoCd=4670800533-00&ServiceCd=410&Type=search", "url2": "http:www.kakuix-wing.com" }, "geometry": { "type": "Point", "coordinates": [ 130.296049361624114, 32.09412227798969 ] } },
{ "type": "Feature", "properties": { "内容": "有限会社　岡村商店　福祉用具事業部【特定福祉用具販売】湊1丁目6番5号", "url": "https://www.kaigokensaku.mhlw.go.jp/46/index.php?action_kouhyou_detail_004_kani=true&JigyosyoCd=4671000125-00&ServiceCd=410&Type=search", "url2": null }, "geometry": { "type": "Point", "coordinates": [ 130.642952753722369, 31.238266975905571 ] } },
{ "type": "Feature", "properties": { "内容": "有限会社　義福【特定福祉用具販売】鹿児島県西之表市西之表7765-3", "url": "https://www.kaigokensaku.mhlw.go.jp/46/index.php?action_kouhyou_detail_004_kani=true&JigyosyoCd=4671300533-00&ServiceCd=410&Type=search", "url2": null }, "geometry": { "type": "Point", "coordinates": [ 131.0029214, 30.7384545 ] } },
{ "type": "Feature", "properties": { "内容": "株式会社リプラス工房【特定福祉用具販売】鹿児島県薩摩川内市平佐町3300番地1", "url": "https://www.kaigokensaku.mhlw.go.jp/46/index.php?action_kouhyou_detail_004_kani=true&JigyosyoCd=4671501015-00&ServiceCd=410&Type=search", "url2": "https://repluskoubou.tkc.best-hp.jp/" }, "geometry": { "type": "Point", "coordinates": [ 130.3161608, 31.8204484 ] } },
{ "type": "Feature", "properties": { "内容": "合同会社アンカー【特定福祉用具販売】鹿児島県薩摩川内市樋脇町塔之原13432-1", "url": "https://www.kaigokensaku.mhlw.go.jp/46/index.php?action_kouhyou_detail_004_kani=true&JigyosyoCd=4671501171-00&ServiceCd=410&Type=search", "url2": null }, "geometry": { "type": "Point", "coordinates": [ 130.4219641, 31.8102927 ] } },
{ "type": "Feature", "properties": { "内容": "有限会社　南州メディカル　川内店【特定福祉用具販売】中郷2丁目6番16号", "url": "https://www.kaigokensaku.mhlw.go.jp/46/index.php?action_kouhyou_detail_004_kani=true&JigyosyoCd=4671500694-00&ServiceCd=410&Type=search", "url2": "https://nansyu-m.co.jp/" }, "geometry": { "type": "Point", "coordinates": [ 130.3097517, 31.8333821 ] } },
{ "type": "Feature", "properties": { "内容": "株式会社　サポート・ケア【特定福祉用具販売】隈之城町１３８－１", "url": "https://www.kaigokensaku.mhlw.go.jp/46/index.php?action_kouhyou_detail_004_kani=true&JigyosyoCd=4671500405-00&ServiceCd=410&Type=search", "url2": null }, "geometry": { "type": "Point", "coordinates": [ 130.306143486813966, 31.799059035940854 ] } },
{ "type": "Feature", "properties": { "内容": "株式会社タクマ建設　北薩営業所【特定福祉用具販売】鹿児島県薩摩川内市永利町字中牟田1858-1パワーランド川内　内", "url": "https://www.kaigokensaku.mhlw.go.jp/46/index.php?action_kouhyou_detail_004_kani=true&JigyosyoCd=4670200684-00&ServiceCd=410&Type=search", "url2": "http://www.e-takuma.jp/" }, "geometry": { "type": "Point", "coordinates": [ 130.338323128926874, 31.809163203409049 ] } },
{ "type": "Feature", "properties": { "内容": "株式会社カクイックスウィング　川内営業所【特定福祉用具販売】薩摩川内市永利町字中牟田1858番地1", "url": "https://www.kaigokensaku.mhlw.go.jp/46/index.php?action_kouhyou_detail_004_kani=true&JigyosyoCd=4670200437-00&ServiceCd=410&Type=search", "url2": "http://www.kakuix-wing.com" }, "geometry": { "type": "Point", "coordinates": [ 130.337434665180268, 31.808728194862169 ] } },
{ "type": "Feature", "properties": { "内容": "ダスキンヘルスレント薩摩ステーション【特定福祉用具販売】伊集院町麦生田72-1", "url": "https://www.kaigokensaku.mhlw.go.jp/46/index.php?action_kouhyou_detail_004_kani=true&JigyosyoCd=4671500751-00&ServiceCd=410&Type=search", "url2": null }, "geometry": { "type": "Point", "coordinates": [ 130.419605700000034, 31.6468769 ] } },
{ "type": "Feature", "properties": { "内容": "有限会社　南州メディカル　日置店【特定福祉用具販売】日置市伊集院町徳重3丁目5-2イースタンハイツ102", "url": "https://www.kaigokensaku.mhlw.go.jp/46/index.php?action_kouhyou_detail_004_kani=true&JigyosyoCd=4672900174-00&ServiceCd=410&Type=search", "url2": "https://nansyu-m.co.jp/" }, "geometry": { "type": "Point", "coordinates": [ 130.397933207652301, 31.631769133242688 ] } },
{ "type": "Feature", "properties": { "内容": "株式会社　カクイックスウィング　曽於サテライト【特定福祉用具販売】曽於市末吉町岩崎836番地1", "url": "https://www.kaigokensaku.mhlw.go.jp/46/index.php?action_kouhyou_detail_004_kani=true&JigyosyoCd=4676600192-00&ServiceCd=410&Type=search", "url2": "http://kakuix-wing.com/blog/" }, "geometry": { "type": "Point", "coordinates": [ 130.991456128824581, 31.602114098072537 ] } },
{ "type": "Feature", "properties": { "内容": "株式会社エスワイ　福祉・介護用品アスター【特定福祉用具販売】隼人町小田928-1", "url": "https://www.kaigokensaku.mhlw.go.jp/46/index.php?action_kouhyou_detail_004_kani=true&JigyosyoCd=4671201368-00&ServiceCd=410&Type=search", "url2": "http://hp.kaipoke.biz/h1r/" }, "geometry": { "type": "Point", "coordinates": [ 130.720367402001841, 31.740363719419555 ] } },
{ "type": "Feature", "properties": { "内容": "有限会社　南州メディカル　隼人店【特定福祉用具販売】霧島市隼人町内山田2丁目17番2号", "url": "https://www.kaigokensaku.mhlw.go.jp/46/index.php?action_kouhyou_detail_004_kani=true&JigyosyoCd=4671200717-00&ServiceCd=410&Type=search", "url2": "https://nansyu-m.co.jp/" }, "geometry": { "type": "Point", "coordinates": [ 130.741804900000034, 31.7467007 ] } },
{ "type": "Feature", "properties": { "内容": "株式会社カクイックスウィング国分営業所【特定福祉用具販売】霧島市国分中央4-2705-1", "url": "https://www.kaigokensaku.mhlw.go.jp/46/index.php?action_kouhyou_detail_004_kani=true&JigyosyoCd=4671200287-00&ServiceCd=410&Type=search", "url2": null }, "geometry": { "type": "Point", "coordinates": [ 130.775204799999983, 31.735916 ] } },
{ "type": "Feature", "properties": { "内容": "有限会社三井・メディックス　国分営業所【特定福祉用具販売】国分清水1丁目14番17号", "url": "https://www.kaigokensaku.mhlw.go.jp/46/index.php?action_kouhyou_detail_004_kani=true&JigyosyoCd=4671201558-00&ServiceCd=410&Type=search", "url2": "http.//mitsui-medix.co.jp/" }, "geometry": { "type": "Point", "coordinates": [ 130.77216569999996, 31.747851 ] } },
{ "type": "Feature", "properties": { "内容": "ライフケア　まごころ【特定福祉用具販売】鹿児島県霧島市牧園町高千穂3864番地株式会社堀之内建設", "url": "https://www.kaigokensaku.mhlw.go.jp/46/index.php?action_kouhyou_detail_004_kani=true&JigyosyoCd=4671201442-00&ServiceCd=410&Type=search", "url2": "https://www.horiken-magokoro.co.jp/" }, "geometry": { "type": "Point", "coordinates": [ 130.816208823942588, 31.885089748988715 ] } },
{ "type": "Feature", "properties": { "内容": "有限会社　安栄【特定福祉用具販売】いちき串木野市御倉町９０番地１", "url": "https://www.kaigokensaku.mhlw.go.jp/46/index.php?action_kouhyou_detail_004_kani=true&JigyosyoCd=4670500141-00&ServiceCd=410&Type=search", "url2": null }, "geometry": { "type": "Point", "coordinates": [ 130.268042899999955, 31.7137472 ] } },
{ "type": "Feature", "properties": { "内容": "株式会社カクイックスウィング　南さつまオフィス【特定福祉用具販売】鹿児島県南さつま市加世田村原1-5-5", "url": "https://www.kaigokensaku.mhlw.go.jp/46/index.php?action_kouhyou_detail_004_kani=true&JigyosyoCd=4671100461-00&ServiceCd=410&Type=search", "url2": "http://www.kakuix-wing.com" }, "geometry": { "type": "Point", "coordinates": [ 130.328415100000029, 31.4208171 ] } },
{ "type": "Feature", "properties": { "内容": "有限会社　カインドケア　鶴【特定福祉用具販売】鹿児島県南さつま市加世田本町42番地8和光ビル　1F", "url": "https://www.kaigokensaku.mhlw.go.jp/46/index.php?action_kouhyou_detail_004_kani=true&JigyosyoCd=4671100222-00&ServiceCd=410&Type=search", "url2": "Ｅ-ｍａｉＩ：ｋｉｎｄｃａｒｅｔｓｕｒｕ＠ｐｅａｃｅ．ｏｃｎ．ｎｅ．ｊｐ" }, "geometry": { "type": "Point", "coordinates": [ 130.3193331, 31.41579 ] } },
{ "type": "Feature", "properties": { "内容": "福祉エンジニアリング有限会社【特定福祉用具販売】鹿児島県奄美市名瀬長浜町10番11号", "url": "https://www.kaigokensaku.mhlw.go.jp/46/index.php?action_kouhyou_detail_004_kani=true&JigyosyoCd=4670700626-00&ServiceCd=410&Type=search", "url2": null }, "geometry": { "type": "Point", "coordinates": [ 129.495285815344261, 28.392961671190207 ] } },
{ "type": "Feature", "properties": { "内容": "有限会社　優喜【特定福祉用具販売】鹿児島県奄美市名瀬小浜町18番24号", "url": "https://www.kaigokensaku.mhlw.go.jp/46/index.php?action_kouhyou_detail_004_kani=true&JigyosyoCd=4670700501-00&ServiceCd=410&Type=search", "url2": "http://hp.kaipoke.biz/yt8/" }, "geometry": { "type": "Point", "coordinates": [ 129.504656100000034, 28.384417 ] } },
{ "type": "Feature", "properties": { "内容": "株式会社　カクイックスウィング　名瀬営業所【特定福祉用具販売】名瀬小浜町30-6", "url": "https://www.kaigokensaku.mhlw.go.jp/46/index.php?action_kouhyou_detail_004_kani=true&JigyosyoCd=4670700303-00&ServiceCd=410&Type=search", "url2": "https://www.kakuix-wing.com" }, "geometry": { "type": "Point", "coordinates": [ 129.501612, 28.3839281 ] } },
{ "type": "Feature", "properties": { "内容": "株式会社ピース【特定福祉用具販売】鹿児島県奄美市名瀬仲勝町1番地23コーポさくら1F", "url": "https://www.kaigokensaku.mhlw.go.jp/46/index.php?action_kouhyou_detail_004_kani=true&JigyosyoCd=4670701236-00&ServiceCd=410&Type=search", "url2": null }, "geometry": { "type": "Point", "coordinates": [ 129.527945300000056, 28.3893447 ] } },
{ "type": "Feature", "properties": { "内容": "有限会社　ケアリンク【特定福祉用具販売】南九州市川辺町平山5992番地1", "url": "https://www.kaigokensaku.mhlw.go.jp/46/index.php?action_kouhyou_detail_004_kani=true&JigyosyoCd=4672700111-00&ServiceCd=410&Type=search", "url2": null }, "geometry": { "type": "Point", "coordinates": [ 130.396246799999972, 31.3896146 ] } },
{ "type": "Feature", "properties": { "内容": "株式会社　システム建築鹿児島【特定福祉用具販売】鹿児島県伊佐市大口下堂崎527-2", "url": "https://www.kaigokensaku.mhlw.go.jp/46/index.php?action_kouhyou_detail_004_kani=true&JigyosyoCd=4674400215-00&ServiceCd=410&Type=search", "url2": "sys-ken.jp/" }, "geometry": { "type": "Point", "coordinates": [ 130.595960092729229, 32.033511433815683 ] } },
{ "type": "Feature", "properties": { "内容": "株式会社HARU【特定福祉用具販売】鹿児島県姶良市加治木町新生町522番地", "url": "https://www.kaigokensaku.mhlw.go.jp/46/index.php?action_kouhyou_detail_004_kani=true&JigyosyoCd=4674500626-00&ServiceCd=410&Type=search", "url2": null }, "geometry": { "type": "Point", "coordinates": [ 130.6523124, 31.7379273 ] } },
{ "type": "Feature", "properties": { "内容": "有限会社　南州メディカル　姶良店【特定福祉用具販売】鹿児島県姶良市東餅田626番地", "url": "https://www.kaigokensaku.mhlw.go.jp/46/index.php?action_kouhyou_detail_004_kani=true&JigyosyoCd=4674500949-00&ServiceCd=410&Type=search", "url2": "https://nansyu-m.co.jp/" }, "geometry": { "type": "Point", "coordinates": [ 130.632802989808283, 31.738172531533849 ] } },
{ "type": "Feature", "properties": { "内容": "有限会社キュウケンメディカル【特定福祉用具販売】脇元728番地69", "url": "https://www.kaigokensaku.mhlw.go.jp/46/index.php?action_kouhyou_detail_004_kani=true&JigyosyoCd=4675300190-00&ServiceCd=410&Type=search", "url2": null }, "geometry": { "type": "Point", "coordinates": [ 130.617976192174268, 31.713758945215648 ] } },
{ "type": "Feature", "properties": { "内容": "株式会社カクイックスウィング姶良オフィス【特定福祉用具販売】鹿児島県姶良市東餅田2310-25", "url": "https://www.kaigokensaku.mhlw.go.jp/46/index.php?action_kouhyou_detail_004_kani=true&JigyosyoCd=4674500774-00&ServiceCd=410&Type=search", "url2": "https://www.kakuix-wing.com" }, "geometry": { "type": "Point", "coordinates": [ 130.623043, 31.720252 ] } },
{ "type": "Feature", "properties": { "内容": "有限会社平成メディカル　あいら営業所【特定福祉用具販売】鹿児島県姶良市加治木町本町147-3", "url": "https://www.kaigokensaku.mhlw.go.jp/46/index.php?action_kouhyou_detail_004_kani=true&JigyosyoCd=4674500956-00&ServiceCd=410&Type=search", "url2": "https://heisei-m.com/" }, "geometry": { "type": "Point", "coordinates": [ 130.667042400000014, 31.7370573 ] } },
{ "type": "Feature", "properties": { "内容": "QCC姶良【特定福祉用具販売】鹿児島県姶良市東餅田1749番地", "url": "https://www.kaigokensaku.mhlw.go.jp/46/index.php?action_kouhyou_detail_004_kani=true&JigyosyoCd=4674500733-00&ServiceCd=410&Type=search", "url2": "https://www.facebook.com/libertywellnesshhc/" }, "geometry": { "type": "Point", "coordinates": [ 130.635901462565585, 31.732864262583632 ] } },
{ "type": "Feature", "properties": { "内容": "株式会社エミング鹿児島支店【特定福祉用具販売】鹿児島県姶良市加治木町仮屋町8", "url": "https://www.kaigokensaku.mhlw.go.jp/46/index.php?action_kouhyou_detail_004_kani=true&JigyosyoCd=4674500535-00&ServiceCd=410&Type=search", "url2": null }, "geometry": { "type": "Point", "coordinates": [ 130.662869, 31.7396239 ] } },
{ "type": "Feature", "properties": { "内容": "ケアショップmiki【特定福祉用具販売】鹿児島県姶良市平松4636番地4", "url": "https://www.kaigokensaku.mhlw.go.jp/46/index.php?action_kouhyou_detail_004_kani=true&JigyosyoCd=4674501020-00&ServiceCd=410&Type=search", "url2": null }, "geometry": { "type": "Point", "coordinates": [ 130.6063627, 31.7146761 ] } },
{ "type": "Feature", "properties": { "内容": "福祉用具貸与事業所北薩ネットワーク【特定福祉用具販売】鹿児島県薩摩郡さつま町宮之城屋地2818", "url": "https://www.kaigokensaku.mhlw.go.jp/46/index.php?action_kouhyou_detail_004_kani=true&JigyosyoCd=4673900298-00&ServiceCd=410&Type=search", "url2": null }, "geometry": { "type": "Point", "coordinates": [ 130.459628699999939, 31.9102311 ] } },
{ "type": "Feature", "properties": { "内容": "愛ケアサービス【特定福祉用具販売】鹿児島県肝属郡肝付町前田918番地", "url": "https://www.kaigokensaku.mhlw.go.jp/46/index.php?action_kouhyou_detail_004_kani=true&JigyosyoCd=4677300412-00&ServiceCd=410&Type=search", "url2": null }, "geometry": { "type": "Point", "coordinates": [ 130.943916, 31.3491661 ] } },
{ "type": "Feature", "properties": { "内容": "株式会社　東宏【特定福祉用具販売】鹿児島県熊毛郡中種子町野間6054", "url": "https://www.kaigokensaku.mhlw.go.jp/46/index.php?action_kouhyou_detail_004_kani=true&JigyosyoCd=4678000110-00&ServiceCd=410&Type=search", "url2": null }, "geometry": { "type": "Point", "coordinates": [ 130.961027599999966, 30.5300032 ] } },
{ "type": "Feature", "properties": { "内容": "株式会社イオレ　ゆうあいサービス【特定福祉用具販売】鹿児島県熊毛郡中種子町野間5172番地3", "url": "https://www.kaigokensaku.mhlw.go.jp/46/index.php?action_kouhyou_detail_004_kani=true&JigyosyoCd=4678000318-00&ServiceCd=410&Type=search", "url2": null }, "geometry": { "type": "Point", "coordinates": [ 130.959674, 30.5350547 ] } },
{ "type": "Feature", "properties": { "内容": "南種子町社会福祉協議会特定福祉用具販売所【特定福祉用具販売】鹿児島県熊毛郡南種子町中之上2283番地南種子町福祉センター", "url": "https://www.kaigokensaku.mhlw.go.jp/46/index.php?action_kouhyou_detail_004_kani=true&JigyosyoCd=4678100092-00&ServiceCd=410&Type=search", "url2": "http://minamitaneshakyo.sakura.ne.jp" }, "geometry": { "type": "Point", "coordinates": [ 130.903534799999989, 30.413332299999979 ] } },
{ "type": "Feature", "properties": { "内容": "株式会社カクイックスウィング屋久島オフィス【特定福祉用具販売】鹿児島県熊毛郡屋久島町安房788-111", "url": "https://www.kaigokensaku.mhlw.go.jp/46/index.php?action_kouhyou_detail_004_kani=true&JigyosyoCd=4678200298-00&ServiceCd=410&Type=search", "url2": "https://www.kakuix-wing.com" }, "geometry": { "type": "Point", "coordinates": [ 130.658183399999984, 30.3265197 ] } },
{ "type": "Feature", "properties": { "内容": "ケアケア【特定福祉用具販売】鹿児島県大島郡瀬戸内町古仁屋1115-14", "url": "https://www.kaigokensaku.mhlw.go.jp/46/index.php?action_kouhyou_detail_004_kani=true&JigyosyoCd=4678600323-00&ServiceCd=410&Type=search", "url2": null }, "geometry": { "type": "Point", "coordinates": [ 129.319360400000051, 28.1422635 ] } },
{ "type": "Feature", "properties": { "内容": "ムッタ福祉用具【特定福祉用具販売】鹿児島県大島郡龍郷町瀬留921-6", "url": "https://www.kaigokensaku.mhlw.go.jp/46/index.php?action_kouhyou_detail_004_kani=true&JigyosyoCd=4678800311-00&ServiceCd=410&Type=search", "url2": null }, "geometry": { "type": "Point", "coordinates": [ 129.586632805419242, 28.41486003936188 ] } },
{ "type": "Feature", "properties": { "内容": "社会福祉法人　喜界町社会福祉協議会　特定福祉用具販売事業所【特定福祉用具販売】大島郡喜界町赤連22番地", "url": "https://www.kaigokensaku.mhlw.go.jp/46/index.php?action_kouhyou_detail_004_kani=true&JigyosyoCd=4679000135-00&ServiceCd=410&Type=search", "url2": "http://kikai-shakyo.org/" }, "geometry": { "type": "Point", "coordinates": [ 129.941840100000036, 28.318122 ] } },
{ "type": "Feature", "properties": { "内容": "介護用品館【特定福祉用具販売】大島郡徳之島町亀津7469", "url": "https://www.kaigokensaku.mhlw.go.jp/46/index.php?action_kouhyou_detail_004_kani=true&JigyosyoCd=4679100216-00&ServiceCd=410&Type=search", "url2": null }, "geometry": { "type": "Point", "coordinates": [ 129.020153775203426, 27.73278957559668 ] } },
{ "type": "Feature", "properties": { "内容": "株式会社　カクイックスウィング　徳之島サテライト【特定福祉用具販売】鹿児島県大島郡徳之島町亀津7490", "url": "https://www.kaigokensaku.mhlw.go.jp/46/index.php?action_kouhyou_detail_004_kani=true&JigyosyoCd=4679100208-00&ServiceCd=410&Type=search", "url2": "http://www.kakuix.com" }, "geometry": { "type": "Point", "coordinates": [ 129.020804399999946, 27.7325946 ] } },
{ "type": "Feature", "properties": { "内容": "株式会社きゅらしま館【特定福祉用具販売】鹿児島県大島郡天城町平土野20-5", "url": "https://www.kaigokensaku.mhlw.go.jp/46/index.php?action_kouhyou_detail_004_kani=true&JigyosyoCd=4679200073-00&ServiceCd=410&Type=search", "url2": "https://www.kyurashimakan.co.jp" }, "geometry": { "type": "Point", "coordinates": [ 128.895276342922187, 27.811006119601004 ] } },
{ "type": "Feature", "properties": { "内容": "鹿児島県大島郡伊仙町面縄2025-1【特定福祉用具販売】面縄2025-1", "url": "https://www.kaigokensaku.mhlw.go.jp/46/index.php?action_kouhyou_detail_004_kani=true&JigyosyoCd=4679300154-00&ServiceCd=410&Type=search", "url2": null }, "geometry": { "type": "Point", "coordinates": [ 128.97176479999996, 27.6759542 ] } },
{ "type": "Feature", "properties": { "内容": "有限会社ダイユウ【特定福祉用具販売】鹿児島県大島郡与論町立長2874-3", "url": "https://www.kaigokensaku.mhlw.go.jp/46/index.php?action_kouhyou_detail_004_kani=true&JigyosyoCd=4679600090-00&ServiceCd=410&Type=search", "url2": "http://daiyuu.net/" }, "geometry": { "type": "Point", "coordinates": [ 128.425486699999965, 27.0278871 ] } }
]
}
