{
"type": "FeatureCollection",
"name": "geo_46_介護老人保健施設",
"crs": { "type": "name", "properties": { "name": "urn:ogc:def:crs:OGC:1.3:CRS84" } },
"features": [
{ "type": "Feature", "properties": { "内容": "医療法人　仁風会　介護老人保健施設　西千石【介護老人保健施設】鹿児島市西千石町8番13号", "url": "https://www.kaigokensaku.mhlw.go.jp/46/index.php?action_kouhyou_detail_004_kani=true&JigyosyoCd=4650180112-00&ServiceCd=520&Type=search", "url2": "http://www.jinpuh.or.jp" }, "geometry": { "type": "Point", "coordinates": [ 130.5481221, 31.5883737 ] } },
{ "type": "Feature", "properties": { "内容": "介護老人保健施設　吉田ナーシングホーム【介護老人保健施設】本名町４７２番地", "url": "https://www.kaigokensaku.mhlw.go.jp/46/index.php?action_kouhyou_detail_004_kani=true&JigyosyoCd=4652180011-00&ServiceCd=520&Type=search", "url2": "https://nurshing.sekisaikai.jp" }, "geometry": { "type": "Point", "coordinates": [ 130.546221, 31.6922444 ] } },
{ "type": "Feature", "properties": { "内容": "医療法人徳洲会　介護老人保健施設　光徳苑【介護老人保健施設】谷山中央2-4515", "url": "https://www.kaigokensaku.mhlw.go.jp/46/index.php?action_kouhyou_detail_004_kani=true&JigyosyoCd=4650180195-00&ServiceCd=520&Type=search", "url2": "https://www.tokushukai.or.jp" }, "geometry": { "type": "Point", "coordinates": [ 130.519374610141199, 31.523129516071567 ] } },
{ "type": "Feature", "properties": { "内容": "介護老人保健施設ナーシングホーム城山の森【介護老人保健施設】鹿児島県鹿児島市長田町223番地", "url": "https://www.kaigokensaku.mhlw.go.jp/46/index.php?action_kouhyou_detail_004_kani=true&JigyosyoCd=4650180153-00&ServiceCd=520&Type=search", "url2": "htt:/www.shiroyamanomori.com/" }, "geometry": { "type": "Point", "coordinates": [ 130.556076699999949, 31.6040165 ] } },
{ "type": "Feature", "properties": { "内容": "介護老人保険施設　愛と結の街【介護老人保健施設】鹿児島県鹿児島市小原町8-3", "url": "https://www.kaigokensaku.mhlw.go.jp/46/index.php?action_kouhyou_detail_004_kani=true&JigyosyoCd=4650180070-00&ServiceCd=520&Type=search", "url2": "http://www.jiaikai.or.jp/aitoyui/" }, "geometry": { "type": "Point", "coordinates": [ 130.531036299999982, 31.5418619 ] } },
{ "type": "Feature", "properties": { "内容": "介護老人保健施設　城山老健施設【介護老人保健施設】鹿児島市草牟田一丁目４番１０号", "url": "https://www.kaigokensaku.mhlw.go.jp/46/index.php?action_kouhyou_detail_004_kani=true&JigyosyoCd=4650180013-00&ServiceCd=520&Type=search", "url2": "http://www.koseikai-uemura.jp" }, "geometry": { "type": "Point", "coordinates": [ 130.539263900000037, 31.6022634 ] } },
{ "type": "Feature", "properties": { "内容": "介護老人保健施設スイートケアなかよし【介護老人保健施設】鹿児島県鹿児島市下伊敷1丁目1番5号", "url": "https://www.kaigokensaku.mhlw.go.jp/46/index.php?action_kouhyou_detail_004_kani=true&JigyosyoCd=4650180021-00&ServiceCd=520&Type=search", "url2": "https://gyokusuikai.jp" }, "geometry": { "type": "Point", "coordinates": [ 130.53485, 31.60881 ] } },
{ "type": "Feature", "properties": { "内容": "介護老人保健施設ひまわり【介護老人保健施設】真砂本町３－８１", "url": "https://www.kaigokensaku.mhlw.go.jp/46/index.php?action_kouhyou_detail_004_kani=true&JigyosyoCd=4650180096-00&ServiceCd=520&Type=search", "url2": "https://ookatsu.jp/kanrenshisetu/himawari" }, "geometry": { "type": "Point", "coordinates": [ 130.549162, 31.5571077 ] } },
{ "type": "Feature", "properties": { "内容": "あさひ【介護老人保健施設】鹿児島市泉町8番2号", "url": "https://www.kaigokensaku.mhlw.go.jp/46/index.php?action_kouhyou_detail_004_kani=true&JigyosyoCd=4650180088-00&ServiceCd=520&Type=search", "url2": "http://www.tenyoukai.org/rouken/index.html" }, "geometry": { "type": "Point", "coordinates": [ 130.559285100000011, 31.5936956 ] } },
{ "type": "Feature", "properties": { "内容": "介護老人保健施設　さくらんぼ【介護老人保健施設】鹿児島市下田町1759番地", "url": "https://www.kaigokensaku.mhlw.go.jp/46/index.php?action_kouhyou_detail_004_kani=true&JigyosyoCd=4650180047-00&ServiceCd=520&Type=search", "url2": "http://www.kanyoukai.or.jp/sakuranbo/index.html" }, "geometry": { "type": "Point", "coordinates": [ 130.545236599999953, 31.6460182 ] } },
{ "type": "Feature", "properties": { "内容": "介護老人保健施設フレンドホーム【介護老人保健施設】山田町450番地", "url": "https://www.kaigokensaku.mhlw.go.jp/46/index.php?action_kouhyou_detail_004_kani=true&JigyosyoCd=4650180054-00&ServiceCd=520&Type=search", "url2": "friend.thch.jp/" }, "geometry": { "type": "Point", "coordinates": [ 130.5080077, 31.5539159 ] } },
{ "type": "Feature", "properties": { "内容": "鴨池慈風苑【介護老人保健施設】鹿児島市東郡元町11番6号", "url": "https://www.kaigokensaku.mhlw.go.jp/46/index.php?action_kouhyou_detail_004_kani=true&JigyosyoCd=4650180062-00&ServiceCd=520&Type=search", "url2": "https://jifuen.jifukai.jp/" }, "geometry": { "type": "Point", "coordinates": [ 130.549820400000044, 31.5540052 ] } },
{ "type": "Feature", "properties": { "内容": "まろにえ介護老人保健施設【介護老人保健施設】鹿児島市草牟田二丁目26番45号", "url": "https://www.kaigokensaku.mhlw.go.jp/46/index.php?action_kouhyou_detail_004_kani=true&JigyosyoCd=4650180120-00&ServiceCd=520&Type=search", "url2": "https://www.yonemorihp.jp/maronierouken/" }, "geometry": { "type": "Point", "coordinates": [ 130.538861, 31.6069824 ] } },
{ "type": "Feature", "properties": { "内容": "介護老人保健施設　ナーシングホーム田上苑【介護老人保健施設】西陵六丁目21番18号", "url": "https://www.kaigokensaku.mhlw.go.jp/46/index.php?action_kouhyou_detail_004_kani=true&JigyosyoCd=4650180138-00&ServiceCd=520&Type=search", "url2": "https://www.tagamien.com/" }, "geometry": { "type": "Point", "coordinates": [ 130.504039960713186, 31.58181828852133 ] } },
{ "type": "Feature", "properties": { "内容": "ユニット型介護老人保健施設　ナーシングホーム田上苑【介護老人保健施設】西陵六丁目21番18号", "url": "https://www.kaigokensaku.mhlw.go.jp/46/index.php?action_kouhyou_detail_004_kani=true&JigyosyoCd=4670109901-00&ServiceCd=520&Type=search", "url2": "https://www.tagamien.com/" }, "geometry": { "type": "Point", "coordinates": [ 130.504184799999962, 31.5817406 ] } },
{ "type": "Feature", "properties": { "内容": "ろうけん青空【介護老人保健施設】鹿児島市吉野町6040番地7", "url": "https://www.kaigokensaku.mhlw.go.jp/46/index.php?action_kouhyou_detail_004_kani=true&JigyosyoCd=4650180161-00&ServiceCd=520&Type=search", "url2": "http://www.meikikai.com" }, "geometry": { "type": "Point", "coordinates": [ 130.591561700000057, 31.6507374 ] } },
{ "type": "Feature", "properties": { "内容": "サテライトろうけん青空【介護老人保健施設】吉野3丁目5番8号", "url": "https://www.kaigokensaku.mhlw.go.jp/46/index.php?action_kouhyou_detail_004_kani=true&JigyosyoCd=4650180187-00&ServiceCd=520&Type=search", "url2": "http://www.meikikai.com" }, "geometry": { "type": "Point", "coordinates": [ 130.569959226983656, 31.65400669993312 ] } },
{ "type": "Feature", "properties": { "内容": "城西ナーシングホーム【介護老人保健施設】西田１丁目１６番地1", "url": "https://www.kaigokensaku.mhlw.go.jp/46/index.php?action_kouhyou_detail_004_kani=true&JigyosyoCd=4650180039-00&ServiceCd=520&Type=search", "url2": "http://www.jikeikai.net" }, "geometry": { "type": "Point", "coordinates": [ 130.543403, 31.5887818 ] } },
{ "type": "Feature", "properties": { "内容": "老人保健施設　サンシャインきいれ【介護老人保健施設】鹿児島県鹿児島市喜入前之浜町7808-1", "url": "https://www.kaigokensaku.mhlw.go.jp/46/index.php?action_kouhyou_detail_004_kani=true&JigyosyoCd=4652280019-00&ServiceCd=520&Type=search", "url2": "http://kiire.jp/" }, "geometry": { "type": "Point", "coordinates": [ 130.552994600000034, 31.3508791 ] } },
{ "type": "Feature", "properties": { "内容": "介護老人保健施設ヴィラかのや【介護老人保健施設】鹿児島県鹿屋市寿八丁目21－2", "url": "https://www.kaigokensaku.mhlw.go.jp/46/index.php?action_kouhyou_detail_004_kani=true&JigyosyoCd=4650380027-00&ServiceCd=520&Type=search", "url2": "http://www.koshinkai.or.jp" }, "geometry": { "type": "Point", "coordinates": [ 130.880299799999989, 31.3865256 ] } },
{ "type": "Feature", "properties": { "内容": "老人保健施設おさしお【介護老人保健施設】鹿屋市吾平町麓3766番地1", "url": "https://www.kaigokensaku.mhlw.go.jp/46/index.php?action_kouhyou_detail_004_kani=true&JigyosyoCd=4653080020-00&ServiceCd=520&Type=search", "url2": "http://www.minc.ne.jp/osasio/" }, "geometry": { "type": "Point", "coordinates": [ 130.892253699999969, 31.3236409 ] } },
{ "type": "Feature", "properties": { "内容": "介護老人保健施設　ナーシングホームひだまり【介護老人保健施設】鹿児島県鹿屋市下祓川町1853", "url": "https://www.kaigokensaku.mhlw.go.jp/46/index.php?action_kouhyou_detail_004_kani=true&JigyosyoCd=4650380019-00&ServiceCd=520&Type=search", "url2": "ｈｔｔｐ：//ikeda-hp.com" }, "geometry": { "type": "Point", "coordinates": [ 130.851387499999987, 31.4140111 ] } },
{ "type": "Feature", "properties": { "内容": "介護老人保健施設　ナーシングホームひだまり（ユニット型）【介護老人保健施設】鹿児島県鹿屋市下祓川町1853", "url": "https://www.kaigokensaku.mhlw.go.jp/46/index.php?action_kouhyou_detail_004_kani=true&JigyosyoCd=4650380043-00&ServiceCd=520&Type=search", "url2": "ｈｔｔｐ：//ikeda-hp.com" }, "geometry": { "type": "Point", "coordinates": [ 130.851387499999987, 31.4140111 ] } },
{ "type": "Feature", "properties": { "内容": "介護老人保健施設ハーモニーガーデン【介護老人保健施設】鹿児島県鹿屋市寿4丁目1番43号", "url": "https://www.kaigokensaku.mhlw.go.jp/46/index.php?action_kouhyou_detail_004_kani=true&JigyosyoCd=4650380035-00&ServiceCd=520&Type=search", "url2": "http://wakeikai-g.or.jp" }, "geometry": { "type": "Point", "coordinates": [ 130.873611399999959, 31.3890474 ] } },
{ "type": "Feature", "properties": { "内容": "エスポワール立神【介護老人保健施設】鹿児島県枕崎市火之神町６３０番地", "url": "https://www.kaigokensaku.mhlw.go.jp/46/index.php?action_kouhyou_detail_004_kani=true&JigyosyoCd=4650480017-00&ServiceCd=520&Type=search", "url2": "http://www5.synapse.ne.jp/espotategami/" }, "geometry": { "type": "Point", "coordinates": [ 130.276817899999969, 31.2542208 ] } },
{ "type": "Feature", "properties": { "内容": "サザンケアセンター【介護老人保健施設】緑町２３６番地", "url": "https://www.kaigokensaku.mhlw.go.jp/46/index.php?action_kouhyou_detail_004_kani=true&JigyosyoCd=4650480025-00&ServiceCd=520&Type=search", "url2": "http://southernregion.jp/" }, "geometry": { "type": "Point", "coordinates": [ 130.293268500000067, 31.2772663 ] } },
{ "type": "Feature", "properties": { "内容": "社会医療法人　聖医会　介護老人保健施設　サザン・ユニットケアセンター【介護老人保健施設】緑町２３６番地", "url": "https://www.kaigokensaku.mhlw.go.jp/46/index.php?action_kouhyou_detail_004_kani=true&JigyosyoCd=4650480033-00&ServiceCd=520&Type=search", "url2": null }, "geometry": { "type": "Point", "coordinates": [ 130.293268500000067, 31.2772663 ] } },
{ "type": "Feature", "properties": { "内容": "介護老人保健施設グリーンフォレストみかさ【介護老人保健施設】鹿児島県阿久根市脇本字柞木迫6313番地1", "url": "https://www.kaigokensaku.mhlw.go.jp/46/index.php?action_kouhyou_detail_004_kani=true&JigyosyoCd=4650680020-00&ServiceCd=520&Type=search", "url2": null }, "geometry": { "type": "Point", "coordinates": [ 130.214273057946798, 32.076056255923554 ] } },
{ "type": "Feature", "properties": { "内容": "小規模介護老人保健施設　真和苑【介護老人保健施設】赤瀬川４０５９番地1", "url": "https://www.kaigokensaku.mhlw.go.jp/46/index.php?action_kouhyou_detail_004_kani=true&JigyosyoCd=4650680038-00&ServiceCd=520&Type=search", "url2": null }, "geometry": { "type": "Point", "coordinates": [ 130.19952, 32.0350097 ] } },
{ "type": "Feature", "properties": { "内容": "介護老人保健施設　回生苑【介護老人保健施設】阿久根市赤瀬川551番地", "url": "https://www.kaigokensaku.mhlw.go.jp/46/index.php?action_kouhyou_detail_004_kani=true&JigyosyoCd=4650680012-00&ServiceCd=520&Type=search", "url2": "http://www.kouwa-kaiseien.com" }, "geometry": { "type": "Point", "coordinates": [ 130.20155879999993, 32.0262465 ] } },
{ "type": "Feature", "properties": { "内容": "ニューライフいずみ【介護老人保健施設】鹿児島県出水市平和町336番地１", "url": "https://www.kaigokensaku.mhlw.go.jp/46/index.php?action_kouhyou_detail_004_kani=true&JigyosyoCd=4650880018-00&ServiceCd=520&Type=search", "url2": "http://kisshokai.com/" }, "geometry": { "type": "Point", "coordinates": [ 130.323682700000063, 32.0823558 ] } },
{ "type": "Feature", "properties": { "内容": "介護老人保健施設　ラ・フォンテいずみ【介護老人保健施設】出水市五万石２８１番地", "url": "https://www.kaigokensaku.mhlw.go.jp/46/index.php?action_kouhyou_detail_004_kani=true&JigyosyoCd=4650880026-00&ServiceCd=520&Type=search", "url2": null }, "geometry": { "type": "Point", "coordinates": [ 130.344215, 32.073693 ] } },
{ "type": "Feature", "properties": { "内容": "ユニット型　老健　グランアージュ【介護老人保健施設】出水市平和町236番地", "url": "https://www.kaigokensaku.mhlw.go.jp/46/index.php?action_kouhyou_detail_004_kani=true&JigyosyoCd=4650880034-00&ServiceCd=520&Type=search", "url2": "http://www.minc.ne.jp/kishoukai" }, "geometry": { "type": "Point", "coordinates": [ 130.330735, 32.0824364 ] } },
{ "type": "Feature", "properties": { "内容": "介護老人保健施設ヴァンベールみどりの風【介護老人保健施設】鹿児島県指宿市山川大山2056-4", "url": "https://www.kaigokensaku.mhlw.go.jp/46/index.php?action_kouhyou_detail_004_kani=true&JigyosyoCd=4652280027-00&ServiceCd=520&Type=search", "url2": "https://ventvert-1001.com" }, "geometry": { "type": "Point", "coordinates": [ 130.592072599999938, 31.2007765 ] } },
{ "type": "Feature", "properties": { "内容": "指宿やすらぎ園【介護老人保健施設】鹿児島県指宿市東方7531番地", "url": "https://www.kaigokensaku.mhlw.go.jp/46/index.php?action_kouhyou_detail_004_kani=true&JigyosyoCd=4651080022-00&ServiceCd=520&Type=search", "url2": "https://www.ibutake.com/" }, "geometry": { "type": "Point", "coordinates": [ 130.6219489, 31.256153 ] } },
{ "type": "Feature", "properties": { "内容": "指宿温泉ケアサポート【介護老人保健施設】鹿児島県指宿市西方1050番地", "url": "https://www.kaigokensaku.mhlw.go.jp/46/index.php?action_kouhyou_detail_004_kani=true&JigyosyoCd=4611010788-00&ServiceCd=520&Type=search", "url2": "https://ibusukionsen-cs.com/" }, "geometry": { "type": "Point", "coordinates": [ 130.623909700000013, 31.2607221 ] } },
{ "type": "Feature", "properties": { "内容": "介護老人保健施設　指宿温泉菜の花苑【介護老人保健施設】鹿児島県指宿市十町418-1", "url": "https://www.kaigokensaku.mhlw.go.jp/46/index.php?action_kouhyou_detail_004_kani=true&JigyosyoCd=4651080014-00&ServiceCd=520&Type=search", "url2": "https://www.meiseikai.or.jp/" }, "geometry": { "type": "Point", "coordinates": [ 130.633622899999978, 31.253709 ] } },
{ "type": "Feature", "properties": { "内容": "介護老人保健施設わらび苑【介護老人保健施設】西之表市西之表２９８１－１", "url": "https://www.kaigokensaku.mhlw.go.jp/46/index.php?action_kouhyou_detail_004_kani=true&JigyosyoCd=4651380018-00&ServiceCd=520&Type=search", "url2": "warabien-care.jp" }, "geometry": { "type": "Point", "coordinates": [ 131.025852100000066, 30.7376235 ] } },
{ "type": "Feature", "properties": { "内容": "介護老人保健施設　絆【介護老人保健施設】田神3536番地1", "url": "https://www.kaigokensaku.mhlw.go.jp/46/index.php?action_kouhyou_detail_004_kani=true&JigyosyoCd=4651480024-00&ServiceCd=520&Type=search", "url2": "http://www.kouaikai.or.jp/" }, "geometry": { "type": "Point", "coordinates": [ 130.698536600000011, 31.4970003 ] } },
{ "type": "Feature", "properties": { "内容": "垂水市立介護老人保健施設コスモス苑【介護老人保健施設】鹿児島県垂水市錦江町１－１４０", "url": "https://www.kaigokensaku.mhlw.go.jp/46/index.php?action_kouhyou_detail_004_kani=true&JigyosyoCd=4651480016-00&ServiceCd=520&Type=search", "url2": "http://www.cosmos-en.jp/" }, "geometry": { "type": "Point", "coordinates": [ 130.693331697483785, 31.49075029459889 ] } },
{ "type": "Feature", "properties": { "内容": "介護老人保健施設　グラン・ベリテひわき【介護老人保健施設】鹿児島県薩摩川内市樋脇町市比野2995番地", "url": "https://www.kaigokensaku.mhlw.go.jp/46/index.php?action_kouhyou_detail_004_kani=true&JigyosyoCd=4652580038-00&ServiceCd=520&Type=search", "url2": "http://www.takushokai.com/グラン・ベリテひわき/" }, "geometry": { "type": "Point", "coordinates": [ 130.402179599999954, 31.7863604 ] } },
{ "type": "Feature", "properties": { "内容": "介護老人保健施設　グリーンライフ川内【介護老人保健施設】鹿児島県薩摩川内市宮内町磯田２６３３番", "url": "https://www.kaigokensaku.mhlw.go.jp/46/index.php?action_kouhyou_detail_004_kani=true&JigyosyoCd=4650280037-00&ServiceCd=520&Type=search", "url2": "http://enokai.jp" }, "geometry": { "type": "Point", "coordinates": [ 130.291576, 31.830598 ] } },
{ "type": "Feature", "properties": { "内容": "介護老人保健施設　あじさい苑【介護老人保健施設】鹿児島県薩摩川内市横馬場町８番１１号", "url": "https://www.kaigokensaku.mhlw.go.jp/46/index.php?action_kouhyou_detail_004_kani=true&JigyosyoCd=4650280011-00&ServiceCd=520&Type=search", "url2": "http://ajisaien-kagoshima.com" }, "geometry": { "type": "Point", "coordinates": [ 130.310393800000043, 31.8172281 ] } },
{ "type": "Feature", "properties": { "内容": "介護老人保健施設グレースホーム【介護老人保健施設】薩摩川内市東郷町斧渕8920", "url": "https://www.kaigokensaku.mhlw.go.jp/46/index.php?action_kouhyou_detail_004_kani=true&JigyosyoCd=4652580046-00&ServiceCd=520&Type=search", "url2": "http//www.kamimura-hp.com" }, "geometry": { "type": "Point", "coordinates": [ 130.3332031, 31.874797 ] } },
{ "type": "Feature", "properties": { "内容": "長生園ナーシングセンター【介護老人保健施設】鹿児島県薩摩川内市大小路町51番3号", "url": "https://www.kaigokensaku.mhlw.go.jp/46/index.php?action_kouhyou_detail_004_kani=true&JigyosyoCd=4650280029-00&ServiceCd=520&Type=search", "url2": "http://www.doujunkai.or.jp" }, "geometry": { "type": "Point", "coordinates": [ 130.303533099999981, 31.8235162 ] } },
{ "type": "Feature", "properties": { "内容": "介護老人保健施設　グラン・ベリテアネックス【介護老人保健施設】鹿児島県薩摩川内市原田町８番１号", "url": "https://www.kaigokensaku.mhlw.go.jp/46/index.php?action_kouhyou_detail_004_kani=true&JigyosyoCd=4651580013-00&ServiceCd=520&Type=search", "url2": null }, "geometry": { "type": "Point", "coordinates": [ 130.307016068122863, 31.827504482606944 ] } },
{ "type": "Feature", "properties": { "内容": "シルバーセンター光の里【介護老人保健施設】鹿児島県日置市伊集院町妙円寺1丁目1番地6", "url": "https://www.kaigokensaku.mhlw.go.jp/46/index.php?action_kouhyou_detail_004_kani=true&JigyosyoCd=4652480015-00&ServiceCd=520&Type=search", "url2": "http://www.seishin-kai.org" }, "geometry": { "type": "Point", "coordinates": [ 130.395083169817156, 31.641218814037927 ] } },
{ "type": "Feature", "properties": { "内容": "医療法人昭泉会介護老人保健施設湯の浦ナーシングホーム【介護老人保健施設】日置市吹上町湯之浦1353番地", "url": "https://www.kaigokensaku.mhlw.go.jp/46/index.php?action_kouhyou_detail_004_kani=true&JigyosyoCd=4652480023-00&ServiceCd=520&Type=search", "url2": null }, "geometry": { "type": "Point", "coordinates": [ 130.358958499999972, 31.5032449 ] } },
{ "type": "Feature", "properties": { "内容": "介護老人保健施設　アンダンテ伊集院【介護老人保健施設】鹿児島県日置市伊集院町妙円寺3-1303-10", "url": "https://www.kaigokensaku.mhlw.go.jp/46/index.php?action_kouhyou_detail_004_kani=true&JigyosyoCd=4652480031-00&ServiceCd=520&Type=search", "url2": "http://kenseikai.biz" }, "geometry": { "type": "Point", "coordinates": [ 130.401468600000044, 31.6464072 ] } },
{ "type": "Feature", "properties": { "内容": "高原ナーシングホーム【介護老人保健施設】曽於市末吉町栄町二丁目11番地1", "url": "https://www.kaigokensaku.mhlw.go.jp/46/index.php?action_kouhyou_detail_004_kani=true&JigyosyoCd=4652980014-00&ServiceCd=520&Type=search", "url2": "http://www.takahara-net.or.jp" }, "geometry": { "type": "Point", "coordinates": [ 131.017973899999987, 31.6570457 ] } },
{ "type": "Feature", "properties": { "内容": "ケアセンターやごろう苑【介護老人保健施設】曽於市大隅町岩川５５１５番地", "url": "https://www.kaigokensaku.mhlw.go.jp/46/index.php?action_kouhyou_detail_004_kani=true&JigyosyoCd=4652980022-00&ServiceCd=520&Type=search", "url2": "https://aisei-kai.com/yagorouen/" }, "geometry": { "type": "Point", "coordinates": [ 130.987433799999963, 31.5958469 ] } },
{ "type": "Feature", "properties": { "内容": "介護老人保健施設きりしま【介護老人保健施設】鹿児島県霧島市霧島田口２１１５番地１", "url": "https://www.kaigokensaku.mhlw.go.jp/46/index.php?action_kouhyou_detail_004_kani=true&JigyosyoCd=4652880073-00&ServiceCd=520&Type=search", "url2": "https://www.kouseikai.info/" }, "geometry": { "type": "Point", "coordinates": [ 130.85524163372952, 31.848806003203773 ] } },
{ "type": "Feature", "properties": { "内容": "介護老人保健施設サンライトホーム【介護老人保健施設】霧島市牧園町高千穂3617番地623", "url": "https://www.kaigokensaku.mhlw.go.jp/46/index.php?action_kouhyou_detail_004_kani=true&JigyosyoCd=4652880057-00&ServiceCd=520&Type=search", "url2": "http://www.toukeikai.jp/" }, "geometry": { "type": "Point", "coordinates": [ 130.818434600000046, 31.8799288 ] } },
{ "type": "Feature", "properties": { "内容": "介護老人保健施設　希望の里【介護老人保健施設】霧島市隼人町姫城二丁目157番地", "url": "https://www.kaigokensaku.mhlw.go.jp/46/index.php?action_kouhyou_detail_004_kani=true&JigyosyoCd=4652880016-00&ServiceCd=520&Type=search", "url2": "http://hayato-spa.hospi.jp/" }, "geometry": { "type": "Point", "coordinates": [ 130.757654699999989, 31.7657049 ] } },
{ "type": "Feature", "properties": { "内容": "介護老人保健施設アメニティ国分【介護老人保健施設】霧島市国分重久３６１－１", "url": "https://www.kaigokensaku.mhlw.go.jp/46/index.php?action_kouhyou_detail_004_kani=true&JigyosyoCd=4651280010-00&ServiceCd=520&Type=search", "url2": "https://syunseikai.or.jp/" }, "geometry": { "type": "Point", "coordinates": [ 130.778378299999986, 31.7676187 ] } },
{ "type": "Feature", "properties": { "内容": "介護老人保健施設　希望【介護老人保健施設】いちき串木野市春日町116", "url": "https://www.kaigokensaku.mhlw.go.jp/46/index.php?action_kouhyou_detail_004_kani=true&JigyosyoCd=4650580030-00&ServiceCd=520&Type=search", "url2": null }, "geometry": { "type": "Point", "coordinates": [ 130.267831800000067, 31.7217159 ] } },
{ "type": "Feature", "properties": { "内容": "介護老人保健施設　ライフハーバーいちき【介護老人保健施設】大里2901番地2", "url": "https://www.kaigokensaku.mhlw.go.jp/46/index.php?action_kouhyou_detail_004_kani=true&JigyosyoCd=4652480056-00&ServiceCd=520&Type=search", "url2": "http://www.maruta.or.jp/" }, "geometry": { "type": "Point", "coordinates": [ 130.3015246, 31.6662087 ] } },
{ "type": "Feature", "properties": { "内容": "介護老人保健施設さるびあ苑【介護老人保健施設】春日町６３番地", "url": "https://www.kaigokensaku.mhlw.go.jp/46/index.php?action_kouhyou_detail_004_kani=true&JigyosyoCd=4650580014-00&ServiceCd=520&Type=search", "url2": "https://jiseikai-kushikino.jp/" }, "geometry": { "type": "Point", "coordinates": [ 130.268176199999971, 31.7201494 ] } },
{ "type": "Feature", "properties": { "内容": "介護老人保健施設　ゆくさ白浜【介護老人保健施設】鹿児島県いちき串木野市羽島265番地15", "url": "https://www.kaigokensaku.mhlw.go.jp/46/index.php?action_kouhyou_detail_004_kani=true&JigyosyoCd=4650580022-00&ServiceCd=520&Type=search", "url2": "https://shinkikai.net/yukusashirahama.php" }, "geometry": { "type": "Point", "coordinates": [ 130.226789599999961, 31.748104 ] } },
{ "type": "Feature", "properties": { "内容": "さつま野菊園【介護老人保健施設】南さつま市笠沙町赤生木１１３７２－３９７", "url": "https://www.kaigokensaku.mhlw.go.jp/46/index.php?action_kouhyou_detail_004_kani=true&JigyosyoCd=4652380025-00&ServiceCd=520&Type=search", "url2": "www.koujin-ayanokai.or.jp" }, "geometry": { "type": "Point", "coordinates": [ 130.208908, 31.3903139 ] } },
{ "type": "Feature", "properties": { "内容": "老人保健施設　ラポール吉井【介護老人保健施設】南さつま市加世田村原１丁目１０-１０", "url": "https://www.kaigokensaku.mhlw.go.jp/46/index.php?action_kouhyou_detail_004_kani=true&JigyosyoCd=4651180012-00&ServiceCd=520&Type=search", "url2": "http://www.nonohanakai.or.jp" }, "geometry": { "type": "Point", "coordinates": [ 130.326004099999977, 31.4227418 ] } },
{ "type": "Feature", "properties": { "内容": "介護老人保健施設　ありあけ苑【介護老人保健施設】志布志市有明町野井倉8288-1", "url": "https://www.kaigokensaku.mhlw.go.jp/46/index.php?action_kouhyou_detail_004_kani=true&JigyosyoCd=4652980055-00&ServiceCd=520&Type=search", "url2": "http://www.btvm.ne.jp/~r-ariake/" }, "geometry": { "type": "Point", "coordinates": [ 131.066721, 31.455654 ] } },
{ "type": "Feature", "properties": { "内容": "かいごろうじんほけんしせつありあけえん（ゆにっと）【介護老人保健施設】鹿児島県志布志市有明町野井倉8288-1", "url": "https://www.kaigokensaku.mhlw.go.jp/46/index.php?action_kouhyou_detail_004_kani=true&JigyosyoCd=4651780019-00&ServiceCd=520&Type=search", "url2": "http://www.btvm.ne.jp/~r-ariake/" }, "geometry": { "type": "Point", "coordinates": [ 131.066221, 31.4558735 ] } },
{ "type": "Feature", "properties": { "内容": "介護老人保健施設つわぶき【介護老人保健施設】鹿児島県志布志市志布志町志布志１丁目１３番３号", "url": "https://www.kaigokensaku.mhlw.go.jp/46/index.php?action_kouhyou_detail_004_kani=true&JigyosyoCd=4652980030-00&ServiceCd=520&Type=search", "url2": "http://www.sayuukai.or.jp" }, "geometry": { "type": "Point", "coordinates": [ 131.103263500000025, 31.4767082 ] } },
{ "type": "Feature", "properties": { "内容": "介護老人保健施設　アマンデー【介護老人保健施設】鹿児島県奄美市笠利町節田1451-1", "url": "https://www.kaigokensaku.mhlw.go.jp/46/index.php?action_kouhyou_detail_004_kani=true&JigyosyoCd=4653280067-00&ServiceCd=520&Type=search", "url2": "https://amande.synapse.kagoshima.jp" }, "geometry": { "type": "Point", "coordinates": [ 129.679199899999958, 28.4131557 ] } },
{ "type": "Feature", "properties": { "内容": "介護老人保健施設アマンデー（ユニット型）【介護老人保健施設】鹿児島県奄美市笠利町節田1451-1", "url": "https://www.kaigokensaku.mhlw.go.jp/46/index.php?action_kouhyou_detail_004_kani=true&JigyosyoCd=4670701152-00&ServiceCd=520&Type=search", "url2": "https://amande.synapse.kagoshima.jp" }, "geometry": { "type": "Point", "coordinates": [ 129.679199899999958, 28.4131557 ] } },
{ "type": "Feature", "properties": { "内容": "介護老人保健施設虹の丘【介護老人保健施設】名瀬小宿字苗代田３４１６番１", "url": "https://www.kaigokensaku.mhlw.go.jp/46/index.php?action_kouhyou_detail_004_kani=true&JigyosyoCd=4650780010-00&ServiceCd=520&Type=search", "url2": "http://www4.synapse.ne.jp/nijinooka/" }, "geometry": { "type": "Point", "coordinates": [ 129.474689, 28.385852 ] } },
{ "type": "Feature", "properties": { "内容": "老人保健施設　かわなべ寿光苑【介護老人保健施設】南九州市川辺町田部田4848-4", "url": "https://www.kaigokensaku.mhlw.go.jp/46/index.php?action_kouhyou_detail_004_kani=true&JigyosyoCd=4652380017-00&ServiceCd=520&Type=search", "url2": "https://kikunokai.jp/related-facilities/kawanabe-jukouen/" }, "geometry": { "type": "Point", "coordinates": [ 130.389656100000025, 31.3868176 ] } },
{ "type": "Feature", "properties": { "内容": "シルバーライフちらん【介護老人保健施設】鹿児島県南九州市知覧町塩屋１６０１６番地", "url": "https://www.kaigokensaku.mhlw.go.jp/46/index.php?action_kouhyou_detail_004_kani=true&JigyosyoCd=4652380033-00&ServiceCd=520&Type=search", "url2": "http://www.roken-chiran.or.jp" }, "geometry": { "type": "Point", "coordinates": [ 130.38199910000003, 31.2893897 ] } },
{ "type": "Feature", "properties": { "内容": "はやひと【介護老人保健施設】伊佐市大口青木３０２２番地３３", "url": "https://www.kaigokensaku.mhlw.go.jp/46/index.php?action_kouhyou_detail_004_kani=true&JigyosyoCd=4650980016-00&ServiceCd=520&Type=search", "url2": "ｈｔｔｐ：//ｗｗｗ.ｈａｙａｈｉｔｏ.ｃｏｍ" }, "geometry": { "type": "Point", "coordinates": [ 130.633753500000012, 32.0569036 ] } },
{ "type": "Feature", "properties": { "内容": "介護老人保健施設シルバータウン加治木【介護老人保健施設】鹿児島県姶良市加治木町木田4719-1", "url": "https://www.kaigokensaku.mhlw.go.jp/46/index.php?action_kouhyou_detail_004_kani=true&JigyosyoCd=4652880032-00&ServiceCd=520&Type=search", "url2": "http://kajiki-shokikai.jp/silver-t-k" }, "geometry": { "type": "Point", "coordinates": [ 130.662855495228541, 31.750578470218045 ] } },
{ "type": "Feature", "properties": { "内容": "介護老人保健施設　ろうけん大楠【介護老人保健施設】鹿児島県姶良市蒲生町下久徳１２４９番地１", "url": "https://www.kaigokensaku.mhlw.go.jp/46/index.php?action_kouhyou_detail_004_kani=true&JigyosyoCd=4652880081-00&ServiceCd=520&Type=search", "url2": null }, "geometry": { "type": "Point", "coordinates": [ 130.5954931, 31.7509729 ] } },
{ "type": "Feature", "properties": { "内容": "介護老人保健施設　青雲荘【介護老人保健施設】鹿児島県姶良市西餅田3024-1", "url": "https://www.kaigokensaku.mhlw.go.jp/46/index.php?action_kouhyou_detail_004_kani=true&JigyosyoCd=4652880099-00&ServiceCd=520&Type=search", "url2": "http://www.seiunkaibyouin.jp/seiun_sou/" }, "geometry": { "type": "Point", "coordinates": [ 130.613424718029137, 31.721228776137718 ] } },
{ "type": "Feature", "properties": { "内容": "ろうけん姶良【介護老人保健施設】鹿児島県姶良市平松5062番地", "url": "https://www.kaigokensaku.mhlw.go.jp/46/index.php?action_kouhyou_detail_004_kani=true&JigyosyoCd=4652880065-00&ServiceCd=520&Type=search", "url2": "http://www.minc.ne.jp/kibou/roukenaira" }, "geometry": { "type": "Point", "coordinates": [ 130.59741669999994, 31.7124431 ] } },
{ "type": "Feature", "properties": { "内容": "パラディーノ　ほたるの里【介護老人保健施設】鹿児島県薩摩郡さつま町柏原493-5", "url": "https://www.kaigokensaku.mhlw.go.jp/46/index.php?action_kouhyou_detail_004_kani=true&JigyosyoCd=4652580020-00&ServiceCd=520&Type=search", "url2": null }, "geometry": { "type": "Point", "coordinates": [ 130.457508700000062, 31.9314979 ] } },
{ "type": "Feature", "properties": { "内容": "介護老人保健施設クオリエ【介護老人保健施設】薩摩郡さつま町船木2311番地8", "url": "https://www.kaigokensaku.mhlw.go.jp/46/index.php?action_kouhyou_detail_004_kani=true&JigyosyoCd=4652580012-00&ServiceCd=520&Type=search", "url2": "https://www.qoler.jp/qualie/" }, "geometry": { "type": "Point", "coordinates": [ 130.440254099999947, 31.8730211 ] } },
{ "type": "Feature", "properties": { "内容": "介護老人保健施設　しらうめ【介護老人保健施設】鹿児島県姶良郡湧水町木場９７３番地１", "url": "https://www.kaigokensaku.mhlw.go.jp/46/index.php?action_kouhyou_detail_004_kani=true&JigyosyoCd=4652880107-00&ServiceCd=520&Type=search", "url2": null }, "geometry": { "type": "Point", "coordinates": [ 130.727618300000017, 31.9546023 ] } },
{ "type": "Feature", "properties": { "内容": "介護老人保健施設　寿芳苑【介護老人保健施設】鹿児島県姶良郡湧水町北方1857番地", "url": "https://www.kaigokensaku.mhlw.go.jp/46/index.php?action_kouhyou_detail_004_kani=true&JigyosyoCd=4652880024-00&ServiceCd=520&Type=search", "url2": null }, "geometry": { "type": "Point", "coordinates": [ 130.712980300000027, 31.9579931 ] } },
{ "type": "Feature", "properties": { "内容": "介護老人保健施設　サンセリテのがた【介護老人保健施設】鹿児島県曽於郡大崎町野方6047番地3", "url": "https://www.kaigokensaku.mhlw.go.jp/46/index.php?action_kouhyou_detail_004_kani=true&JigyosyoCd=4652980048-00&ServiceCd=520&Type=search", "url2": "http:/www.reishinkai.or.jp/" }, "geometry": { "type": "Point", "coordinates": [ 130.948625, 31.5108892 ] } },
{ "type": "Feature", "properties": { "内容": "肝属郡医師会立介護老人保健施設みなみかぜ【介護老人保健施設】鹿児島県肝属郡錦江町神川88-1", "url": "https://www.kaigokensaku.mhlw.go.jp/46/index.php?action_kouhyou_detail_004_kani=true&JigyosyoCd=4653080038-00&ServiceCd=520&Type=search", "url2": "http://k-minamikaze.jp/" }, "geometry": { "type": "Point", "coordinates": [ 130.7916831, 31.259772800000011 ] } },
{ "type": "Feature", "properties": { "内容": "介護老人保健施設　老春苑【介護老人保健施設】鹿児島県肝属郡肝付町新富525番地", "url": "https://www.kaigokensaku.mhlw.go.jp/46/index.php?action_kouhyou_detail_004_kani=true&JigyosyoCd=4653080012-00&ServiceCd=520&Type=search", "url2": "www.synapse.ne.jp/shunyoukai/" }, "geometry": { "type": "Point", "coordinates": [ 130.9470781, 31.3518693 ] } },
{ "type": "Feature", "properties": { "内容": "介護老人保健施設　せとうち【介護老人保健施設】鹿児島県大島郡瀬戸内町阿木名１９７５介護老人保健施設　せとうち", "url": "https://www.kaigokensaku.mhlw.go.jp/46/index.php?action_kouhyou_detail_004_kani=true&JigyosyoCd=4653280042-00&ServiceCd=520&Type=search", "url2": null }, "geometry": { "type": "Point", "coordinates": [ 129.3357277, 28.1705905 ] } },
{ "type": "Feature", "properties": { "内容": "介護老人保健施設　秋名の郷【介護老人保健施設】鹿児島県大島郡龍郷町幾里字濱崎179番地", "url": "https://www.kaigokensaku.mhlw.go.jp/46/index.php?action_kouhyou_detail_004_kani=true&JigyosyoCd=4658880010-00&ServiceCd=520&Type=search", "url2": "http://tokushukai-amami-area.com/pg43.html" }, "geometry": { "type": "Point", "coordinates": [ 129.562251713908381, 28.448826650020397 ] } },
{ "type": "Feature", "properties": { "内容": "介護老人保健施設サザンコート【介護老人保健施設】鹿児島県大島郡徳之島町亀津7268番地", "url": "https://www.kaigokensaku.mhlw.go.jp/46/index.php?action_kouhyou_detail_004_kani=true&JigyosyoCd=4659180014-00&ServiceCd=520&Type=search", "url2": "http://sazancoat.com/" }, "geometry": { "type": "Point", "coordinates": [ 129.019036393054193, 27.7281641313036 ] } },
{ "type": "Feature", "properties": { "内容": "医療法人徳洲会介護老人保健施設愛心園【介護老人保健施設】瀬滝３９８番地", "url": "https://www.kaigokensaku.mhlw.go.jp/46/index.php?action_kouhyou_detail_004_kani=true&JigyosyoCd=4653280026-00&ServiceCd=520&Type=search", "url2": "aisinen@voice.ocn.ne.jp" }, "geometry": { "type": "Point", "coordinates": [ 128.913476800000012, 27.775862 ] } },
{ "type": "Feature", "properties": { "内容": "沖永良部寿恵苑【介護老人保健施設】大島郡和泊町和泊９５－１", "url": "https://www.kaigokensaku.mhlw.go.jp/46/index.php?action_kouhyou_detail_004_kani=true&JigyosyoCd=4653280018-00&ServiceCd=520&Type=search", "url2": "https://jishinkai-ok.com/" }, "geometry": { "type": "Point", "coordinates": [ 128.65301420000003, 27.3883096 ] } },
{ "type": "Feature", "properties": { "内容": "介護老人保健施設　風花苑【介護老人保健施設】鹿児島県大島郡与論町大字麦屋字風花1305番5", "url": "https://www.kaigokensaku.mhlw.go.jp/46/index.php?action_kouhyou_detail_004_kani=true&JigyosyoCd=4653280059-00&ServiceCd=520&Type=search", "url2": "http://www.kazahanaen.com" }, "geometry": { "type": "Point", "coordinates": [ 128.444272126147439, 27.020124654232699 ] } }
]
}
