{
"type": "FeatureCollection",
"name": "geo_46_4",
"crs": { "type": "name", "properties": { "name": "urn:ogc:def:crs:OGC:1.3:CRS84" } },
"features": [
{ "type": "Feature", "properties": { "ID": 46430046, "正式名称": "豆助産院", "機関区分": 4, "都道府県コード": 46, "市区町村コード": 201, "所在地": "鹿児島県鹿児島市和田", "緯度": 31.511398, "経度": 130.51309, "url": "https://www.iryou.teikyouseido.mhlw.go.jp/znk-web/juminkanja/S2430/initialize?prefCd=46&kikanCd=30046&kikanKbn=4", "url2": null, "内容": "豆助産院【4:助産院】鹿児島県鹿児島市和田" }, "geometry": { "type": "Point", "coordinates": [ 130.51309, 31.511398 ] } },
{ "type": "Feature", "properties": { "ID": 464446560043, "正式名称": "岩元助産所", "機関区分": 4, "都道府県コード": 46, "市区町村コード": 208, "所在地": "鹿児島県出水市下鯖町１６９－２", "緯度": 32.115255, "経度": 130.345504, "url": "https://www.iryou.teikyouseido.mhlw.go.jp/znk-web/juminkanja/S2430/initialize?prefCd=46&kikanCd=446560043&kikanKbn=4", "url2": null, "内容": "岩元助産所【4:助産院】鹿児島県出水市下鯖町１６９－２" }, "geometry": { "type": "Point", "coordinates": [ 130.345504, 32.115255 ] } },
{ "type": "Feature", "properties": { "ID": 464446560102, "正式名称": "馬見新助産院", "機関区分": 4, "都道府県コード": 46, "市区町村コード": 208, "所在地": "鹿児島県出水市高尾野町下高尾野１０５８－３", "緯度": 32.0615, "経度": 130.28782, "url": "https://www.iryou.teikyouseido.mhlw.go.jp/znk-web/juminkanja/S2430/initialize?prefCd=46&kikanCd=446560102&kikanKbn=4", "url2": null, "内容": "馬見新助産院【4:助産院】鹿児島県出水市高尾野町下高尾野１０５８－３" }, "geometry": { "type": "Point", "coordinates": [ 130.28782, 32.0615 ] } },
{ "type": "Feature", "properties": { "ID": 464446640022, "正式名称": "やどりぎ助産院", "機関区分": 4, "都道府県コード": 46, "市区町村コード": 222, "所在地": "鹿児島県奄美市名瀬大熊町３１－８", "緯度": 28.406094, "経度": 129.52437, "url": "https://www.iryou.teikyouseido.mhlw.go.jp/znk-web/juminkanja/S2430/initialize?prefCd=46&kikanCd=446640022&kikanKbn=4", "url2": null, "内容": "やどりぎ助産院【4:助産院】鹿児島県奄美市名瀬大熊町３１－８" }, "geometry": { "type": "Point", "coordinates": [ 129.52437, 28.406094 ] } },
{ "type": "Feature", "properties": { "ID": 464446650067, "正式名称": "太陽とお花の助産院ランタナカマラ", "機関区分": 4, "都道府県コード": 46, "市区町村コード": 531, "所在地": "鹿児島県大島郡天城町西阿木名４３８番地１０２", "緯度": 27.76454, "経度": 128.92754, "url": "https://www.iryou.teikyouseido.mhlw.go.jp/znk-web/juminkanja/S2430/initialize?prefCd=46&kikanCd=446650067&kikanKbn=4", "url2": null, "内容": "太陽とお花の助産院ランタナカマラ【4:助産院】鹿児島県大島郡天城町西阿木名４３８番地１０２" }, "geometry": { "type": "Point", "coordinates": [ 128.92754, 27.76454 ] } },
{ "type": "Feature", "properties": { "ID": 464446660028, "正式名称": "あのね助産院", "機関区分": 4, "都道府県コード": 46, "市区町村コード": 215, "所在地": "鹿児島県薩摩川内市東郷町斧渕７１３７－３", "緯度": 31.87879, "経度": 130.336443, "url": "https://www.iryou.teikyouseido.mhlw.go.jp/znk-web/juminkanja/S2430/initialize?prefCd=46&kikanCd=446660028&kikanKbn=4", "url2": null, "内容": "あのね助産院【4:助産院】鹿児島県薩摩川内市東郷町斧渕７１３７－３" }, "geometry": { "type": "Point", "coordinates": [ 130.336443, 31.87879 ] } },
{ "type": "Feature", "properties": { "ID": 464446660086, "正式名称": "ＦＵＦＵ助産院", "機関区分": 4, "都道府県コード": 46, "市区町村コード": 392, "所在地": "鹿児島県薩摩郡さつま町宮之城屋地１７１－４３", "緯度": 31.900129, "経度": 130.448589, "url": "https://www.iryou.teikyouseido.mhlw.go.jp/znk-web/juminkanja/S2430/initialize?prefCd=46&kikanCd=446660086&kikanKbn=4", "url2": null, "内容": "ＦＵＦＵ助産院【4:助産院】鹿児島県薩摩郡さつま町宮之城屋地１７１－４３" }, "geometry": { "type": "Point", "coordinates": [ 130.448589, 31.900129 ] } },
{ "type": "Feature", "properties": { "ID": 464446660099, "正式名称": "ふわり助産院", "機関区分": 4, "都道府県コード": 46, "市区町村コード": 215, "所在地": "鹿児島県薩摩川内市平佐町１４３４－１２", "緯度": 31.805456, "経度": 130.32592, "url": "https://www.iryou.teikyouseido.mhlw.go.jp/znk-web/juminkanja/S2430/initialize?prefCd=46&kikanCd=446660099&kikanKbn=4", "url2": null, "内容": "ふわり助産院【4:助産院】鹿児島県薩摩川内市平佐町１４３４－１２" }, "geometry": { "type": "Point", "coordinates": [ 130.32592, 31.805456 ] } }
]
}
