{
"type": "FeatureCollection",
"name": "geo_46_介護老人福祉施設",
"crs": { "type": "name", "properties": { "name": "urn:ogc:def:crs:OGC:1.3:CRS84" } },
"features": [
{ "type": "Feature", "properties": { "内容": "特別養護老人ホーム　はっぴー園【介護老人福祉施設】鹿児島県鹿児島市下福元町９５６３番地", "url": "https://www.kaigokensaku.mhlw.go.jp/46/index.php?action_kouhyou_detail_004_kani=true&JigyosyoCd=4670101197-00&ServiceCd=510&Type=search", "url2": "happy-en.jp" }, "geometry": { "type": "Point", "coordinates": [ 130.48879409999995, 31.5039061 ] } },
{ "type": "Feature", "properties": { "内容": "特別養護老人ホーム　下田苑【介護老人福祉施設】鹿児島市下田町３５３番地", "url": "https://www.kaigokensaku.mhlw.go.jp/46/index.php?action_kouhyou_detail_004_kani=true&JigyosyoCd=4670102864-00&ServiceCd=510&Type=search", "url2": "http://www.shimodaen.jp" }, "geometry": { "type": "Point", "coordinates": [ 130.550739, 31.6399521 ] } },
{ "type": "Feature", "properties": { "内容": "特別養護老人ホーム慈眼寺園【介護老人福祉施設】鹿児島市錦江台１丁目20-20", "url": "https://www.kaigokensaku.mhlw.go.jp/46/index.php?action_kouhyou_detail_004_kani=true&JigyosyoCd=4670103599-00&ServiceCd=510&Type=search", "url2": "https://jigenjien.org/" }, "geometry": { "type": "Point", "coordinates": [ 130.4959407, 31.5062117 ] } },
{ "type": "Feature", "properties": { "内容": "特別養護老人ホーム　西谷山わかくさの郷【介護老人福祉施設】鹿児島市上福元町7048番1", "url": "https://www.kaigokensaku.mhlw.go.jp/46/index.php?action_kouhyou_detail_004_kani=true&JigyosyoCd=4670106329-00&ServiceCd=510&Type=search", "url2": "http://www.koutokukai.org/~wakakusa/" }, "geometry": { "type": "Point", "coordinates": [ 130.494746063385037, 31.525205231618138 ] } },
{ "type": "Feature", "properties": { "内容": "特別養護老人ホーム錦江園【介護老人福祉施設】鹿児島県鹿児島市平川町２５３０番地１", "url": "https://www.kaigokensaku.mhlw.go.jp/46/index.php?action_kouhyou_detail_004_kani=true&JigyosyoCd=4670101114-00&ServiceCd=510&Type=search", "url2": "https://www.kinkouen.jp/" }, "geometry": { "type": "Point", "coordinates": [ 130.514923263845844, 31.461049846417968 ] } },
{ "type": "Feature", "properties": { "内容": "特別養護老人ホーム　桜島苑【介護老人福祉施設】鹿児島県鹿児島市桜島横山町１７２２－４５", "url": "https://www.kaigokensaku.mhlw.go.jp/46/index.php?action_kouhyou_detail_004_kani=true&JigyosyoCd=4671600023-00&ServiceCd=510&Type=search", "url2": "https://sakurajimaen.com" }, "geometry": { "type": "Point", "coordinates": [ 130.602123, 31.5901132 ] } },
{ "type": "Feature", "properties": { "内容": "特別養護老人ホームふれあいの街ねむの里【介護老人福祉施設】鹿児島市山田町2405番地1", "url": "https://www.kaigokensaku.mhlw.go.jp/46/index.php?action_kouhyou_detail_004_kani=true&JigyosyoCd=4670106410-00&ServiceCd=510&Type=search", "url2": "http://nemunosato.jp/" }, "geometry": { "type": "Point", "coordinates": [ 130.498228199999971, 31.562259399999988 ] } },
{ "type": "Feature", "properties": { "内容": "特別養護老人ホーム　ラ・コリーヌ伊敷台【介護老人福祉施設】鹿児島県鹿児島市伊敷台1丁目14番1号", "url": "https://www.kaigokensaku.mhlw.go.jp/46/index.php?action_kouhyou_detail_004_kani=true&JigyosyoCd=4670111782-00&ServiceCd=510&Type=search", "url2": "http://ichihuku.jp/" }, "geometry": { "type": "Point", "coordinates": [ 130.53493650978703, 31.62100135672484 ] } },
{ "type": "Feature", "properties": { "内容": "特別養護老人ホーム　オアシスケア城西【介護老人福祉施設】鹿児島県永吉二丁目３７番１４号", "url": "https://www.kaigokensaku.mhlw.go.jp/46/index.php?action_kouhyou_detail_004_kani=true&JigyosyoCd=4670111808-00&ServiceCd=510&Type=search", "url2": "http://johsei.org/" }, "geometry": { "type": "Point", "coordinates": [ 130.532615077909867, 31.608960020319554 ] } },
{ "type": "Feature", "properties": { "内容": "特別養護老人ホーム武岡ピュアハウス【介護老人福祉施設】鹿児島県鹿児島市武岡1丁目121番9", "url": "https://www.kaigokensaku.mhlw.go.jp/46/index.php?action_kouhyou_detail_004_kani=true&JigyosyoCd=4670111774-00&ServiceCd=510&Type=search", "url2": "http://nozomikai.co/" }, "geometry": { "type": "Point", "coordinates": [ 130.527209371302803, 31.585961148234308 ] } },
{ "type": "Feature", "properties": { "内容": "谷山緑地苑【介護老人福祉施設】鹿児島市谷山中央2丁目702-56", "url": "https://www.kaigokensaku.mhlw.go.jp/46/index.php?action_kouhyou_detail_004_kani=true&JigyosyoCd=4670113945-00&ServiceCd=510&Type=search", "url2": "https://nozomikai.co" }, "geometry": { "type": "Point", "coordinates": [ 130.525914181228643, 31.525197551503592 ] } },
{ "type": "Feature", "properties": { "内容": "特別養護老人ホーム健生苑【介護老人福祉施設】鹿児島県鹿児島市石谷町3523番地", "url": "https://www.kaigokensaku.mhlw.go.jp/46/index.php?action_kouhyou_detail_004_kani=true&JigyosyoCd=4673100030-00&ServiceCd=510&Type=search", "url2": "http：//syafukuseijyukai.com/" }, "geometry": { "type": "Point", "coordinates": [ 130.4517558, 31.625111 ] } },
{ "type": "Feature", "properties": { "内容": "特別養護老人ホームにじの郷たにやま【介護老人福祉施設】鹿児島市中山町5028-80", "url": "https://www.kaigokensaku.mhlw.go.jp/46/index.php?action_kouhyou_detail_004_kani=true&JigyosyoCd=4670101247-00&ServiceCd=510&Type=search", "url2": "http://nizinosato.com/" }, "geometry": { "type": "Point", "coordinates": [ 130.503125700000027, 31.5397843 ] } },
{ "type": "Feature", "properties": { "内容": "特別養護老人ホームにじの郷たにやま（ユニット型）【介護老人福祉施設】鹿児島県鹿児島市中山町5028番地80", "url": "https://www.kaigokensaku.mhlw.go.jp/46/index.php?action_kouhyou_detail_004_kani=true&JigyosyoCd=4670109810-00&ServiceCd=510&Type=search", "url2": "http://nizinosato.com/" }, "geometry": { "type": "Point", "coordinates": [ 130.503125700000027, 31.5397843 ] } },
{ "type": "Feature", "properties": { "内容": "特別養護老人ホーム　旭ヶ丘園（ユニット型）【介護老人福祉施設】平川町1382番地", "url": "https://www.kaigokensaku.mhlw.go.jp/46/index.php?action_kouhyou_detail_004_kani=true&JigyosyoCd=4670109828-00&ServiceCd=510&Type=search", "url2": "https://kyokuseikai.com/" }, "geometry": { "type": "Point", "coordinates": [ 130.502510568508939, 31.467331008055663 ] } },
{ "type": "Feature", "properties": { "内容": "特別養護老人ホーム　旭ヶ丘園【介護老人福祉施設】鹿児島市平川町1382番地", "url": "https://www.kaigokensaku.mhlw.go.jp/46/index.php?action_kouhyou_detail_004_kani=true&JigyosyoCd=4670101171-00&ServiceCd=510&Type=search", "url2": "https://kyokuseikai.com/" }, "geometry": { "type": "Point", "coordinates": [ 130.5037873, 31.46621 ] } },
{ "type": "Feature", "properties": { "内容": "特別養護老人ホーム　美樹園【介護老人福祉施設】鹿児島市下福元町１９２６番地６", "url": "https://www.kaigokensaku.mhlw.go.jp/46/index.php?action_kouhyou_detail_004_kani=true&JigyosyoCd=4670101122-00&ServiceCd=510&Type=search", "url2": "https://mikien.or.jp/" }, "geometry": { "type": "Point", "coordinates": [ 130.48796872698361, 31.523194094601234 ] } },
{ "type": "Feature", "properties": { "内容": "特別養護老人ホームオアシスケア清水【介護老人福祉施設】鹿児島県鹿児島市稲荷町１７番３５号", "url": "https://www.kaigokensaku.mhlw.go.jp/46/index.php?action_kouhyou_detail_004_kani=true&JigyosyoCd=4670113143-00&ServiceCd=510&Type=search", "url2": "https://johsei.org/" }, "geometry": { "type": "Point", "coordinates": [ 130.569711399999989, 31.6105012 ] } },
{ "type": "Feature", "properties": { "内容": "特別養護老人ホーム愛心苑【介護老人福祉施設】鹿児島市和田3丁目40番地1号", "url": "https://www.kaigokensaku.mhlw.go.jp/46/index.php?action_kouhyou_detail_004_kani=true&JigyosyoCd=4670107657-00&ServiceCd=510&Type=search", "url2": "http://aisin-kai.or.jp" }, "geometry": { "type": "Point", "coordinates": [ 130.514277799999945, 31.5092175 ] } },
{ "type": "Feature", "properties": { "内容": "特別養護老人ホーム　清谿園【介護老人福祉施設】鹿児島市山田町３８２８番地", "url": "https://www.kaigokensaku.mhlw.go.jp/46/index.php?action_kouhyou_detail_004_kani=true&JigyosyoCd=4670101106-00&ServiceCd=510&Type=search", "url2": "http://www.seikeien.com" }, "geometry": { "type": "Point", "coordinates": [ 130.492112, 31.5732637 ] } },
{ "type": "Feature", "properties": { "内容": "特別養護老人ホーム　みやび【介護老人福祉施設】鹿児島市谷山中央1丁目4319番", "url": "https://www.kaigokensaku.mhlw.go.jp/46/index.php?action_kouhyou_detail_004_kani=true&JigyosyoCd=4670103888-00&ServiceCd=510&Type=search", "url2": "https://miyabi.synapse.kagoshima.jp/" }, "geometry": { "type": "Point", "coordinates": [ 130.515002399999958, 31.5243885 ] } },
{ "type": "Feature", "properties": { "内容": "特別養護老人ホーム　寿康園【介護老人福祉施設】鹿児島県鹿児島市本名町234", "url": "https://www.kaigokensaku.mhlw.go.jp/46/index.php?action_kouhyou_detail_004_kani=true&JigyosyoCd=4671500017-00&ServiceCd=510&Type=search", "url2": "http://www.jukouen.jp" }, "geometry": { "type": "Point", "coordinates": [ 130.546608448410097, 31.695217853973748 ] } },
{ "type": "Feature", "properties": { "内容": "特別養護老人ホーム　あけぼの【介護老人福祉施設】鹿児島県鹿児島市山田町２０２１番地", "url": "https://www.kaigokensaku.mhlw.go.jp/46/index.php?action_kouhyou_detail_004_kani=true&JigyosyoCd=4670102955-00&ServiceCd=510&Type=search", "url2": "http://www.kakuyokai.com/" }, "geometry": { "type": "Point", "coordinates": [ 130.5069241, 31.5633454 ] } },
{ "type": "Feature", "properties": { "内容": "特別養護老人ホーム愛泉園【介護老人福祉施設】鹿児島県鹿児島市川田町1090番地", "url": "https://www.kaigokensaku.mhlw.go.jp/46/index.php?action_kouhyou_detail_004_kani=true&JigyosyoCd=4673200020-00&ServiceCd=510&Type=search", "url2": "syoueikai.or.jp" }, "geometry": { "type": "Point", "coordinates": [ 130.5035666, 31.6730643 ] } },
{ "type": "Feature", "properties": { "内容": "ケアガーデンてらやま【介護老人福祉施設】鹿児島市吉野町１０８７７番地１８", "url": "https://www.kaigokensaku.mhlw.go.jp/46/index.php?action_kouhyou_detail_004_kani=true&JigyosyoCd=4670101213-00&ServiceCd=510&Type=search", "url2": "http://www.care-garden.or.jp" }, "geometry": { "type": "Point", "coordinates": [ 130.6030161, 31.6557373 ] } },
{ "type": "Feature", "properties": { "内容": "特別養護老人ホームとそ清風園【介護老人福祉施設】田上台1丁目43番1号", "url": "https://www.kaigokensaku.mhlw.go.jp/46/index.php?action_kouhyou_detail_004_kani=true&JigyosyoCd=4670100678-00&ServiceCd=510&Type=search", "url2": "http://www.tososeifuen.com" }, "geometry": { "type": "Point", "coordinates": [ 130.529651800000011, 31.5667146 ] } },
{ "type": "Feature", "properties": { "内容": "特別養護老人ホーム　睦園【介護老人福祉施設】鹿児島市吉野町6077番地56睦園", "url": "https://www.kaigokensaku.mhlw.go.jp/46/index.php?action_kouhyou_detail_004_kani=true&JigyosyoCd=4670105529-00&ServiceCd=510&Type=search", "url2": "https://www.mutumien.com" }, "geometry": { "type": "Point", "coordinates": [ 130.59242, 31.6503545 ] } },
{ "type": "Feature", "properties": { "内容": "特別養護老人ホーム花時計【介護老人福祉施設】鹿児島県鹿児島市加治屋町16番地6", "url": "https://www.kaigokensaku.mhlw.go.jp/46/index.php?action_kouhyou_detail_004_kani=true&JigyosyoCd=4670112236-00&ServiceCd=510&Type=search", "url2": "https://hanadokei-syoureikai.com/" }, "geometry": { "type": "Point", "coordinates": [ 130.551875546696465, 31.586902614616683 ] } },
{ "type": "Feature", "properties": { "内容": "特別養護老人ホーム松恵園【介護老人福祉施設】鹿児島市西別府町1920番地", "url": "https://www.kaigokensaku.mhlw.go.jp/46/index.php?action_kouhyou_detail_004_kani=true&JigyosyoCd=4670101163-00&ServiceCd=510&Type=search", "url2": "https://syoukeien.jp" }, "geometry": { "type": "Point", "coordinates": [ 130.4856777, 31.5993447 ] } },
{ "type": "Feature", "properties": { "内容": "特別養護老人ホーム　三船園【介護老人福祉施設】鹿児島市吉野町10005番地4", "url": "https://www.kaigokensaku.mhlw.go.jp/46/index.php?action_kouhyou_detail_004_kani=true&JigyosyoCd=4670101098-00&ServiceCd=510&Type=search", "url2": "http://mifuneen.net" }, "geometry": { "type": "Point", "coordinates": [ 130.601356, 31.6334059 ] } },
{ "type": "Feature", "properties": { "内容": "特別養護老人ホーム　くすの木グリーンハイツ【介護老人福祉施設】鹿児島市犬迫町７７７１番地", "url": "https://www.kaigokensaku.mhlw.go.jp/46/index.php?action_kouhyou_detail_004_kani=true&JigyosyoCd=4670100645-00&ServiceCd=510&Type=search", "url2": "http://www.kusunokikai.jp" }, "geometry": { "type": "Point", "coordinates": [ 130.48323449999998, 31.6263971 ] } },
{ "type": "Feature", "properties": { "内容": "特別養護老人ホーム　ひまわり園【介護老人福祉施設】鹿児島市犬迫町５４０７番地２", "url": "https://www.kaigokensaku.mhlw.go.jp/46/index.php?action_kouhyou_detail_004_kani=true&JigyosyoCd=4670100652-00&ServiceCd=510&Type=search", "url2": "https://www.himawarien.jp" }, "geometry": { "type": "Point", "coordinates": [ 130.496877499999982, 31.6334048 ] } },
{ "type": "Feature", "properties": { "内容": "特別養護老人ホーム高喜苑【介護老人福祉施設】鹿児島市武岡5丁目51番10号", "url": "https://www.kaigokensaku.mhlw.go.jp/46/index.php?action_kouhyou_detail_004_kani=true&JigyosyoCd=4670101189-00&ServiceCd=510&Type=search", "url2": "http:www.saiseikai-kg.jp" }, "geometry": { "type": "Point", "coordinates": [ 130.509841599999959, 31.5997163 ] } },
{ "type": "Feature", "properties": { "内容": "特別養護老人ホーム泰山荘【介護老人福祉施設】鹿児島市皆与志町2261番地1", "url": "https://www.kaigokensaku.mhlw.go.jp/46/index.php?action_kouhyou_detail_004_kani=true&JigyosyoCd=4670100660-00&ServiceCd=510&Type=search", "url2": "https://taizansou.jp" }, "geometry": { "type": "Point", "coordinates": [ 130.5291985, 31.6656241 ] } },
{ "type": "Feature", "properties": { "内容": "特別養護老人ホーム　ひだまりの里【介護老人福祉施設】鹿児島市川上町１０４１番地１", "url": "https://www.kaigokensaku.mhlw.go.jp/46/index.php?action_kouhyou_detail_004_kani=true&JigyosyoCd=4670101239-00&ServiceCd=510&Type=search", "url2": null }, "geometry": { "type": "Point", "coordinates": [ 130.561765499999979, 31.6586394 ] } },
{ "type": "Feature", "properties": { "内容": "特別養護老人ホーム　シルクロード七福神【介護老人福祉施設】鹿児島県鹿児島市紫原5丁目13-18", "url": "https://www.kaigokensaku.mhlw.go.jp/46/index.php?action_kouhyou_detail_004_kani=true&JigyosyoCd=4670112780-00&ServiceCd=510&Type=search", "url2": "https://729729.jp/" }, "geometry": { "type": "Point", "coordinates": [ 130.528054, 31.5624336 ] } },
{ "type": "Feature", "properties": { "内容": "グランパソ【介護老人福祉施設】鹿児島県鹿児島市中山二丁目13番15号パソ中山総合福祉施設", "url": "https://www.kaigokensaku.mhlw.go.jp/46/index.php?action_kouhyou_detail_004_kani=true&JigyosyoCd=4670110099-00&ServiceCd=510&Type=search", "url2": "https://www.keiseikai-kagoshima.jp/" }, "geometry": { "type": "Point", "coordinates": [ 130.510044, 31.544928100000011 ] } },
{ "type": "Feature", "properties": { "内容": "特別養護老人ホーム七福神【介護老人福祉施設】西伊敷３丁目１４－３", "url": "https://www.kaigokensaku.mhlw.go.jp/46/index.php?action_kouhyou_detail_004_kani=true&JigyosyoCd=4670110586-00&ServiceCd=510&Type=search", "url2": "http://www.729729.jp" }, "geometry": { "type": "Point", "coordinates": [ 130.529677099999958, 31.6398799 ] } },
{ "type": "Feature", "properties": { "内容": "介護老人福祉施設　アルテンハイム鹿児島【介護老人福祉施設】鹿児島県鹿児島市与次郎1丁目4番18号", "url": "https://www.kaigokensaku.mhlw.go.jp/46/index.php?action_kouhyou_detail_004_kani=true&JigyosyoCd=4670110420-00&ServiceCd=510&Type=search", "url2": "http://www.nonohanakai.or.jp/" }, "geometry": { "type": "Point", "coordinates": [ 130.559771323773248, 31.566764759413687 ] } },
{ "type": "Feature", "properties": { "内容": "特別養護老人ホーム　城山苑別館【介護老人福祉施設】鹿児島県鹿児島市長田町37番23号", "url": "https://www.kaigokensaku.mhlw.go.jp/46/index.php?action_kouhyou_detail_004_kani=true&JigyosyoCd=4670112269-00&ServiceCd=510&Type=search", "url2": null }, "geometry": { "type": "Point", "coordinates": [ 130.548982799999976, 31.6010305 ] } },
{ "type": "Feature", "properties": { "内容": "さかもと園【介護老人福祉施設】鹿児島県鹿児島市坂元町502番地", "url": "https://www.kaigokensaku.mhlw.go.jp/46/index.php?action_kouhyou_detail_004_kani=true&JigyosyoCd=4670102328-00&ServiceCd=510&Type=search", "url2": "http://www.sakamotoen.jp" }, "geometry": { "type": "Point", "coordinates": [ 130.557247522457828, 31.618231090647889 ] } },
{ "type": "Feature", "properties": { "内容": "城山苑【介護老人福祉施設】鹿児島市長田町32番1号", "url": "https://www.kaigokensaku.mhlw.go.jp/46/index.php?action_kouhyou_detail_004_kani=true&JigyosyoCd=4670101221-00&ServiceCd=510&Type=search", "url2": "http://www.shiroyamakai.com/" }, "geometry": { "type": "Point", "coordinates": [ 130.548982799999976, 31.6010305 ] } },
{ "type": "Feature", "properties": { "内容": "特別養護老人ホーム花水木【介護老人福祉施設】郡元三丁目4番15号", "url": "https://www.kaigokensaku.mhlw.go.jp/46/index.php?action_kouhyou_detail_004_kani=true&JigyosyoCd=4670108317-00&ServiceCd=510&Type=search", "url2": "http://www.hana-sanaikai.or.jp" }, "geometry": { "type": "Point", "coordinates": [ 130.548917399999937, 31.5603463 ] } },
{ "type": "Feature", "properties": { "内容": "特別養護老人ホーム　うすきの里【介護老人福祉施設】宇宿二丁目16番２", "url": "https://www.kaigokensaku.mhlw.go.jp/46/index.php?action_kouhyou_detail_004_kani=true&JigyosyoCd=4670113721-00&ServiceCd=510&Type=search", "url2": "https://kiire.jp" }, "geometry": { "type": "Point", "coordinates": [ 130.540841203957996, 31.542832322412373 ] } },
{ "type": "Feature", "properties": { "内容": "特別養護老人ホーム　かもいけ【介護老人福祉施設】鹿児島県鹿児島市東郡元町１１番６号", "url": "https://www.kaigokensaku.mhlw.go.jp/46/index.php?action_kouhyou_detail_004_kani=true&JigyosyoCd=4670112228-00&ServiceCd=510&Type=search", "url2": "https://kamoikecare.jifukai.jp/" }, "geometry": { "type": "Point", "coordinates": [ 130.549977065676103, 31.553939693871641 ] } },
{ "type": "Feature", "properties": { "内容": "喜入の里（ユニット型）【介護老人福祉施設】喜入前之浜町７７８８番地", "url": "https://www.kaigokensaku.mhlw.go.jp/46/index.php?action_kouhyou_detail_004_kani=true&JigyosyoCd=4670109802-00&ServiceCd=510&Type=search", "url2": "https://kiire.jp" }, "geometry": { "type": "Point", "coordinates": [ 130.553888592590226, 31.350010581424375 ] } },
{ "type": "Feature", "properties": { "内容": "喜入の里【介護老人福祉施設】喜入前之浜町7788", "url": "https://www.kaigokensaku.mhlw.go.jp/46/index.php?action_kouhyou_detail_004_kani=true&JigyosyoCd=4671900043-00&ServiceCd=510&Type=search", "url2": "https://kiire.jp" }, "geometry": { "type": "Point", "coordinates": [ 130.553856406082076, 31.3506382092169 ] } },
{ "type": "Feature", "properties": { "内容": "特別養護老人ホーム　たにやまの里【介護老人福祉施設】谷山中央４丁目4817-3", "url": "https://www.kaigokensaku.mhlw.go.jp/46/index.php?action_kouhyou_detail_004_kani=true&JigyosyoCd=4670114216-00&ServiceCd=510&Type=search", "url2": "https://kiire.jp/" }, "geometry": { "type": "Point", "coordinates": [ 130.51753, 31.517042 ] } },
{ "type": "Feature", "properties": { "内容": "朋愛園【介護老人福祉施設】寿２丁目２番１号", "url": "https://www.kaigokensaku.mhlw.go.jp/46/index.php?action_kouhyou_detail_004_kani=true&JigyosyoCd=4670300229-00&ServiceCd=510&Type=search", "url2": "http://houaien.jp/" }, "geometry": { "type": "Point", "coordinates": [ 130.860179300000027, 31.3870722 ] } },
{ "type": "Feature", "properties": { "内容": "特別養護老人ホーム　悠々【介護老人福祉施設】鹿児島県鹿屋市大浦町１４０２８番６", "url": "https://www.kaigokensaku.mhlw.go.jp/46/index.php?action_kouhyou_detail_004_kani=true&JigyosyoCd=4670300617-00&ServiceCd=510&Type=search", "url2": "http://www.fk-yuyu.net" }, "geometry": { "type": "Point", "coordinates": [ 130.8427828, 31.4039701 ] } },
{ "type": "Feature", "properties": { "内容": "特別養護老人ホーム慈恵園【介護老人福祉施設】大姶良町226番地", "url": "https://www.kaigokensaku.mhlw.go.jp/46/index.php?action_kouhyou_detail_004_kani=true&JigyosyoCd=4670300211-00&ServiceCd=510&Type=search", "url2": "http://zikeien.org" }, "geometry": { "type": "Point", "coordinates": [ 130.83373, 31.3325489 ] } },
{ "type": "Feature", "properties": { "内容": "以和貴苑指定介護老人福祉施設【介護老人福祉施設】鹿児島県鹿屋市串良町細山田5902番地3", "url": "https://www.kaigokensaku.mhlw.go.jp/46/index.php?action_kouhyou_detail_004_kani=true&JigyosyoCd=4677100051-00&ServiceCd=510&Type=search", "url2": "http://iwakikai.org" }, "geometry": { "type": "Point", "coordinates": [ 130.890633, 31.4498859 ] } },
{ "type": "Feature", "properties": { "内容": "介護老人福祉施設　グリーンバード【介護老人福祉施設】輝北町市成2121番地3介護老人福祉施設　グリーンバード", "url": "https://www.kaigokensaku.mhlw.go.jp/46/index.php?action_kouhyou_detail_004_kani=true&JigyosyoCd=4676400064-00&ServiceCd=510&Type=search", "url2": "http://shuhokai.info" }, "geometry": { "type": "Point", "coordinates": [ 130.862008699999933, 31.586378 ] } },
{ "type": "Feature", "properties": { "内容": "特別養護老人ホーム陵幸園【介護老人福祉施設】鹿屋市吾平町麓3805番地", "url": "https://www.kaigokensaku.mhlw.go.jp/46/index.php?action_kouhyou_detail_004_kani=true&JigyosyoCd=4677500078-00&ServiceCd=510&Type=search", "url2": "https://ryoukoukai1987.com" }, "geometry": { "type": "Point", "coordinates": [ 130.892956599999934, 31.3220883 ] } },
{ "type": "Feature", "properties": { "内容": "花岡の里【介護老人福祉施設】鹿屋市花岡町３９７９番地１", "url": "https://www.kaigokensaku.mhlw.go.jp/46/index.php?action_kouhyou_detail_004_kani=true&JigyosyoCd=4670300237-00&ServiceCd=510&Type=search", "url2": "http://hanaokanosato.jp/" }, "geometry": { "type": "Point", "coordinates": [ 130.780676099999937, 31.409369600000016 ] } },
{ "type": "Feature", "properties": { "内容": "特別養護老人ホーム鹿屋長寿園【介護老人福祉施設】鹿児島県鹿屋市下祓川町1800番地", "url": "https://www.kaigokensaku.mhlw.go.jp/46/index.php?action_kouhyou_detail_004_kani=true&JigyosyoCd=4670300203-00&ServiceCd=510&Type=search", "url2": "http://www.kanoya-choujuen.jp/" }, "geometry": { "type": "Point", "coordinates": [ 130.852626399999963, 31.4128113 ] } },
{ "type": "Feature", "properties": { "内容": "社会福祉法人　明星福祉会　特別養護老人ホーム　南方園【介護老人福祉施設】鹿児島県枕崎市まかや町678番地", "url": "https://www.kaigokensaku.mhlw.go.jp/46/index.php?action_kouhyou_detail_004_kani=true&JigyosyoCd=4670400094-00&ServiceCd=510&Type=search", "url2": "http//www2.synapse.ne.jp/nanpouen/" }, "geometry": { "type": "Point", "coordinates": [ 130.360589900000036, 31.2901473 ] } },
{ "type": "Feature", "properties": { "内容": "ピースフル立神【介護老人福祉施設】鹿児島県枕崎市火之神町725番地", "url": "https://www.kaigokensaku.mhlw.go.jp/46/index.php?action_kouhyou_detail_004_kani=true&JigyosyoCd=4670400102-00&ServiceCd=510&Type=search", "url2": "https://koseifukushikai.ko-seikai.jp/" }, "geometry": { "type": "Point", "coordinates": [ 130.277593776057444, 31.253028266846638 ] } },
{ "type": "Feature", "properties": { "内容": "特別養護老人ホーム恵比須【介護老人福祉施設】鹿児島県枕崎市宮田町１８１番地", "url": "https://www.kaigokensaku.mhlw.go.jp/46/index.php?action_kouhyou_detail_004_kani=true&JigyosyoCd=4670400342-00&ServiceCd=510&Type=search", "url2": "shukeikai.com" }, "geometry": { "type": "Point", "coordinates": [ 130.299118709175303, 31.276985584317508 ] } },
{ "type": "Feature", "properties": { "内容": "特別養護老人ホーム桜ヶ丘荘【介護老人福祉施設】鹿児島県阿久根市赤瀬川265番地", "url": "https://www.kaigokensaku.mhlw.go.jp/46/index.php?action_kouhyou_detail_004_kani=true&JigyosyoCd=4670600057-00&ServiceCd=510&Type=search", "url2": "https://www.ohjin-kai.com" }, "geometry": { "type": "Point", "coordinates": [ 130.201658800000018, 32.0254855 ] } },
{ "type": "Feature", "properties": { "内容": "特別養護老人ホーム野田の郷（ユニット型）【介護老人福祉施設】野田町下名４，９７９番地２", "url": "https://www.kaigokensaku.mhlw.go.jp/46/index.php?action_kouhyou_detail_004_kani=true&JigyosyoCd=4670800897-00&ServiceCd=510&Type=search", "url2": "https://nodanosato.jp/" }, "geometry": { "type": "Point", "coordinates": [ 130.258719049537603, 32.062256852872814 ] } },
{ "type": "Feature", "properties": { "内容": "特別養護老人ホーム鶴寿園【介護老人福祉施設】汐見町93番地", "url": "https://www.kaigokensaku.mhlw.go.jp/46/index.php?action_kouhyou_detail_004_kani=true&JigyosyoCd=4670800079-00&ServiceCd=510&Type=search", "url2": "https://kakujukai.com/" }, "geometry": { "type": "Point", "coordinates": [ 130.314585599999987, 32.114819 ] } },
{ "type": "Feature", "properties": { "内容": "特別養護老人ホーム　鶴寿会たかおの【介護老人福祉施設】高尾野町大久保600番地", "url": "https://www.kaigokensaku.mhlw.go.jp/46/index.php?action_kouhyou_detail_004_kani=true&JigyosyoCd=4670800814-00&ServiceCd=510&Type=search", "url2": null }, "geometry": { "type": "Point", "coordinates": [ 130.310959, 32.0625246 ] } },
{ "type": "Feature", "properties": { "内容": "特別養護老人ホーム出水の里【介護老人福祉施設】鹿児島県出水市境町1822", "url": "https://www.kaigokensaku.mhlw.go.jp/46/index.php?action_kouhyou_detail_004_kani=true&JigyosyoCd=4670800087-00&ServiceCd=510&Type=search", "url2": "http://www.izumi-kouseikai.or.jp" }, "geometry": { "type": "Point", "coordinates": [ 130.359767599999941, 32.1661337 ] } },
{ "type": "Feature", "properties": { "内容": "特別養護老人ホーム野田の郷【介護老人福祉施設】鹿児島県出水市野田町下名4,975番地2", "url": "https://www.kaigokensaku.mhlw.go.jp/46/index.php?action_kouhyou_detail_004_kani=true&JigyosyoCd=4674700028-00&ServiceCd=510&Type=search", "url2": "https://nodanosato.jp/" }, "geometry": { "type": "Point", "coordinates": [ 130.259641729438727, 32.062456885144435 ] } },
{ "type": "Feature", "properties": { "内容": "特別養護老人ホーム　湯之里園【介護老人福祉施設】東方８２８番地ロ", "url": "https://www.kaigokensaku.mhlw.go.jp/46/index.php?action_kouhyou_detail_004_kani=true&JigyosyoCd=4671000075-00&ServiceCd=510&Type=search", "url2": "http://www.kinkoukai.jp/" }, "geometry": { "type": "Point", "coordinates": [ 130.620810300000016, 31.249723 ] } },
{ "type": "Feature", "properties": { "内容": "特別養護老人ホーム　徳光苑【介護老人福祉施設】鹿児島県指宿市山川岡児ヶ水1212番地1", "url": "https://www.kaigokensaku.mhlw.go.jp/46/index.php?action_kouhyou_detail_004_kani=true&JigyosyoCd=4672000041-00&ServiceCd=510&Type=search", "url2": "http://www.tokkoen.or.jp" }, "geometry": { "type": "Point", "coordinates": [ 130.575657, 31.1731151 ] } },
{ "type": "Feature", "properties": { "内容": "特別養護老人ホーム薩摩富士荘【介護老人福祉施設】開聞仙田６５２９番地１", "url": "https://www.kaigokensaku.mhlw.go.jp/46/index.php?action_kouhyou_detail_004_kani=true&JigyosyoCd=4672200021-00&ServiceCd=510&Type=search", "url2": "http://k-yuwakai.jp/" }, "geometry": { "type": "Point", "coordinates": [ 130.539748199999963, 31.1983656 ] } },
{ "type": "Feature", "properties": { "内容": "特別養護老人ホーム　百合砂苑【介護老人福祉施設】鹿児島県西之表市西之表6087番地", "url": "https://www.kaigokensaku.mhlw.go.jp/46/index.php?action_kouhyou_detail_004_kani=true&JigyosyoCd=4671300186-00&ServiceCd=510&Type=search", "url2": "www.yurisa.jp" }, "geometry": { "type": "Point", "coordinates": [ 131.003617399999939, 30.7478607 ] } },
{ "type": "Feature", "properties": { "内容": "特別養護老人ホームわかさ園【介護老人福祉施設】西之表市西之表16347番地", "url": "https://www.kaigokensaku.mhlw.go.jp/46/index.php?action_kouhyou_detail_004_kani=true&JigyosyoCd=4671300061-00&ServiceCd=510&Type=search", "url2": null }, "geometry": { "type": "Point", "coordinates": [ 130.9793373, 30.721304 ] } },
{ "type": "Feature", "properties": { "内容": "特別養護老人ホーム恵光園【介護老人福祉施設】鹿児島県垂水市本城221番地", "url": "https://www.kaigokensaku.mhlw.go.jp/46/index.php?action_kouhyou_detail_004_kani=true&JigyosyoCd=4671400069-00&ServiceCd=510&Type=search", "url2": "http://www.city-tarumizu-keikouen.com" }, "geometry": { "type": "Point", "coordinates": [ 130.717428822090142, 31.482907196096587 ] } },
{ "type": "Feature", "properties": { "内容": "特別養護老人ホーム恵光園ユニット【介護老人福祉施設】鹿児島県垂水市本城221番地", "url": "https://www.kaigokensaku.mhlw.go.jp/46/index.php?action_kouhyou_detail_004_kani=true&JigyosyoCd=4671400291-00&ServiceCd=510&Type=search", "url2": "http://www.city-tarumizu-keikouen.com" }, "geometry": { "type": "Point", "coordinates": [ 130.717444915344231, 31.48290262134228 ] } },
{ "type": "Feature", "properties": { "内容": "特別養護老人ホーム寿里苑【介護老人福祉施設】鹿児島県薩摩川内市里町里1621-1", "url": "https://www.kaigokensaku.mhlw.go.jp/46/index.php?action_kouhyou_detail_004_kani=true&JigyosyoCd=4674300050-00&ServiceCd=510&Type=search", "url2": "nrkts2.wixsite.com／koshiki-jurien" }, "geometry": { "type": "Point", "coordinates": [ 129.9182013, 31.843139800000035 ] } },
{ "type": "Feature", "properties": { "内容": "特別養護老人ホーム幸せの里（ユニット型）【介護老人福祉施設】永利町4311番地5", "url": "https://www.kaigokensaku.mhlw.go.jp/46/index.php?action_kouhyou_detail_004_kani=true&JigyosyoCd=4671500637-00&ServiceCd=510&Type=search", "url2": "http://shiawase-aiwakai.com/service/tokuyou/unit/" }, "geometry": { "type": "Point", "coordinates": [ 130.352705199999946, 31.8017112 ] } },
{ "type": "Feature", "properties": { "内容": "特別養護老人ホーム　幸せの里【介護老人福祉施設】永利町4311番地5", "url": "https://www.kaigokensaku.mhlw.go.jp/46/index.php?action_kouhyou_detail_004_kani=true&JigyosyoCd=4670200189-00&ServiceCd=510&Type=search", "url2": "http://shiawase-aiwakai.com" }, "geometry": { "type": "Point", "coordinates": [ 130.352705199999946, 31.8017112 ] } },
{ "type": "Feature", "properties": { "内容": "特別養護老人ホームのぞみ園【介護老人福祉施設】鹿児島県薩摩川内市祁答院町藺牟田2153番地1", "url": "https://www.kaigokensaku.mhlw.go.jp/46/index.php?action_kouhyou_detail_004_kani=true&JigyosyoCd=4674200037-00&ServiceCd=510&Type=search", "url2": "http://tokuyou-nozomien-1974.jp" }, "geometry": { "type": "Point", "coordinates": [ 130.484694900000022, 31.8094071 ] } },
{ "type": "Feature", "properties": { "内容": "特別養護老人ホーム仁合院【介護老人福祉施設】鹿児島県薩摩川内市田崎町630番地3", "url": "https://www.kaigokensaku.mhlw.go.jp/46/index.php?action_kouhyou_detail_004_kani=true&JigyosyoCd=4671501411-00&ServiceCd=510&Type=search", "url2": "ichihuku.jp" }, "geometry": { "type": "Point", "coordinates": [ 130.329047700000046, 31.8193117 ] } },
{ "type": "Feature", "properties": { "内容": "特別養護老人ホーム　やしの実【介護老人福祉施設】勝目町4174番1特別養護老人ホームやしの実", "url": "https://www.kaigokensaku.mhlw.go.jp/46/index.php?action_kouhyou_detail_004_kani=true&JigyosyoCd=4670201047-00&ServiceCd=510&Type=search", "url2": "https://yasinomi.jp/" }, "geometry": { "type": "Point", "coordinates": [ 130.314568120207269, 31.786093088965004 ] } },
{ "type": "Feature", "properties": { "内容": "特別養護老人ホーム福和園【介護老人福祉施設】鹿児島県薩摩川内市御陵下町２９番５０号", "url": "https://www.kaigokensaku.mhlw.go.jp/46/index.php?action_kouhyou_detail_004_kani=true&JigyosyoCd=4670200171-00&ServiceCd=510&Type=search", "url2": null }, "geometry": { "type": "Point", "coordinates": [ 130.291598001188618, 31.83547050779304 ] } },
{ "type": "Feature", "properties": { "内容": "特別養護老人ホーム　白寿園【介護老人福祉施設】鹿児島県薩摩川内市中福良町2911番地1特別養護老人ホーム　白寿園", "url": "https://www.kaigokensaku.mhlw.go.jp/46/index.php?action_kouhyou_detail_004_kani=true&JigyosyoCd=4670200163-00&ServiceCd=510&Type=search", "url2": "https://hakujyuen.info" }, "geometry": { "type": "Point", "coordinates": [ 130.295061248794866, 31.78693424455254 ] } },
{ "type": "Feature", "properties": { "内容": "特別養護老人ホーム　つきみ園【介護老人福祉施設】薩摩川内市祁答院町上手５００番地８", "url": "https://www.kaigokensaku.mhlw.go.jp/46/index.php?action_kouhyou_detail_004_kani=true&JigyosyoCd=4671501395-00&ServiceCd=510&Type=search", "url2": "http://www.mikurakai.or.jp" }, "geometry": { "type": "Point", "coordinates": [ 130.5144371, 31.8671212 ] } },
{ "type": "Feature", "properties": { "内容": "特別養護老人ホーム　とうごう苑【介護老人福祉施設】薩摩川内市東郷町斧渕２５０１番地", "url": "https://www.kaigokensaku.mhlw.go.jp/46/index.php?action_kouhyou_detail_004_kani=true&JigyosyoCd=4673800035-00&ServiceCd=510&Type=search", "url2": "http://tougouen.jp" }, "geometry": { "type": "Point", "coordinates": [ 130.362974099999974, 31.857005 ] } },
{ "type": "Feature", "properties": { "内容": "特別養護老人ホーム　　翠泉苑【介護老人福祉施設】鹿児島県薩摩川内市樋脇町市比野3200番地118", "url": "https://www.kaigokensaku.mhlw.go.jp/46/index.php?action_kouhyou_detail_004_kani=true&JigyosyoCd=4673600021-00&ServiceCd=510&Type=search", "url2": "http://ichihuku.jp/index.html" }, "geometry": { "type": "Point", "coordinates": [ 130.394963599999983, 31.7870434 ] } },
{ "type": "Feature", "properties": { "内容": "特別養護老人ホームはまかぜ園【介護老人福祉施設】薩摩川内市西方町３１１１番地", "url": "https://www.kaigokensaku.mhlw.go.jp/46/index.php?action_kouhyou_detail_004_kani=true&JigyosyoCd=4670200197-00&ServiceCd=510&Type=search", "url2": "http://www.hamakazeen.com" }, "geometry": { "type": "Point", "coordinates": [ 130.234554800000069, 31.9155673 ] } },
{ "type": "Feature", "properties": { "内容": "特別養護老人ホーム　こしき園【介護老人福祉施設】鹿児島県薩摩川内市上甑町中甑1236番地特別養護老人ホーム　こしき園", "url": "https://www.kaigokensaku.mhlw.go.jp/46/index.php?action_kouhyou_detail_004_kani=true&JigyosyoCd=4674400025-00&ServiceCd=510&Type=search", "url2": null }, "geometry": { "type": "Point", "coordinates": [ 129.85945849999996, 31.8402745 ] } },
{ "type": "Feature", "properties": { "内容": "特別養護老人ホーム博愛園【介護老人福祉施設】鹿児島県薩摩川内市入来町浦之名695番地", "url": "https://www.kaigokensaku.mhlw.go.jp/46/index.php?action_kouhyou_detail_004_kani=true&JigyosyoCd=4673700037-00&ServiceCd=510&Type=search", "url2": null }, "geometry": { "type": "Point", "coordinates": [ 130.429718800000046, 31.7999405 ] } },
{ "type": "Feature", "properties": { "内容": "薩摩川内市社会福祉協議会特別養護老人ホーム甑島敬老園【介護老人福祉施設】鹿児島県薩摩川内市下甑町長浜1185番地2", "url": "https://www.kaigokensaku.mhlw.go.jp/46/index.php?action_kouhyou_detail_004_kani=true&JigyosyoCd=4670201013-00&ServiceCd=510&Type=search", "url2": null }, "geometry": { "type": "Point", "coordinates": [ 129.7389829, 31.7061877 ] } },
{ "type": "Feature", "properties": { "内容": "特別養護老人ホーム秋光園【介護老人福祉施設】東市来町長里360－1", "url": "https://www.kaigokensaku.mhlw.go.jp/46/index.php?action_kouhyou_detail_004_kani=true&JigyosyoCd=4672900067-00&ServiceCd=510&Type=search", "url2": "https://shukoen.jp/" }, "geometry": { "type": "Point", "coordinates": [ 130.348840931352242, 31.662540397846431 ] } },
{ "type": "Feature", "properties": { "内容": "寿福園【介護老人福祉施設】鹿児島県日置市伊集院町下神殿224番地2", "url": "https://www.kaigokensaku.mhlw.go.jp/46/index.php?action_kouhyou_detail_004_kani=true&JigyosyoCd=4673000032-00&ServiceCd=510&Type=search", "url2": "https://www.swc-meiwakai.or.jp" }, "geometry": { "type": "Point", "coordinates": [ 130.4158774, 31.6632167 ] } },
{ "type": "Feature", "properties": { "内容": "喜楽奈村【介護老人福祉施設】鹿児島県日置市吹上町湯之浦2781番地", "url": "https://www.kaigokensaku.mhlw.go.jp/46/index.php?action_kouhyou_detail_004_kani=true&JigyosyoCd=4673400067-00&ServiceCd=510&Type=search", "url2": "http://www.akebonofukushikai.jp/" }, "geometry": { "type": "Point", "coordinates": [ 130.371796600000039, 31.5041757 ] } },
{ "type": "Feature", "properties": { "内容": "介護老人福祉施設　やはずの里【介護老人福祉施設】鹿児島県日置市伊集院町飯牟礼369番1号", "url": "https://www.kaigokensaku.mhlw.go.jp/46/index.php?action_kouhyou_detail_004_kani=true&JigyosyoCd=4673000123-00&ServiceCd=510&Type=search", "url2": "http://www.yahazunosato.com/" }, "geometry": { "type": "Point", "coordinates": [ 130.385734899999989, 31.617968300000012 ] } },
{ "type": "Feature", "properties": { "内容": "特別養護老人ホーム青松苑【介護老人福祉施設】鹿児島県日置市伊集院町妙円寺一丁目１番地８", "url": "https://www.kaigokensaku.mhlw.go.jp/46/index.php?action_kouhyou_detail_004_kani=true&JigyosyoCd=4671501023-00&ServiceCd=510&Type=search", "url2": "https://www.seishin-kai.org/se" }, "geometry": { "type": "Point", "coordinates": [ 130.395212043074054, 31.639893853326058 ] } },
{ "type": "Feature", "properties": { "内容": "特別養護老人ホーム　おおすみ竹山園【介護老人福祉施設】鹿児島県曽於市大隅町月野１５８２番地", "url": "https://www.kaigokensaku.mhlw.go.jp/46/index.php?action_kouhyou_detail_004_kani=true&JigyosyoCd=4676300033-00&ServiceCd=510&Type=search", "url2": "https://osumikai.net" }, "geometry": { "type": "Point", "coordinates": [ 131.014100699999972, 31.5763 ] } },
{ "type": "Feature", "properties": { "内容": "特別養護老人ホーム　おおすみ苑【介護老人福祉施設】鹿児島県曽於市大隅町月野1045番地", "url": "https://www.kaigokensaku.mhlw.go.jp/46/index.php?action_kouhyou_detail_004_kani=true&JigyosyoCd=4676300157-00&ServiceCd=510&Type=search", "url2": "https://hakujyukai-kagoshima.jp" }, "geometry": { "type": "Point", "coordinates": [ 131.034373599999981, 31.5746505 ] } },
{ "type": "Feature", "properties": { "内容": "社会福祉法人　豊の里　特別養護老人ホーム　財部寿豊苑【介護老人福祉施設】鹿児島県曽於市財部町下財部2061番地1", "url": "https://www.kaigokensaku.mhlw.go.jp/46/index.php?action_kouhyou_detail_004_kani=true&JigyosyoCd=4671600585-00&ServiceCd=510&Type=search", "url2": "http//www.houei-group.or.jp" }, "geometry": { "type": "Point", "coordinates": [ 131.016319399999929, 31.7276091 ] } },
{ "type": "Feature", "properties": { "内容": "特別養護老人ホーム　たからべ園【介護老人福祉施設】鹿児島県曽於市財部町北俣７３６番地", "url": "https://www.kaigokensaku.mhlw.go.jp/46/index.php?action_kouhyou_detail_004_kani=true&JigyosyoCd=4676500053-00&ServiceCd=510&Type=search", "url2": "http://care-net.biz/46/takarabeen" }, "geometry": { "type": "Point", "coordinates": [ 130.991693, 31.7317983 ] } },
{ "type": "Feature", "properties": { "内容": "特別養護老人ホーム輪光無量寿園【介護老人福祉施設】末吉町岩崎971-1", "url": "https://www.kaigokensaku.mhlw.go.jp/46/index.php?action_kouhyou_detail_004_kani=true&JigyosyoCd=4676600036-00&ServiceCd=510&Type=search", "url2": "http://www.rinkou1964.or.jp" }, "geometry": { "type": "Point", "coordinates": [ 130.9988492, 31.5962083 ] } },
{ "type": "Feature", "properties": { "内容": "ユニット型特別養護老人ホーム輪光無量寿園【介護老人福祉施設】末吉町岩崎971-1", "url": "https://www.kaigokensaku.mhlw.go.jp/46/index.php?action_kouhyou_detail_004_kani=true&JigyosyoCd=4671600411-00&ServiceCd=510&Type=search", "url2": "http://www.rinkou1964.or.jp" }, "geometry": { "type": "Point", "coordinates": [ 130.9988492, 31.5962083 ] } },
{ "type": "Feature", "properties": { "内容": "特別養護老人ホーム翔朋園【介護老人福祉施設】霧島田口２７３７番地３６", "url": "https://www.kaigokensaku.mhlw.go.jp/46/index.php?action_kouhyou_detail_004_kani=true&JigyosyoCd=4676000047-00&ServiceCd=510&Type=search", "url2": "kirishimakai.jp" }, "geometry": { "type": "Point", "coordinates": [ 130.859527970500153, 31.841684699031948 ] } },
{ "type": "Feature", "properties": { "内容": "特別養護老人ホーム　みゆき苑【介護老人福祉施設】鹿児島県霧島市隼人町松永895番地3", "url": "https://www.kaigokensaku.mhlw.go.jp/46/index.php?action_kouhyou_detail_004_kani=true&JigyosyoCd=4676100086-00&ServiceCd=510&Type=search", "url2": "http://www.h-miyukien.info/" }, "geometry": { "type": "Point", "coordinates": [ 130.771339600000033, 31.7745791 ] } },
{ "type": "Feature", "properties": { "内容": "特別養護老人ホーム　牧之原むつみ園【介護老人福祉施設】福山町福沢4611番地", "url": "https://www.kaigokensaku.mhlw.go.jp/46/index.php?action_kouhyou_detail_004_kani=true&JigyosyoCd=4676200043-00&ServiceCd=510&Type=search", "url2": "http://www.mutumi-en.com" }, "geometry": { "type": "Point", "coordinates": [ 130.865735699999959, 31.6580864 ] } },
{ "type": "Feature", "properties": { "内容": "フラワーホームユニット【介護老人福祉施設】鹿児島県霧島市溝辺町麓6丁目4番地", "url": "https://www.kaigokensaku.mhlw.go.jp/46/index.php?action_kouhyou_detail_004_kani=true&JigyosyoCd=4671201400-00&ServiceCd=510&Type=search", "url2": "www.flowerh.jp" }, "geometry": { "type": "Point", "coordinates": [ 130.707564, 31.7919174 ] } },
{ "type": "Feature", "properties": { "内容": "特別養護老人ホーム青葉の里【介護老人福祉施設】国分郡田１５５９番地２", "url": "https://www.kaigokensaku.mhlw.go.jp/46/index.php?action_kouhyou_detail_004_kani=true&JigyosyoCd=4671200568-00&ServiceCd=510&Type=search", "url2": "https://seitenkai.jp/" }, "geometry": { "type": "Point", "coordinates": [ 130.800029699999982, 31.7584084 ] } },
{ "type": "Feature", "properties": { "内容": "特別養護老人ホーム　霧島青寿園【介護老人福祉施設】鹿児島県霧島市牧園町三体堂2003番地5", "url": "https://www.kaigokensaku.mhlw.go.jp/46/index.php?action_kouhyou_detail_004_kani=true&JigyosyoCd=4675900031-00&ServiceCd=510&Type=search", "url2": "http://www.toukeikai.jp/" }, "geometry": { "type": "Point", "coordinates": [ 130.804830199999969, 31.889999499999984 ] } },
{ "type": "Feature", "properties": { "内容": "フラワーホーム【介護老人福祉施設】鹿児島県霧島市溝辺町麓6丁目4番地", "url": "https://www.kaigokensaku.mhlw.go.jp/46/index.php?action_kouhyou_detail_004_kani=true&JigyosyoCd=4675500039-00&ServiceCd=510&Type=search", "url2": "www.flowerh.jp" }, "geometry": { "type": "Point", "coordinates": [ 130.707547299999987, 31.7919369 ] } },
{ "type": "Feature", "properties": { "内容": "特別養護老人ホーム　嘉祥園【介護老人福祉施設】鹿児島県霧島市国分清水5丁目1番49号", "url": "https://www.kaigokensaku.mhlw.go.jp/46/index.php?action_kouhyou_detail_004_kani=true&JigyosyoCd=4671200121-00&ServiceCd=510&Type=search", "url2": "https://seitenkai.jp/" }, "geometry": { "type": "Point", "coordinates": [ 130.790513799999985, 31.760386 ] } },
{ "type": "Feature", "properties": { "内容": "特別養護老人ホーム　吹上園【介護老人福祉施設】いちき串木野市大里９９２番地", "url": "https://www.kaigokensaku.mhlw.go.jp/46/index.php?action_kouhyou_detail_004_kani=true&JigyosyoCd=4672800028-00&ServiceCd=510&Type=search", "url2": "jiko-kai.or.jp" }, "geometry": { "type": "Point", "coordinates": [ 130.315606800000069, 31.6722776 ] } },
{ "type": "Feature", "properties": { "内容": "特別養護老人ホーム　潮風園【介護老人福祉施設】いちき串木野市別府３５７０番地", "url": "https://www.kaigokensaku.mhlw.go.jp/46/index.php?action_kouhyou_detail_004_kani=true&JigyosyoCd=4670500059-00&ServiceCd=510&Type=search", "url2": "http://chofuen.terushima.com" }, "geometry": { "type": "Point", "coordinates": [ 130.285035725794955, 31.696237359332063 ] } },
{ "type": "Feature", "properties": { "内容": "ファミリーイン和楽苑【介護老人福祉施設】鹿児島県南さつま市坊津町泊5756", "url": "https://www.kaigokensaku.mhlw.go.jp/46/index.php?action_kouhyou_detail_004_kani=true&JigyosyoCd=4674000155-00&ServiceCd=510&Type=search", "url2": "http://www.seishinfukushikai.jp/" }, "geometry": { "type": "Point", "coordinates": [ 130.241117, 31.2895253 ] } },
{ "type": "Feature", "properties": { "内容": "特別養護老人ホーム金峰苑【介護老人福祉施設】金峰町宮崎4019", "url": "https://www.kaigokensaku.mhlw.go.jp/46/index.php?action_kouhyou_detail_004_kani=true&JigyosyoCd=4673500023-00&ServiceCd=510&Type=search", "url2": null }, "geometry": { "type": "Point", "coordinates": [ 130.335844100000031, 31.4352288 ] } },
{ "type": "Feature", "properties": { "内容": "特別養護老人ホーム　養徳園【介護老人福祉施設】鹿児島県南さつま市加世田小湊５２８番地", "url": "https://www.kaigokensaku.mhlw.go.jp/46/index.php?action_kouhyou_detail_004_kani=true&JigyosyoCd=4671100057-00&ServiceCd=510&Type=search", "url2": "https://youtokuen.com/" }, "geometry": { "type": "Point", "coordinates": [ 130.292682748410016, 31.421193735213294 ] } },
{ "type": "Feature", "properties": { "内容": "介護老人福祉施設　アルテンハイム加世田【介護老人福祉施設】南さつま市加世田武田13877", "url": "https://www.kaigokensaku.mhlw.go.jp/46/index.php?action_kouhyou_detail_004_kani=true&JigyosyoCd=4671100065-00&ServiceCd=510&Type=search", "url2": "http://www.nonohanakai.or.jp/" }, "geometry": { "type": "Point", "coordinates": [ 130.302328100000068, 31.4014637 ] } },
{ "type": "Feature", "properties": { "内容": "いしがきのさと【介護老人福祉施設】鹿児島県南さつま市笠沙町片浦9878", "url": "https://www.kaigokensaku.mhlw.go.jp/46/index.php?action_kouhyou_detail_004_kani=true&JigyosyoCd=4672300037-00&ServiceCd=510&Type=search", "url2": "https://koujin-ayanokai.or.jp/" }, "geometry": { "type": "Point", "coordinates": [ 130.1688888, 31.4221221 ] } },
{ "type": "Feature", "properties": { "内容": "特別養護老人ホーム　金峰苑　（ユニット型）【介護老人福祉施設】鹿児島県南さつま市金峰町宮崎4019", "url": "https://www.kaigokensaku.mhlw.go.jp/46/index.php?action_kouhyou_detail_004_kani=true&JigyosyoCd=4671100529-00&ServiceCd=510&Type=search", "url2": null }, "geometry": { "type": "Point", "coordinates": [ 130.335699699999964, 31.4352538 ] } },
{ "type": "Feature", "properties": { "内容": "特別養護老人ホーム　恵風【介護老人福祉施設】鹿児島県南さつま市加世田地頭所1600番地特別養護老人ホーム　恵風", "url": "https://www.kaigokensaku.mhlw.go.jp/46/index.php?action_kouhyou_detail_004_kani=true&JigyosyoCd=4674000171-00&ServiceCd=510&Type=search", "url2": null }, "geometry": { "type": "Point", "coordinates": [ 130.3196595, 31.4238113 ] } },
{ "type": "Feature", "properties": { "内容": "特別養護老人ホーム　小松の里【介護老人福祉施設】鹿児島県志布志市有明町野井倉２００６番地１", "url": "https://www.kaigokensaku.mhlw.go.jp/46/index.php?action_kouhyou_detail_004_kani=true&JigyosyoCd=4676900048-00&ServiceCd=510&Type=search", "url2": "http:/kinseikai.jp/" }, "geometry": { "type": "Point", "coordinates": [ 131.040539299999978, 31.4969806 ] } },
{ "type": "Feature", "properties": { "内容": "やっちく【介護老人福祉施設】志布志市松山町泰野字松ヶ迫1111番地", "url": "https://www.kaigokensaku.mhlw.go.jp/46/index.php?action_kouhyou_detail_004_kani=true&JigyosyoCd=4676700034-00&ServiceCd=510&Type=search", "url2": "https://yattikukai.or.jp/" }, "geometry": { "type": "Point", "coordinates": [ 131.081460063398708, 31.574678814311785 ] } },
{ "type": "Feature", "properties": { "内容": "賀寿園【介護老人福祉施設】鹿児島県志布志市志布志町安楽2903-1", "url": "https://www.kaigokensaku.mhlw.go.jp/46/index.php?action_kouhyou_detail_004_kani=true&JigyosyoCd=4676800040-00&ServiceCd=510&Type=search", "url2": "http://www.ryuai.jp" }, "geometry": { "type": "Point", "coordinates": [ 131.087250104893457, 31.50114457965644 ] } },
{ "type": "Feature", "properties": { "内容": "特別養護老人ホーム住用の園【介護老人福祉施設】鹿児島県奄美市住用町大字摺勝字俊勝袋４５１番３特別養護老人ホーム住用の園", "url": "https://www.kaigokensaku.mhlw.go.jp/46/index.php?action_kouhyou_detail_004_kani=true&JigyosyoCd=4678700024-00&ServiceCd=510&Type=search", "url2": "http://sumiyounosono.jp/" }, "geometry": { "type": "Point", "coordinates": [ 129.44201555341192, 28.295050645626329 ] } },
{ "type": "Feature", "properties": { "内容": "特別養護老人ホーム　奄美佳南園【介護老人福祉施設】奄美市名瀬平田町７番１５号", "url": "https://www.kaigokensaku.mhlw.go.jp/46/index.php?action_kouhyou_detail_004_kani=true&JigyosyoCd=4670700121-00&ServiceCd=510&Type=search", "url2": "http://www.seirei.or.jp/elderlyhome/amami/" }, "geometry": { "type": "Point", "coordinates": [ 129.5042403, 28.3635442 ] } },
{ "type": "Feature", "properties": { "内容": "奄美佳南園（ユニット型）【介護老人福祉施設】鹿児島県奄美市名瀬平田町7番15号", "url": "https://www.kaigokensaku.mhlw.go.jp/46/index.php?action_kouhyou_detail_004_kani=true&JigyosyoCd=4670701244-00&ServiceCd=510&Type=search", "url2": "http://www.seirei.or.jp/elderlyhome/amami/" }, "geometry": { "type": "Point", "coordinates": [ 129.5042403, 28.3635442 ] } },
{ "type": "Feature", "properties": { "内容": "特別養護老人ホーム　芦穂の里【介護老人福祉施設】奄美市名瀬大字芦花部字不津1470番地", "url": "https://www.kaigokensaku.mhlw.go.jp/46/index.php?action_kouhyou_detail_004_kani=true&JigyosyoCd=4670700071-00&ServiceCd=510&Type=search", "url2": null }, "geometry": { "type": "Point", "coordinates": [ 129.54196520000005, 28.4405795 ] } },
{ "type": "Feature", "properties": { "内容": "特別養護老人ホーム笠寿園【介護老人福祉施設】奄美市笠利町節田１５９０番地", "url": "https://www.kaigokensaku.mhlw.go.jp/46/index.php?action_kouhyou_detail_004_kani=true&JigyosyoCd=4670700832-00&ServiceCd=510&Type=search", "url2": null }, "geometry": { "type": "Point", "coordinates": [ 129.6827803, 28.4131725 ] } },
{ "type": "Feature", "properties": { "内容": "特別養護老人ホーム　川辺みどり園【介護老人福祉施設】川辺町清水１０１３１－２", "url": "https://www.kaigokensaku.mhlw.go.jp/46/index.php?action_kouhyou_detail_004_kani=true&JigyosyoCd=4672700053-00&ServiceCd=510&Type=search", "url2": "https://keijin-kai.org" }, "geometry": { "type": "Point", "coordinates": [ 130.462355, 31.4326101 ] } },
{ "type": "Feature", "properties": { "内容": "憩いの里【介護老人福祉施設】鹿児島県南九州市知覧町永里４５７７番地３", "url": "https://www.kaigokensaku.mhlw.go.jp/46/index.php?action_kouhyou_detail_004_kani=true&JigyosyoCd=4672600048-00&ServiceCd=510&Type=search", "url2": "https://ikoi-chiran.com/" }, "geometry": { "type": "Point", "coordinates": [ 130.449425, 31.3684026 ] } },
{ "type": "Feature", "properties": { "内容": "特別養護老人ホーム涼松【介護老人福祉施設】鹿児島県南九州市頴娃町別府5539-1", "url": "https://www.kaigokensaku.mhlw.go.jp/46/index.php?action_kouhyou_detail_004_kani=true&JigyosyoCd=4672100072-00&ServiceCd=510&Type=search", "url2": "https://sotetsukai.com" }, "geometry": { "type": "Point", "coordinates": [ 130.427595, 31.2548201 ] } },
{ "type": "Feature", "properties": { "内容": "望洋の里【介護老人福祉施設】南九州市頴娃町牧之内３７７６番地８", "url": "https://www.kaigokensaku.mhlw.go.jp/46/index.php?action_kouhyou_detail_004_kani=true&JigyosyoCd=4672100064-00&ServiceCd=510&Type=search", "url2": "https://bouyou.synapse.kagoshima.jp/index.html" }, "geometry": { "type": "Point", "coordinates": [ 130.49473080000007, 31.2487302 ] } },
{ "type": "Feature", "properties": { "内容": "特別養護老人ホーム　音野舎【介護老人福祉施設】鹿児島県南九州市知覧町郡2072番地2", "url": "https://www.kaigokensaku.mhlw.go.jp/46/index.php?action_kouhyou_detail_004_kani=true&JigyosyoCd=4672600055-00&ServiceCd=510&Type=search", "url2": "http://www.nonnosya.com" }, "geometry": { "type": "Point", "coordinates": [ 130.432869200000027, 31.3543562 ] } },
{ "type": "Feature", "properties": { "内容": "特別養護老人ホーム　千鳥園【介護老人福祉施設】鹿児島県伊佐市菱刈徳辺２２０２番地１", "url": "https://www.kaigokensaku.mhlw.go.jp/46/index.php?action_kouhyou_detail_004_kani=true&JigyosyoCd=4675100020-00&ServiceCd=510&Type=search", "url2": "https://keimei.company-guide.jp" }, "geometry": { "type": "Point", "coordinates": [ 130.661875399999985, 32.0083423 ] } },
{ "type": "Feature", "properties": { "内容": "ことぶき園【介護老人福祉施設】鹿児島県伊佐市大口青木3023番地14", "url": "https://www.kaigokensaku.mhlw.go.jp/46/index.php?action_kouhyou_detail_004_kani=true&JigyosyoCd=4670900044-00&ServiceCd=510&Type=search", "url2": "http://www.hayahito.com/" }, "geometry": { "type": "Point", "coordinates": [ 130.633281300000021, 32.0575841 ] } },
{ "type": "Feature", "properties": { "内容": "特別養護老人ホーム大楠苑【介護老人福祉施設】姶良市蒲生町白男325番地1", "url": "https://www.kaigokensaku.mhlw.go.jp/46/index.php?action_kouhyou_detail_004_kani=true&JigyosyoCd=4675400057-00&ServiceCd=510&Type=search", "url2": "ookusuen.com" }, "geometry": { "type": "Point", "coordinates": [ 130.567120299999942, 31.7619634 ] } },
{ "type": "Feature", "properties": { "内容": "介護老人福祉施設　加治木望岳園【介護老人福祉施設】鹿児島県姶良市加治木町木田４７００番地", "url": "https://www.kaigokensaku.mhlw.go.jp/46/index.php?action_kouhyou_detail_004_kani=true&JigyosyoCd=4675200101-00&ServiceCd=510&Type=search", "url2": "http://bougakuen.jp" }, "geometry": { "type": "Point", "coordinates": [ 130.6624964, 31.7501702 ] } },
{ "type": "Feature", "properties": { "内容": "特別養護老人ホーム横川緑風園【介護老人福祉施設】西餅田806-1", "url": "https://www.kaigokensaku.mhlw.go.jp/46/index.php?action_kouhyou_detail_004_kani=true&JigyosyoCd=4675600029-00&ServiceCd=510&Type=search", "url2": "https://www.kibo-ryokufuen.com/ryokufuen" }, "geometry": { "type": "Point", "coordinates": [ 130.621952526857541, 31.728695515968042 ] } },
{ "type": "Feature", "properties": { "内容": "特別養護老人ホームマモリエあいら【介護老人福祉施設】鹿児島県姶良市平松3360番地", "url": "https://www.kaigokensaku.mhlw.go.jp/46/index.php?action_kouhyou_detail_004_kani=true&JigyosyoCd=4675300364-00&ServiceCd=510&Type=search", "url2": "http://www.qoler.jp" }, "geometry": { "type": "Point", "coordinates": [ 130.594722100000013, 31.7197646 ] } },
{ "type": "Feature", "properties": { "内容": "特別養護老人ホームやすらぎの里【介護老人福祉施設】鹿児島県姶良市下名2992番地", "url": "https://www.kaigokensaku.mhlw.go.jp/46/index.php?action_kouhyou_detail_004_kani=true&JigyosyoCd=4674500865-00&ServiceCd=510&Type=search", "url2": "https://www.aira-yasuragi.com/" }, "geometry": { "type": "Point", "coordinates": [ 130.6190958, 31.7676758 ] } },
{ "type": "Feature", "properties": { "内容": "特別養護老人ホームアルテンハイム鶴宮園【介護老人福祉施設】鹿児島県薩摩郡さつま町紫尾字下ノ原4077-1", "url": "https://www.kaigokensaku.mhlw.go.jp/46/index.php?action_kouhyou_detail_004_kani=true&JigyosyoCd=4674000049-00&ServiceCd=510&Type=search", "url2": "tsurumiyaen.jp/" }, "geometry": { "type": "Point", "coordinates": [ 130.434928, 31.950887 ] } },
{ "type": "Feature", "properties": { "内容": "さつま園【介護老人福祉施設】鹿児島県薩摩郡さつま町求名１３３４１番地１", "url": "https://www.kaigokensaku.mhlw.go.jp/46/index.php?action_kouhyou_detail_004_kani=true&JigyosyoCd=4674100047-00&ServiceCd=510&Type=search", "url2": "http://www.satsumaen.jp/" }, "geometry": { "type": "Point", "coordinates": [ 130.536606200000051, 31.9176492 ] } },
{ "type": "Feature", "properties": { "内容": "特別養護老人ホームマモリエ【介護老人福祉施設】船木２３１５－１", "url": "https://www.kaigokensaku.mhlw.go.jp/46/index.php?action_kouhyou_detail_004_kani=true&JigyosyoCd=4673900058-00&ServiceCd=510&Type=search", "url2": "http://www.qoler.jp" }, "geometry": { "type": "Point", "coordinates": [ 130.440326300000038, 31.8739155 ] } },
{ "type": "Feature", "properties": { "内容": "特別養護老人ホーム桃源郷【介護老人福祉施設】鹿児島県出水郡長島町鷹巣740番地2", "url": "https://www.kaigokensaku.mhlw.go.jp/46/index.php?action_kouhyou_detail_004_kani=true&JigyosyoCd=4674900024-00&ServiceCd=510&Type=search", "url2": null }, "geometry": { "type": "Point", "coordinates": [ 130.179571500000065, 32.196458200000016 ] } },
{ "type": "Feature", "properties": { "内容": "特別養護老人ホームあかね園【介護老人福祉施設】鹿児島県出水郡長島町城川内2331-8", "url": "https://www.kaigokensaku.mhlw.go.jp/46/index.php?action_kouhyou_detail_004_kani=true&JigyosyoCd=4675000014-00&ServiceCd=510&Type=search", "url2": null }, "geometry": { "type": "Point", "coordinates": [ 130.1192863, 32.1199304 ] } },
{ "type": "Feature", "properties": { "内容": "特別養護老人ホームグリーン光芳【介護老人福祉施設】鹿児島県姶良郡湧水町米永２３８７番地", "url": "https://www.kaigokensaku.mhlw.go.jp/46/index.php?action_kouhyou_detail_004_kani=true&JigyosyoCd=4675700019-00&ServiceCd=510&Type=search", "url2": "http://greenkouhouyusui.ec-net.jp/" }, "geometry": { "type": "Point", "coordinates": [ 130.721105800000032, 31.9252629 ] } },
{ "type": "Feature", "properties": { "内容": "特別養護老人ホームつつはの園【介護老人福祉施設】姶良郡湧水町般若寺358番地", "url": "https://www.kaigokensaku.mhlw.go.jp/46/index.php?action_kouhyou_detail_004_kani=true&JigyosyoCd=4675800033-00&ServiceCd=510&Type=search", "url2": null }, "geometry": { "type": "Point", "coordinates": [ 130.74432980000006, 32.0394372 ] } },
{ "type": "Feature", "properties": { "内容": "特別養護老人ホーム回生園【介護老人福祉施設】鹿児島県曽於郡大崎町菱田家戸原3063番地", "url": "https://www.kaigokensaku.mhlw.go.jp/46/index.php?action_kouhyou_detail_004_kani=true&JigyosyoCd=4677000020-00&ServiceCd=510&Type=search", "url2": "http://www.kaiseien-sanpokai.jp/" }, "geometry": { "type": "Point", "coordinates": [ 131.021413323968318, 31.453533953233563 ] } },
{ "type": "Feature", "properties": { "内容": "介護老人福祉施設ルーピンの里【介護老人福祉施設】鹿児島県肝属郡東串良町池之原２０７７番地１", "url": "https://www.kaigokensaku.mhlw.go.jp/46/index.php?action_kouhyou_detail_004_kani=true&JigyosyoCd=4677200059-00&ServiceCd=510&Type=search", "url2": "http://www.ru-pin.jp" }, "geometry": { "type": "Point", "coordinates": [ 130.978752500000041, 31.3941942 ] } },
{ "type": "Feature", "properties": { "内容": "介護老人福祉施設ルーピンの里(ユニット型）【介護老人福祉施設】鹿児島県肝属郡東串良町池之原２０７７－１", "url": "https://www.kaigokensaku.mhlw.go.jp/46/index.php?action_kouhyou_detail_004_kani=true&JigyosyoCd=4677200265-00&ServiceCd=510&Type=search", "url2": "http://www.ru-pin.jp" }, "geometry": { "type": "Point", "coordinates": [ 130.978752500000041, 31.3941942 ] } },
{ "type": "Feature", "properties": { "内容": "特別養護老人ホーム南松園【介護老人福祉施設】肝属郡錦江町田代川原369番地", "url": "https://www.kaigokensaku.mhlw.go.jp/46/index.php?action_kouhyou_detail_004_kani=true&JigyosyoCd=4677800031-00&ServiceCd=510&Type=search", "url2": "http://nansyouen.jp" }, "geometry": { "type": "Point", "coordinates": [ 130.835848700000042, 31.1905602 ] } },
{ "type": "Feature", "properties": { "内容": "特別養護老人ホーム青山荘【介護老人福祉施設】鹿児島県肝属郡錦江町城元３７２４－１", "url": "https://www.kaigokensaku.mhlw.go.jp/46/index.php?action_kouhyou_detail_004_kani=true&JigyosyoCd=4677600043-00&ServiceCd=510&Type=search", "url2": "http://www.k-seizanso.jp" }, "geometry": { "type": "Point", "coordinates": [ 130.809057199999984, 31.2535296 ] } },
{ "type": "Feature", "properties": { "内容": "特別養護老人ホーム　蒼水園【介護老人福祉施設】鹿児島県肝属郡南大隅町根占山本1250-1", "url": "https://www.kaigokensaku.mhlw.go.jp/46/index.php?action_kouhyou_detail_004_kani=true&JigyosyoCd=4677700066-00&ServiceCd=510&Type=search", "url2": "https://sousuien.org" }, "geometry": { "type": "Point", "coordinates": [ 130.774892099999988, 31.203528 ] } },
{ "type": "Feature", "properties": { "内容": "特別養護老人ホーム銀河の里【介護老人福祉施設】北方５８８番地", "url": "https://www.kaigokensaku.mhlw.go.jp/46/index.php?action_kouhyou_detail_004_kani=true&JigyosyoCd=4677300024-00&ServiceCd=510&Type=search", "url2": "ginganosato@po5.synapse.ne.jp" }, "geometry": { "type": "Point", "coordinates": [ 131.0551279, 31.2791437 ] } },
{ "type": "Feature", "properties": { "内容": "花神荘【介護老人福祉施設】肝属郡肝付町後田５３７５番地", "url": "https://www.kaigokensaku.mhlw.go.jp/46/index.php?action_kouhyou_detail_004_kani=true&JigyosyoCd=4677400063-00&ServiceCd=510&Type=search", "url2": null }, "geometry": { "type": "Point", "coordinates": [ 130.92187, 31.3327513 ] } },
{ "type": "Feature", "properties": { "内容": "特別養護老人ホーム　南界園【介護老人福祉施設】熊毛郡中種子町田島327-1", "url": "https://www.kaigokensaku.mhlw.go.jp/46/index.php?action_kouhyou_detail_004_kani=true&JigyosyoCd=4678000029-00&ServiceCd=510&Type=search", "url2": "https://nankaien.jiaikai-k.or.jp/rojinhome" }, "geometry": { "type": "Point", "coordinates": [ 130.940920600000027, 30.4812014 ] } },
{ "type": "Feature", "properties": { "内容": "特別養護老人ホーム　芙蓉苑【介護老人福祉施設】中之上1702-4鹿児島県南種子町中之上1702-4", "url": "https://www.kaigokensaku.mhlw.go.jp/46/index.php?action_kouhyou_detail_004_kani=true&JigyosyoCd=4678100027-00&ServiceCd=510&Type=search", "url2": "kofu-fuyo@oregano.ocn.ne.jp" }, "geometry": { "type": "Point", "coordinates": [ 130.913335299999972, 30.4361034 ] } },
{ "type": "Feature", "properties": { "内容": "特別養護老人ホーム　竜天園【介護老人福祉施設】鹿児島県熊毛郡屋久島町船行1068番地3", "url": "https://www.kaigokensaku.mhlw.go.jp/46/index.php?action_kouhyou_detail_004_kani=true&JigyosyoCd=4678300031-00&ServiceCd=510&Type=search", "url2": null }, "geometry": { "type": "Point", "coordinates": [ 130.654675445496309, 30.343906477927725 ] } },
{ "type": "Feature", "properties": { "内容": "特別養護老人ホ－ム　縄文の郷【介護老人福祉施設】鹿児島県熊毛郡屋久島町宮之浦2458番地2", "url": "https://www.kaigokensaku.mhlw.go.jp/46/index.php?action_kouhyou_detail_004_kani=true&JigyosyoCd=4678200033-00&ServiceCd=510&Type=search", "url2": "ai-jyo@wonder.ocn.ne.jp" }, "geometry": { "type": "Point", "coordinates": [ 130.586522100000025, 30.4169355 ] } },
{ "type": "Feature", "properties": { "内容": "大和村立特別養護老人ホーム大和の園【介護老人福祉施設】鹿児島県大島郡大和村戸円1903番地", "url": "https://www.kaigokensaku.mhlw.go.jp/46/index.php?action_kouhyou_detail_004_kani=true&JigyosyoCd=4678400021-00&ServiceCd=510&Type=search", "url2": "http://www.vill.yamato.lg.jp/" }, "geometry": { "type": "Point", "coordinates": [ 129.314916899999957, 28.3473239 ] } },
{ "type": "Feature", "properties": { "内容": "特別養護老人ホーム　虹の園【介護老人福祉施設】鹿児島県大島郡宇検村字美長良須古2番地4", "url": "https://www.kaigokensaku.mhlw.go.jp/46/index.php?action_kouhyou_detail_004_kani=true&JigyosyoCd=4678500036-00&ServiceCd=510&Type=search", "url2": "https://nijinosono.info/" }, "geometry": { "type": "Point", "coordinates": [ 129.298626523556521, 28.2718401659119 ] } },
{ "type": "Feature", "properties": { "内容": "介護老人福祉施設　奄美の園【介護老人福祉施設】鹿児島県大島群瀬戸内町古仁屋１２８３ー２７介護老人福祉施設　奄美の園", "url": "https://www.kaigokensaku.mhlw.go.jp/46/index.php?action_kouhyou_detail_004_kani=true&JigyosyoCd=4678600042-00&ServiceCd=510&Type=search", "url2": "www.amaminosono.jp/" }, "geometry": { "type": "Point", "coordinates": [ 129.3207023, 28.1382471 ] } },
{ "type": "Feature", "properties": { "内容": "特別養護老人ホーム　加計呂麻園【介護老人福祉施設】鹿児島県大島郡瀬戸内町伊子茂187番地1", "url": "https://www.kaigokensaku.mhlw.go.jp/46/index.php?action_kouhyou_detail_004_kani=true&JigyosyoCd=4678600075-00&ServiceCd=510&Type=search", "url2": "http://www.kakeromaen.jp" }, "geometry": { "type": "Point", "coordinates": [ 129.243878, 28.1085957 ] } },
{ "type": "Feature", "properties": { "内容": "特別養護老人ホーム愛寿園【介護老人福祉施設】鹿児島県大島郡龍郷町浦1874番地", "url": "https://www.kaigokensaku.mhlw.go.jp/46/index.php?action_kouhyou_detail_004_kani=true&JigyosyoCd=4678800048-00&ServiceCd=510&Type=search", "url2": "ryusenkai.org" }, "geometry": { "type": "Point", "coordinates": [ 129.595450699999986, 28.4122002 ] } },
{ "type": "Feature", "properties": { "内容": "特別養護老人ホーム　龍郷の里【介護老人福祉施設】大島群龍郷町嘉渡787", "url": "https://www.kaigokensaku.mhlw.go.jp/46/index.php?action_kouhyou_detail_004_kani=true&JigyosyoCd=4678800220-00&ServiceCd=510&Type=search", "url2": "http://ryofu-kai.com/" }, "geometry": { "type": "Point", "coordinates": [ 129.56826, 28.4522129 ] } },
{ "type": "Feature", "properties": { "内容": "特別養護老人ホームオアシスケア喜界【介護老人福祉施設】鹿児島県大島郡喜界町大字赤連69番", "url": "https://www.kaigokensaku.mhlw.go.jp/46/index.php?action_kouhyou_detail_004_kani=true&JigyosyoCd=4679000200-00&ServiceCd=510&Type=search", "url2": "http：//johsei.org/" }, "geometry": { "type": "Point", "coordinates": [ 129.94254849999993, 28.3182504 ] } },
{ "type": "Feature", "properties": { "内容": "特別養護老人ホーム南風園【介護老人福祉施設】鹿児島県大島郡徳之島町花徳６２０番地", "url": "https://www.kaigokensaku.mhlw.go.jp/46/index.php?action_kouhyou_detail_004_kani=true&JigyosyoCd=4679100109-00&ServiceCd=510&Type=search", "url2": "https://www.nanpuuen.org/" }, "geometry": { "type": "Point", "coordinates": [ 128.9661946, 27.8198466 ] } },
{ "type": "Feature", "properties": { "内容": "特別養護老人ホーム徳寿園【介護老人福祉施設】鹿児島県大島郡徳之島町亀津５５４６番地１", "url": "https://www.kaigokensaku.mhlw.go.jp/46/index.php?action_kouhyou_detail_004_kani=true&JigyosyoCd=4679100224-00&ServiceCd=510&Type=search", "url2": "https://kiyoto900021.wixsite.com/mysite" }, "geometry": { "type": "Point", "coordinates": [ 129.005476272739543, 27.721565317117086 ] } },
{ "type": "Feature", "properties": { "内容": "特別養護老人ホーム　天寿園【介護老人福祉施設】鹿児島県大島郡天城町松原784-4", "url": "https://www.kaigokensaku.mhlw.go.jp/46/index.php?action_kouhyou_detail_004_kani=true&JigyosyoCd=4679200057-00&ServiceCd=510&Type=search", "url2": "https://www.tenjuen.jp/" }, "geometry": { "type": "Point", "coordinates": [ 128.907101799999964, 27.865597 ] } },
{ "type": "Feature", "properties": { "内容": "特別養護老人ホーム仙寿の里【介護老人福祉施設】伊仙２５７１番地", "url": "https://www.kaigokensaku.mhlw.go.jp/46/index.php?action_kouhyou_detail_004_kani=true&JigyosyoCd=4679300089-00&ServiceCd=510&Type=search", "url2": "http://www.t2.toku-vision.com/~isenn/" }, "geometry": { "type": "Point", "coordinates": [ 128.934631599999989, 27.6724225 ] } },
{ "type": "Feature", "properties": { "内容": "しらゆりの園【介護老人福祉施設】鹿児島県大島郡和泊町手々知名７８１番地", "url": "https://www.kaigokensaku.mhlw.go.jp/46/index.php?action_kouhyou_detail_004_kani=true&JigyosyoCd=4679400020-00&ServiceCd=510&Type=search", "url2": "http://kagoshimakuroshiokai.jp/sirayurinosono/" }, "geometry": { "type": "Point", "coordinates": [ 128.654155400000036, 27.4014195 ] } },
{ "type": "Feature", "properties": { "内容": "特別養護老人ホームさくら園【介護老人福祉施設】鹿児島県大島郡知名町知名1952-1", "url": "https://www.kaigokensaku.mhlw.go.jp/46/index.php?action_kouhyou_detail_004_kani=true&JigyosyoCd=4679500043-00&ServiceCd=510&Type=search", "url2": null }, "geometry": { "type": "Point", "coordinates": [ 128.562900600000035, 27.3342422 ] } },
{ "type": "Feature", "properties": { "内容": "特別養護老人ホームヨロン園【介護老人福祉施設】茶花2179番地", "url": "https://www.kaigokensaku.mhlw.go.jp/46/index.php?action_kouhyou_detail_004_kani=true&JigyosyoCd=4679600025-00&ServiceCd=510&Type=search", "url2": "https：//www.yoronen-kouyokai.org" }, "geometry": { "type": "Point", "coordinates": [ 128.4158155, 27.04901 ] } }
]
}
