{
"type": "FeatureCollection",
"name": "geo_46_地域密着型特定施設入居者生活介護（有料老人ホーム）",
"crs": { "type": "name", "properties": { "name": "urn:ogc:def:crs:OGC:1.3:CRS84" } },
"features": [
{ "type": "Feature", "properties": { "内容": "有限会社　幸和【地域密着型特定施設入居者生活介護（有料老人ホーム）】鹿児島市真砂本町6番17号", "url": "https://www.kaigokensaku.mhlw.go.jp/46/index.php?action_kouhyou_detail_004_kani=true&JigyosyoCd=4690100062-00&ServiceCd=361&Type=search", "url2": "http://kouwagroup.com/kouwa" }, "geometry": { "type": "Point", "coordinates": [ 130.551697900000022, 31.5565134 ] } },
{ "type": "Feature", "properties": { "内容": "介護付有料老人ホーム秋桜苑【地域密着型特定施設入居者生活介護（有料老人ホーム）】鹿児島県鹿屋市串良町下小原3100-2", "url": "https://www.kaigokensaku.mhlw.go.jp/46/index.php?action_kouhyou_detail_004_kani=true&JigyosyoCd=4690300167-00&ServiceCd=361&Type=search", "url2": "http://iwakikai.org" }, "geometry": { "type": "Point", "coordinates": [ 130.93131429999994, 31.3967289 ] } },
{ "type": "Feature", "properties": { "内容": "プライエボーリ優花里【地域密着型特定施設入居者生活介護（有料老人ホーム）】鹿屋市花岡町6265番地", "url": "https://www.kaigokensaku.mhlw.go.jp/46/index.php?action_kouhyou_detail_004_kani=true&JigyosyoCd=4690300191-00&ServiceCd=361&Type=search", "url2": ":http://www.kanoya-choujuen.jp/" }, "geometry": { "type": "Point", "coordinates": [ 130.772301199999987, 31.4150523 ] } },
{ "type": "Feature", "properties": { "内容": "介護付有料老人ホームいずみ【地域密着型特定施設入居者生活介護（有料老人ホーム）】鹿児島県出水市境町1840番地1号", "url": "https://www.kaigokensaku.mhlw.go.jp/46/index.php?action_kouhyou_detail_004_kani=true&JigyosyoCd=4690800026-00&ServiceCd=361&Type=search", "url2": "http://ikkoushoji.com/" }, "geometry": { "type": "Point", "coordinates": [ 130.360545199999933, 32.166480900000018 ] } },
{ "type": "Feature", "properties": { "内容": "有料老人ホーム　龍樹【地域密着型特定施設入居者生活介護（有料老人ホーム）】鹿児島県曽於市末吉町諏訪方1964番地3", "url": "https://www.kaigokensaku.mhlw.go.jp/46/index.php?action_kouhyou_detail_004_kani=true&JigyosyoCd=4691600193-00&ServiceCd=361&Type=search", "url2": "http://kasagi.pupu.jp/ryujyu/" }, "geometry": { "type": "Point", "coordinates": [ 130.955177057875943, 31.664036465552947 ] } },
{ "type": "Feature", "properties": { "内容": "有料老人ホーム　しおさい【地域密着型特定施設入居者生活介護（有料老人ホーム）】鹿児島県志布志市志布志町志布志二丁目28番13号", "url": "https://www.kaigokensaku.mhlw.go.jp/46/index.php?action_kouhyou_detail_004_kani=true&JigyosyoCd=4691700027-00&ServiceCd=361&Type=search", "url2": "http://www.sayuukai.or.jp/kyouyuukai/" }, "geometry": { "type": "Point", "coordinates": [ 131.099783399999978, 31.4736001 ] } },
{ "type": "Feature", "properties": { "内容": "びろうの樹　山重【地域密着型特定施設入居者生活介護（有料老人ホーム）】有明町山重10793-1", "url": "https://www.kaigokensaku.mhlw.go.jp/46/index.php?action_kouhyou_detail_004_kani=true&JigyosyoCd=4691700068-00&ServiceCd=361&Type=search", "url2": "yamasige@birounoki.com" }, "geometry": { "type": "Point", "coordinates": [ 130.984748690213024, 31.523957745058745 ] } },
{ "type": "Feature", "properties": { "内容": "介護付き有料老人ホーム　エコルたちお野【地域密着型特定施設入居者生活介護（有料老人ホーム）】鹿児島県曽於郡大崎町野方1915", "url": "https://www.kaigokensaku.mhlw.go.jp/46/index.php?action_kouhyou_detail_004_kani=true&JigyosyoCd=4697000026-00&ServiceCd=361&Type=search", "url2": "https://www.reishinkai" }, "geometry": { "type": "Point", "coordinates": [ 130.919709499999954, 31.4701599 ] } },
{ "type": "Feature", "properties": { "内容": "医療法人徳洲会加計呂麻徳洲会有料老人ホームゆうたけ【地域密着型特定施設入居者生活介護（有料老人ホーム）】大字瀬相７４７番地１", "url": "https://www.kaigokensaku.mhlw.go.jp/46/index.php?action_kouhyou_detail_004_kani=true&JigyosyoCd=4698600030-00&ServiceCd=361&Type=search", "url2": "mytown.s500.jp/yuutake1/" }, "geometry": { "type": "Point", "coordinates": [ 129.24625489999994, 28.1217116 ] } },
{ "type": "Feature", "properties": { "内容": "かいごつきゆうりょうろうじんほーむはくじゅえん【地域密着型特定施設入居者生活介護（有料老人ホーム）】鹿児島県大島郡徳之島町亀津字白久5350番地", "url": "https://www.kaigokensaku.mhlw.go.jp/46/index.php?action_kouhyou_detail_004_kani=true&JigyosyoCd=4699100014-00&ServiceCd=361&Type=search", "url2": null }, "geometry": { "type": "Point", "coordinates": [ 129.015219915943931, 27.717489753525896 ] } },
{ "type": "Feature", "properties": { "内容": "有料老人ホームさみどり苑【地域密着型特定施設入居者生活介護（有料老人ホーム）】鹿児島県大島郡伊仙町伊仙3335-1", "url": "https://www.kaigokensaku.mhlw.go.jp/46/index.php?action_kouhyou_detail_004_kani=true&JigyosyoCd=4699300028-00&ServiceCd=361&Type=search", "url2": null }, "geometry": { "type": "Point", "coordinates": [ 128.930925461377001, 27.676240786938106 ] } },
{ "type": "Feature", "properties": { "内容": "㈱ヘルスネット　徳洲会　有料老人ホーム　しおほしの里【地域密着型特定施設入居者生活介護（有料老人ホーム）】鹿児島県大島郡和泊町国頭2300番地", "url": "https://www.kaigokensaku.mhlw.go.jp/46/index.php?action_kouhyou_detail_004_kani=true&JigyosyoCd=4699400018-00&ServiceCd=361&Type=search", "url2": "sofia-international.jinndo.com/" }, "geometry": { "type": "Point", "coordinates": [ 128.682996499999945, 27.4267119 ] } }
]
}
