{
"type": "FeatureCollection",
"name": "geo_46_訪問看護",
"crs": { "type": "name", "properties": { "name": "urn:ogc:def:crs:OGC:1.3:CRS84" } },
"features": [
{ "type": "Feature", "properties": { "内容": "訪問看護ステーション　いろどり【訪問看護】鹿児島県鹿児島市上荒田町3-1第2NTビル303", "url": "https://www.kaigokensaku.mhlw.go.jp/46/index.php?action_kouhyou_detail_004_kani=true&JigyosyoCd=4660190903-00&ServiceCd=130&Type=search", "url2": "http://irodori-station.com/" }, "geometry": { "type": "Point", "coordinates": [ 130.542853299999933, 31.5784192 ] } },
{ "type": "Feature", "properties": { "内容": "訪問看護かえりえ山之口【訪問看護】鹿児島県鹿児島市山之口町6-10国東内科2階", "url": "https://www.kaigokensaku.mhlw.go.jp/46/index.php?action_kouhyou_detail_004_kani=true&JigyosyoCd=4660191083-00&ServiceCd=130&Type=search", "url2": null }, "geometry": { "type": "Point", "coordinates": [ 130.553619600000047, 31.5870905 ] } },
{ "type": "Feature", "properties": { "内容": "愛仁会訪問看護ステーション【訪問看護】鹿児島市伊敷一丁目３番１０号３０５号", "url": "https://www.kaigokensaku.mhlw.go.jp/46/index.php?action_kouhyou_detail_004_kani=true&JigyosyoCd=4660190077-00&ServiceCd=130&Type=search", "url2": null }, "geometry": { "type": "Point", "coordinates": [ 130.528053, 31.61643990000001 ] } },
{ "type": "Feature", "properties": { "内容": "訪問看護ステーション　オルタナ【訪問看護】鹿児島県鹿児島市草牟田二丁目17－17ヒューマングロース　６F", "url": "https://www.kaigokensaku.mhlw.go.jp/46/index.php?action_kouhyou_detail_004_kani=true&JigyosyoCd=4660190697-00&ServiceCd=130&Type=search", "url2": "http://www.hcd.co.jp/" }, "geometry": { "type": "Point", "coordinates": [ 130.5387306, 31.602805 ] } },
{ "type": "Feature", "properties": { "内容": "訪問看護ステーション　希喜【訪問看護】田上7丁目35番7号エルレープｆ", "url": "https://www.kaigokensaku.mhlw.go.jp/46/index.php?action_kouhyou_detail_004_kani=true&JigyosyoCd=4660191455-00&ServiceCd=130&Type=search", "url2": "https://houmonkango-kiki.com/" }, "geometry": { "type": "Point", "coordinates": [ 130.523071566589408, 31.582372091311832 ] } },
{ "type": "Feature", "properties": { "内容": "訪問看護ステーションつばきケア【訪問看護】鹿児島県鹿児島市鴨池2-19-2-209", "url": "https://www.kaigokensaku.mhlw.go.jp/46/index.php?action_kouhyou_detail_004_kani=true&JigyosyoCd=4660191117-00&ServiceCd=130&Type=search", "url2": null }, "geometry": { "type": "Point", "coordinates": [ 130.551203900000019, 31.5658234 ] } },
{ "type": "Feature", "properties": { "内容": "訪問看護ステーションわきだ【訪問看護】宇宿3丁目16-17サンパール　3F", "url": "https://www.kaigokensaku.mhlw.go.jp/46/index.php?action_kouhyou_detail_004_kani=true&JigyosyoCd=4660190556-00&ServiceCd=130&Type=search", "url2": null }, "geometry": { "type": "Point", "coordinates": [ 130.539563844545, 31.542637754222937 ] } },
{ "type": "Feature", "properties": { "内容": "訪問看護ステーション鈴の音【訪問看護】鹿児島県鹿児島市魚見町125-12ﾌﾟﾛﾇｰﾌﾞY101", "url": "https://www.kaigokensaku.mhlw.go.jp/46/index.php?action_kouhyou_detail_004_kani=true&JigyosyoCd=4660190838-00&ServiceCd=130&Type=search", "url2": "http://www.suzune-houkan.co.jp/" }, "geometry": { "type": "Point", "coordinates": [ 130.521613079865574, 31.541414592936704 ] } },
{ "type": "Feature", "properties": { "内容": "訪問看護かえりえ宇宿【訪問看護】鹿児島県鹿児島市宇宿３丁目１番１号カワイビル２階", "url": "https://www.kaigokensaku.mhlw.go.jp/46/index.php?action_kouhyou_detail_004_kani=true&JigyosyoCd=4660191000-00&ServiceCd=130&Type=search", "url2": "http://www.yasashiite.com/subdomains/section/511/" }, "geometry": { "type": "Point", "coordinates": [ 130.537291200000027, 31.544781 ] } },
{ "type": "Feature", "properties": { "内容": "訪問看護ステーション「節愛」【訪問看護】鹿児島県鹿児島市鴨池1丁目64番6号かもいけみらいの森3F", "url": "https://www.kaigokensaku.mhlw.go.jp/46/index.php?action_kouhyou_detail_004_kani=true&JigyosyoCd=4660191364-00&ServiceCd=130&Type=search", "url2": "https://setsueikai.com/setsuai/" }, "geometry": { "type": "Point", "coordinates": [ 130.546003642683417, 31.565058368633355 ] } },
{ "type": "Feature", "properties": { "内容": "訪問看護ステーション　オアシスケア【訪問看護】鹿児島県鹿児島市吉野町8794－1", "url": "https://www.kaigokensaku.mhlw.go.jp/46/index.php?action_kouhyou_detail_004_kani=true&JigyosyoCd=4660190820-00&ServiceCd=130&Type=search", "url2": "http://oasiscare.jp" }, "geometry": { "type": "Point", "coordinates": [ 130.577275793392914, 31.635975765623865 ] } },
{ "type": "Feature", "properties": { "内容": "訪問看護ステーション真心【訪問看護】鹿児島県鹿児島市伊敷4丁目10番地１号", "url": "https://www.kaigokensaku.mhlw.go.jp/46/index.php?action_kouhyou_detail_004_kani=true&JigyosyoCd=4660191588-00&ServiceCd=130&Type=search", "url2": null }, "geometry": { "type": "Point", "coordinates": [ 130.534133099999963, 31.632745199999977 ] } },
{ "type": "Feature", "properties": { "内容": "訪問看護ステーションよつば【訪問看護】鹿児島県鹿児島市清水町15-12", "url": "https://www.kaigokensaku.mhlw.go.jp/46/index.php?action_kouhyou_detail_004_kani=true&JigyosyoCd=4660191067-00&ServiceCd=130&Type=search", "url2": null }, "geometry": { "type": "Point", "coordinates": [ 130.567717025222805, 31.607987074956313 ] } },
{ "type": "Feature", "properties": { "内容": "訪問看護ステーションこすもす【訪問看護】鹿児島県鹿児島市春山町1035番地1ドゥメゾンRaRa103号室", "url": "https://www.kaigokensaku.mhlw.go.jp/46/index.php?action_kouhyou_detail_004_kani=true&JigyosyoCd=4660191570-00&ServiceCd=130&Type=search", "url2": null }, "geometry": { "type": "Point", "coordinates": [ 130.4549551, 31.5778636 ] } },
{ "type": "Feature", "properties": { "内容": "訪問看護ステーション　せせらぎの里鹿児島南【訪問看護】東谷山2-5-8", "url": "https://www.kaigokensaku.mhlw.go.jp/46/index.php?action_kouhyou_detail_004_kani=true&JigyosyoCd=4660190945-00&ServiceCd=130&Type=search", "url2": "http://www.seseragi-minami.jp" }, "geometry": { "type": "Point", "coordinates": [ 130.524418100000048, 31.5309854 ] } },
{ "type": "Feature", "properties": { "内容": "訪問看護ステーションあさがお【訪問看護】鹿児島県鹿児島市谷山中央2丁目4119-23　法人事務所2階", "url": "https://www.kaigokensaku.mhlw.go.jp/46/index.php?action_kouhyou_detail_004_kani=true&JigyosyoCd=4660191224-00&ServiceCd=130&Type=search", "url2": "https://senjukai.net/" }, "geometry": { "type": "Point", "coordinates": [ 130.5214774, 31.5270449 ] } },
{ "type": "Feature", "properties": { "内容": "訪問看護ステーションウェルカム【訪問看護】西伊敷1丁目29-5", "url": "https://www.kaigokensaku.mhlw.go.jp/46/index.php?action_kouhyou_detail_004_kani=true&JigyosyoCd=4660190770-00&ServiceCd=130&Type=search", "url2": "http://welcome-kagoshima.com/" }, "geometry": { "type": "Point", "coordinates": [ 130.529720044783289, 31.633015569486538 ] } },
{ "type": "Feature", "properties": { "内容": "訪問看護さくら【訪問看護】南郡元町２４－１５", "url": "https://www.kaigokensaku.mhlw.go.jp/46/index.php?action_kouhyou_detail_004_kani=true&JigyosyoCd=4660190960-00&ServiceCd=130&Type=search", "url2": "http://www.nissyoukai.or.jp" }, "geometry": { "type": "Point", "coordinates": [ 130.54415419999998, 31.5524303 ] } },
{ "type": "Feature", "properties": { "内容": "訪問看護ステーション　よいやんせ【訪問看護】鹿児島県鹿児島市山田町326-1-1F", "url": "https://www.kaigokensaku.mhlw.go.jp/46/index.php?action_kouhyou_detail_004_kani=true&JigyosyoCd=4660191307-00&ServiceCd=130&Type=search", "url2": "https://ueharaclinic/jp" }, "geometry": { "type": "Point", "coordinates": [ 130.504485499999987, 31.5527733 ] } },
{ "type": "Feature", "properties": { "内容": "訪問看護ステーション　寿康園【訪問看護】鹿児島県鹿児島市本名町234番地", "url": "https://www.kaigokensaku.mhlw.go.jp/46/index.php?action_kouhyou_detail_004_kani=true&JigyosyoCd=4660190762-00&ServiceCd=130&Type=search", "url2": "http://jukouen.jp/" }, "geometry": { "type": "Point", "coordinates": [ 130.546962500000063, 31.6949303 ] } },
{ "type": "Feature", "properties": { "内容": "訪問看護ステーション叶【訪問看護】鹿児島県鹿児島市紫原3丁目31-10れいめい壱番館紫原", "url": "https://www.kaigokensaku.mhlw.go.jp/46/index.php?action_kouhyou_detail_004_kani=true&JigyosyoCd=4660191232-00&ServiceCd=130&Type=search", "url2": "http://www.hwyuu.com/" }, "geometry": { "type": "Point", "coordinates": [ 130.536975537434358, 31.552035027839832 ] } },
{ "type": "Feature", "properties": { "内容": "公益社団法人　昭和会　上町いまきいれ病院【訪問看護】鹿児島市長田町５番２４号上町いまきいれ病院", "url": "https://www.kaigokensaku.mhlw.go.jp/46/index.php?action_kouhyou_detail_004_kani=true&JigyosyoCd=4610112072-00&ServiceCd=130&Type=search", "url2": "https://imakiire.jp/kanmachi/" }, "geometry": { "type": "Point", "coordinates": [ 130.558743098147602, 31.602474064593157 ] } },
{ "type": "Feature", "properties": { "内容": "平和会訪問看護ステーション【訪問看護】鹿児島県鹿児島市紫原7丁目18-28", "url": "https://www.kaigokensaku.mhlw.go.jp/46/index.php?action_kouhyou_detail_004_kani=true&JigyosyoCd=4660190739-00&ServiceCd=130&Type=search", "url2": "https://heiwakaihoukan.jp/" }, "geometry": { "type": "Point", "coordinates": [ 130.525257472481911, 31.567400296058771 ] } },
{ "type": "Feature", "properties": { "内容": "訪問看護ステーション　林【訪問看護】鹿児島市武2丁目47-7", "url": "https://www.kaigokensaku.mhlw.go.jp/46/index.php?action_kouhyou_detail_004_kani=true&JigyosyoCd=4660190705-00&ServiceCd=130&Type=search", "url2": "hayashi-care.com/" }, "geometry": { "type": "Point", "coordinates": [ 130.535970193115219, 31.585035587945441 ] } },
{ "type": "Feature", "properties": { "内容": "訪問看護ステーションつむぐ【訪問看護】鹿児島県鹿児島市喜入町7028番地", "url": "https://www.kaigokensaku.mhlw.go.jp/46/index.php?action_kouhyou_detail_004_kani=true&JigyosyoCd=4660191513-00&ServiceCd=130&Type=search", "url2": "http;//hamada-gr.jp" }, "geometry": { "type": "Point", "coordinates": [ 130.5410484, 31.3732928 ] } },
{ "type": "Feature", "properties": { "内容": "マロニエ訪問看護ステーション「護国」【訪問看護】鹿児島市草牟田二丁目29-32", "url": "https://www.kaigokensaku.mhlw.go.jp/46/index.php?action_kouhyou_detail_004_kani=true&JigyosyoCd=4660190267-00&ServiceCd=130&Type=search", "url2": "houmon@yonemorihp.jp" }, "geometry": { "type": "Point", "coordinates": [ 130.537983199999985, 31.607213 ] } },
{ "type": "Feature", "properties": { "内容": "なでしこ訪問看護ステーション【訪問看護】鹿児島市小野町2427-2なでしこの杜1階", "url": "https://www.kaigokensaku.mhlw.go.jp/46/index.php?action_kouhyou_detail_004_kani=true&JigyosyoCd=4660190051-00&ServiceCd=130&Type=search", "url2": "http://www/saiseikai-kg.jp" }, "geometry": { "type": "Point", "coordinates": [ 130.512887879831737, 31.599088059116003 ] } },
{ "type": "Feature", "properties": { "内容": "精神科特化型訪問看護ステーションOZ鹿児島【訪問看護】鹿児島県鹿児島市武岡5丁目12-7", "url": "https://www.kaigokensaku.mhlw.go.jp/46/index.php?action_kouhyou_detail_004_kani=true&JigyosyoCd=4660191380-00&ServiceCd=130&Type=search", "url2": "https://www.houmonkangooz.com/" }, "geometry": { "type": "Point", "coordinates": [ 130.5102698, 31.5972067 ] } },
{ "type": "Feature", "properties": { "内容": "訪問看護コンフォート【訪問看護】鹿児島県鹿児島市武岡1丁目113-30", "url": "https://www.kaigokensaku.mhlw.go.jp/46/index.php?action_kouhyou_detail_004_kani=true&JigyosyoCd=4660190796-00&ServiceCd=130&Type=search", "url2": "comfort-takeoka.jp" }, "geometry": { "type": "Point", "coordinates": [ 130.525687400000038, 31.5877981 ] } },
{ "type": "Feature", "properties": { "内容": "訪問看護ステーションサザン【訪問看護】鹿児島県鹿児島市池之上町9-14", "url": "https://www.kaigokensaku.mhlw.go.jp/46/index.php?action_kouhyou_detail_004_kani=true&JigyosyoCd=4660190622-00&ServiceCd=130&Type=search", "url2": null }, "geometry": { "type": "Point", "coordinates": [ 130.564170200000035, 31.6088302 ] } },
{ "type": "Feature", "properties": { "内容": "医療法人有隣会訪問看護ステーション優つばめ【訪問看護】下伊敷1丁目31番1号", "url": "https://www.kaigokensaku.mhlw.go.jp/46/index.php?action_kouhyou_detail_004_kani=true&JigyosyoCd=4660190952-00&ServiceCd=130&Type=search", "url2": null }, "geometry": { "type": "Point", "coordinates": [ 130.536606399999982, 31.6137589 ] } },
{ "type": "Feature", "properties": { "内容": "鹿児島県看護協会訪問看護ステーションかごしま【訪問看護】鹿児島県鹿児島市桜ヶ丘６－１２", "url": "https://www.kaigokensaku.mhlw.go.jp/46/index.php?action_kouhyou_detail_004_kani=true&JigyosyoCd=4660190135-00&ServiceCd=130&Type=search", "url2": "http://k-kango.jp" }, "geometry": { "type": "Point", "coordinates": [ 130.523469470014021, 31.549097764831867 ] } },
{ "type": "Feature", "properties": { "内容": "訪問看護ステーションあおぞら谷山【訪問看護】鹿児島県鹿児島市小松原2−1−7エンプレスマンション202", "url": "https://www.kaigokensaku.mhlw.go.jp/46/index.php?action_kouhyou_detail_004_kani=true&JigyosyoCd=4660191471-00&ServiceCd=130&Type=search", "url2": "https://www.aozora-cg.com/" }, "geometry": { "type": "Point", "coordinates": [ 130.526603599999987, 31.5320503 ] } },
{ "type": "Feature", "properties": { "内容": "訪問看護ステーションあおぞら姶良【訪問看護】鹿児島県姶良市宮島町10−7−C", "url": "https://www.kaigokensaku.mhlw.go.jp/46/index.php?action_kouhyou_detail_004_kani=true&JigyosyoCd=4664590280-00&ServiceCd=130&Type=search", "url2": "https://www.aozora-cg.com/" }, "geometry": { "type": "Point", "coordinates": [ 130.6302527, 31.7291316 ] } },
{ "type": "Feature", "properties": { "内容": "きゅあステーション旭生会【訪問看護】谷山中央5丁目39-1", "url": "https://www.kaigokensaku.mhlw.go.jp/46/index.php?action_kouhyou_detail_004_kani=true&JigyosyoCd=4660190853-00&ServiceCd=130&Type=search", "url2": "http://asahigaokaen.com" }, "geometry": { "type": "Point", "coordinates": [ 130.511732845066945, 31.516074547858729 ] } },
{ "type": "Feature", "properties": { "内容": "訪問看護ナーシングプラス土屋すまいる鹿児島【訪問看護】山田町3678-1", "url": "https://www.kaigokensaku.mhlw.go.jp/46/index.php?action_kouhyou_detail_004_kani=true&JigyosyoCd=4660191596-00&ServiceCd=130&Type=search", "url2": null }, "geometry": { "type": "Point", "coordinates": [ 130.4932157, 31.5695895 ] } },
{ "type": "Feature", "properties": { "内容": "訪問看護ステーションパールランド【訪問看護】鹿児島県鹿児島市犬迫町2253番地", "url": "https://www.kaigokensaku.mhlw.go.jp/46/index.php?action_kouhyou_detail_004_kani=true&JigyosyoCd=4660190200-00&ServiceCd=130&Type=search", "url2": "http://www.pearlland.or.jp" }, "geometry": { "type": "Point", "coordinates": [ 130.504393899999968, 31.6232032 ] } },
{ "type": "Feature", "properties": { "内容": "訪問看護ステーションみなみ風Ⅱ【訪問看護】下竜尾町6-18", "url": "https://www.kaigokensaku.mhlw.go.jp/46/index.php?action_kouhyou_detail_004_kani=true&JigyosyoCd=4660191372-00&ServiceCd=130&Type=search", "url2": "http://www.nanpuh.or.jp/" }, "geometry": { "type": "Point", "coordinates": [ 130.5575301, 31.6052576 ] } },
{ "type": "Feature", "properties": { "内容": "訪問看護ステーション　ひなた【訪問看護】田上5丁目2-17カーサ大和Ⅲ1階", "url": "https://www.kaigokensaku.mhlw.go.jp/46/index.php?action_kouhyou_detail_004_kani=true&JigyosyoCd=4660190598-00&ServiceCd=130&Type=search", "url2": "www.hinata-scs.com" }, "geometry": { "type": "Point", "coordinates": [ 130.516711100000066, 31.5722443 ] } },
{ "type": "Feature", "properties": { "内容": "訪問看護ステーション悠暮里【訪問看護】郡山町2050番地5号", "url": "https://www.kaigokensaku.mhlw.go.jp/46/index.php?action_kouhyou_detail_004_kani=true&JigyosyoCd=4660191059-00&ServiceCd=130&Type=search", "url2": null }, "geometry": { "type": "Point", "coordinates": [ 130.476239621878477, 31.680438695667856 ] } },
{ "type": "Feature", "properties": { "内容": "鹿児島中央訪問看護ステーション【訪問看護】鹿児島市薬師一丁目１６番５号", "url": "https://www.kaigokensaku.mhlw.go.jp/46/index.php?action_kouhyou_detail_004_kani=true&JigyosyoCd=4660190010-00&ServiceCd=130&Type=search", "url2": "http://tenshokai.or.jp" }, "geometry": { "type": "Point", "coordinates": [ 130.539747640614337, 31.591466272977247 ] } },
{ "type": "Feature", "properties": { "内容": "生協訪問看護ステーション・たにやま【訪問看護】鹿児島県鹿児島市谷山中央3丁目4582番地", "url": "https://www.kaigokensaku.mhlw.go.jp/46/index.php?action_kouhyou_detail_004_kani=true&JigyosyoCd=4660190226-00&ServiceCd=130&Type=search", "url2": "http://www.kiseikyo.or.jp/" }, "geometry": { "type": "Point", "coordinates": [ 130.518624400000022, 31.5200861 ] } },
{ "type": "Feature", "properties": { "内容": "医療法人康成会　植村病院【訪問看護】鹿児島県鹿児島市草牟田1丁目4番7号", "url": "https://www.kaigokensaku.mhlw.go.jp/46/index.php?action_kouhyou_detail_004_kani=true&JigyosyoCd=4610111199-00&ServiceCd=130&Type=search", "url2": "http://www.koseikai-uemura.jp" }, "geometry": { "type": "Point", "coordinates": [ 130.538961200000017, 31.6020968 ] } },
{ "type": "Feature", "properties": { "内容": "医療法人　緑陽の会　緑ヶ丘クリニック【訪問看護】緑ヶ丘町６番１１号", "url": "https://www.kaigokensaku.mhlw.go.jp/46/index.php?action_kouhyou_detail_004_kani=true&JigyosyoCd=4610125397-00&ServiceCd=130&Type=search", "url2": "http.//www.midorigaoka-g.jp" }, "geometry": { "type": "Point", "coordinates": [ 130.5467, 31.6567644 ] } },
{ "type": "Feature", "properties": { "内容": "医療法人　慈風会　厚地リハビリテーション病院【訪問看護】鹿児島県鹿児島市照国町１３－３７", "url": "https://www.kaigokensaku.mhlw.go.jp/46/index.php?action_kouhyou_detail_004_kani=true&JigyosyoCd=4610127062-00&ServiceCd=130&Type=search", "url2": "http://www.jifukai.jp" }, "geometry": { "type": "Point", "coordinates": [ 130.551427399999966, 31.5918761 ] } },
{ "type": "Feature", "properties": { "内容": "こころ訪問看護ステーション【訪問看護】鹿児島県鹿児島市西坂元町３９番１号", "url": "https://www.kaigokensaku.mhlw.go.jp/46/index.php?action_kouhyou_detail_004_kani=true&JigyosyoCd=4660191273-00&ServiceCd=130&Type=search", "url2": null }, "geometry": { "type": "Point", "coordinates": [ 130.546667, 31.6123995 ] } },
{ "type": "Feature", "properties": { "内容": "いいだクリニック【訪問看護】鹿児島県鹿児島市草牟田2丁目１７－３", "url": "https://www.kaigokensaku.mhlw.go.jp/46/index.php?action_kouhyou_detail_004_kani=true&JigyosyoCd=4610121438-00&ServiceCd=130&Type=search", "url2": "http://www.iida-cl.com" }, "geometry": { "type": "Point", "coordinates": [ 130.5385973, 31.6029133 ] } },
{ "type": "Feature", "properties": { "内容": "医療法人藤和会グリーン訪問看護ステーション【訪問看護】鹿児島県鹿児島市新照院町19番15号ウィステリア新上橋１階", "url": "https://www.kaigokensaku.mhlw.go.jp/46/index.php?action_kouhyou_detail_004_kani=true&JigyosyoCd=4660190283-00&ServiceCd=130&Type=search", "url2": null }, "geometry": { "type": "Point", "coordinates": [ 130.542964, 31.5939006 ] } },
{ "type": "Feature", "properties": { "内容": "訪問看護ステーションゆあ【訪問看護】上荒田町10-9-2階", "url": "https://www.kaigokensaku.mhlw.go.jp/46/index.php?action_kouhyou_detail_004_kani=true&JigyosyoCd=4660190648-00&ServiceCd=130&Type=search", "url2": null }, "geometry": { "type": "Point", "coordinates": [ 130.547234705405799, 31.576682682576887 ] } },
{ "type": "Feature", "properties": { "内容": "いしき訪問看護ステーション【訪問看護】鹿児島市草牟田町3-21サンコーポ菩提樹303号", "url": "https://www.kaigokensaku.mhlw.go.jp/46/index.php?action_kouhyou_detail_004_kani=true&JigyosyoCd=4660190127-00&ServiceCd=130&Type=search", "url2": "https://gyokusuikai.jp" }, "geometry": { "type": "Point", "coordinates": [ 130.536273899999969, 31.60806220000001 ] } },
{ "type": "Feature", "properties": { "内容": "笹貫訪問看護ステーション愛の街【訪問看護】小原町9-1", "url": "https://www.kaigokensaku.mhlw.go.jp/46/index.php?action_kouhyou_detail_004_kani=true&JigyosyoCd=4660190168-00&ServiceCd=130&Type=search", "url2": "http://www.jiaikai.or.jp" }, "geometry": { "type": "Point", "coordinates": [ 130.530528, 31.5416119 ] } },
{ "type": "Feature", "properties": { "内容": "訪問看護ステーション真砂本町【訪問看護】鹿児島市真砂本町３－８１－１階介護老人保健施設ひまわり", "url": "https://www.kaigokensaku.mhlw.go.jp/46/index.php?action_kouhyou_detail_004_kani=true&JigyosyoCd=4660190234-00&ServiceCd=130&Type=search", "url2": null }, "geometry": { "type": "Point", "coordinates": [ 130.549051042466743, 31.557187804900401 ] } },
{ "type": "Feature", "properties": { "内容": "訪問看護ステーション　さくらじま【訪問看護】鹿児島市野尻町５９番地", "url": "https://www.kaigokensaku.mhlw.go.jp/46/index.php?action_kouhyou_detail_004_kani=true&JigyosyoCd=4660190275-00&ServiceCd=130&Type=search", "url2": "https://www.tenyoukai.org/zaitakusakurazima/houkan.html" }, "geometry": { "type": "Point", "coordinates": [ 130.616340686508266, 31.567795472048441 ] } },
{ "type": "Feature", "properties": { "内容": "医療法人徳洲会　鹿児島徳洲会訪問看護ステーションみずほ【訪問看護】鹿児島市南栄5丁目10番51", "url": "https://www.kaigokensaku.mhlw.go.jp/46/index.php?action_kouhyou_detail_004_kani=true&JigyosyoCd=4660190689-00&ServiceCd=130&Type=search", "url2": null }, "geometry": { "type": "Point", "coordinates": [ 130.5170065, 31.5074785 ] } },
{ "type": "Feature", "properties": { "内容": "あなぶきケアサービス鹿児島訪問看護事業所【訪問看護】鹿児島県鹿児島市上之園町4-15アルファリビング鹿児島上之園内", "url": "https://www.kaigokensaku.mhlw.go.jp/46/index.php?action_kouhyou_detail_004_kani=true&JigyosyoCd=4660190887-00&ServiceCd=130&Type=search", "url2": null }, "geometry": { "type": "Point", "coordinates": [ 130.548127808041045, 31.583053185069922 ] } },
{ "type": "Feature", "properties": { "内容": "キラメキテラスヘルスケアホスピタル訪問看護まむ鹿児島【訪問看護】高麗町43番30号", "url": "https://www.kaigokensaku.mhlw.go.jp/46/index.php?action_kouhyou_detail_004_kani=true&JigyosyoCd=4610127906-00&ServiceCd=130&Type=search", "url2": "https://www.kthc-hp.com/houmonkango/" }, "geometry": { "type": "Point", "coordinates": [ 130.5526577, 31.5779894 ] } },
{ "type": "Feature", "properties": { "内容": "訪問看護ステーションみなみ風【訪問看護】鹿児島市下竜尾町10-3", "url": "https://www.kaigokensaku.mhlw.go.jp/46/index.php?action_kouhyou_detail_004_kani=true&JigyosyoCd=4660190242-00&ServiceCd=130&Type=search", "url2": "http://www.nanpuh.or.jp/" }, "geometry": { "type": "Point", "coordinates": [ 130.560450943269416, 31.604127248082278 ] } },
{ "type": "Feature", "properties": { "内容": "訪問看護ステーション優美【訪問看護】鹿児島市宇宿９丁目6-5", "url": "https://www.kaigokensaku.mhlw.go.jp/46/index.php?action_kouhyou_detail_004_kani=true&JigyosyoCd=4660190481-00&ServiceCd=130&Type=search", "url2": "http://www.amayurikai.or.jp/" }, "geometry": { "type": "Point", "coordinates": [ 130.524337699999961, 31.5552591 ] } },
{ "type": "Feature", "properties": { "内容": "かわもと記念クリニック　訪問看護ステーションふわりむ【訪問看護】鹿児島市吉野町5400-2", "url": "https://www.kaigokensaku.mhlw.go.jp/46/index.php?action_kouhyou_detail_004_kani=true&JigyosyoCd=4660191190-00&ServiceCd=130&Type=search", "url2": "http://www．kawamoto-cl.or.jp/" }, "geometry": { "type": "Point", "coordinates": [ 130.576275515344236, 31.64373984650469 ] } },
{ "type": "Feature", "properties": { "内容": "アドナース鹿児島　訪問看護【訪問看護】鹿児島市武2丁目15⁻16", "url": "https://www.kaigokensaku.mhlw.go.jp/46/index.php?action_kouhyou_detail_004_kani=true&JigyosyoCd=4660191208-00&ServiceCd=130&Type=search", "url2": "https://adnurse.co.jp/" }, "geometry": { "type": "Point", "coordinates": [ 130.536911796269465, 31.580385267971849 ] } },
{ "type": "Feature", "properties": { "内容": "訪問看護ステーション上之園【訪問看護】鹿児島県鹿児島市天保山町21-1朝日ビル３階", "url": "https://www.kaigokensaku.mhlw.go.jp/46/index.php?action_kouhyou_detail_004_kani=true&JigyosyoCd=4660191216-00&ServiceCd=130&Type=search", "url2": null }, "geometry": { "type": "Point", "coordinates": [ 130.561780168523484, 31.574078773980968 ] } },
{ "type": "Feature", "properties": { "内容": "訪問看護ありがとう鹿児島支店【訪問看護】鹿児島県鹿児島市泉町12-20", "url": "https://www.kaigokensaku.mhlw.go.jp/46/index.php?action_kouhyou_detail_004_kani=true&JigyosyoCd=4660191315-00&ServiceCd=130&Type=search", "url2": "https://kaigo-arigato.com/pages/45/" }, "geometry": { "type": "Point", "coordinates": [ 130.559778200000011, 31.5924072 ] } },
{ "type": "Feature", "properties": { "内容": "訪問看護ステーションまごころ谷山【訪問看護】鹿児島県鹿児島市下福元町7536-1", "url": "https://www.kaigokensaku.mhlw.go.jp/46/index.php?action_kouhyou_detail_004_kani=true&JigyosyoCd=4660191356-00&ServiceCd=130&Type=search", "url2": "malchan62@vega.ocn.ne.jp" }, "geometry": { "type": "Point", "coordinates": [ 130.4998582, 31.4841323 ] } },
{ "type": "Feature", "properties": { "内容": "ほほえみ訪問看護ステーション【訪問看護】鹿児島県鹿児島市桜ケ丘３丁目５番地10", "url": "https://www.kaigokensaku.mhlw.go.jp/46/index.php?action_kouhyou_detail_004_kani=true&JigyosyoCd=4660191489-00&ServiceCd=130&Type=search", "url2": null }, "geometry": { "type": "Point", "coordinates": [ 130.515152818771355, 31.549035147985126 ] } },
{ "type": "Feature", "properties": { "内容": "さつま訪問看護ステーション谷山【訪問看護】鹿児島県鹿児島市中山町1470-1", "url": "https://www.kaigokensaku.mhlw.go.jp/46/index.php?action_kouhyou_detail_004_kani=true&JigyosyoCd=4660190754-00&ServiceCd=130&Type=search", "url2": null }, "geometry": { "type": "Point", "coordinates": [ 130.477091199999961, 31.539793400000036 ] } },
{ "type": "Feature", "properties": { "内容": "訪問看護ステーション　ａｒｕｋｕ【訪問看護】鹿児島県鹿児島市山田町365-3コンフォートTⅡ205号", "url": "https://www.kaigokensaku.mhlw.go.jp/46/index.php?action_kouhyou_detail_004_kani=true&JigyosyoCd=4660191646-00&ServiceCd=130&Type=search", "url2": "https://r-aruku.com" }, "geometry": { "type": "Point", "coordinates": [ 130.5050802, 31.5541873 ] } },
{ "type": "Feature", "properties": { "内容": "ケアネット徳洲会鹿児島訪問看護ステーション【訪問看護】鹿児島市東谷山１丁目５７－９レインボーヒルズ１０１号", "url": "https://www.kaigokensaku.mhlw.go.jp/46/index.php?action_kouhyou_detail_004_kani=true&JigyosyoCd=4660190465-00&ServiceCd=130&Type=search", "url2": "http://www.carenet-tk.com/" }, "geometry": { "type": "Point", "coordinates": [ 130.5287025, 31.5350031 ] } },
{ "type": "Feature", "properties": { "内容": "フレディ訪問看護ステーション【訪問看護】鹿児島市高麗町22-15シャトーエスポワール207", "url": "https://www.kaigokensaku.mhlw.go.jp/46/index.php?action_kouhyou_detail_004_kani=true&JigyosyoCd=4660191729-00&ServiceCd=130&Type=search", "url2": null }, "geometry": { "type": "Point", "coordinates": [ 130.5509494, 31.5804767 ] } },
{ "type": "Feature", "properties": { "内容": "訪問看護ステーション　いっ歩【訪問看護】鹿児島県鹿児島市吉野町3365有料老人ホームいっ歩本館内", "url": "https://www.kaigokensaku.mhlw.go.jp/46/index.php?action_kouhyou_detail_004_kani=true&JigyosyoCd=4660190812-00&ServiceCd=130&Type=search", "url2": "ｈｔｔｐ：//ｉｐｐｏ-ｈｏｍｅ．ｊｐ/" }, "geometry": { "type": "Point", "coordinates": [ 130.577156801946415, 31.646230033923995 ] } },
{ "type": "Feature", "properties": { "内容": "ナカノ訪問看護ステーション【訪問看護】鹿児島県鹿児島市伊敷3丁目14－8", "url": "https://www.kaigokensaku.mhlw.go.jp/46/index.php?action_kouhyou_detail_004_kani=true&JigyosyoCd=4660190374-00&ServiceCd=130&Type=search", "url2": "http://nakanozaitaku.jp/" }, "geometry": { "type": "Point", "coordinates": [ 130.5456484, 31.6270227 ] } },
{ "type": "Feature", "properties": { "内容": "訪問看護ステーションきいれ【訪問看護】鹿児島県鹿児島市喜入前之浜町7808-1老人保健施設サンシャインきいれ", "url": "https://www.kaigokensaku.mhlw.go.jp/46/index.php?action_kouhyou_detail_004_kani=true&JigyosyoCd=4660190614-00&ServiceCd=130&Type=search", "url2": "http:kiire.jp/" }, "geometry": { "type": "Point", "coordinates": [ 130.552994600000034, 31.3508791 ] } },
{ "type": "Feature", "properties": { "内容": "リニエ訪問看護ステーション鹿児島【訪問看護】鹿児島県鹿児島市谷山中央6丁目3-5", "url": "https://www.kaigokensaku.mhlw.go.jp/46/index.php?action_kouhyou_detail_004_kani=true&JigyosyoCd=4660191539-00&ServiceCd=130&Type=search", "url2": "https://linie-group.jp/office/houmonkango-kagoshima/" }, "geometry": { "type": "Point", "coordinates": [ 130.5101067, 31.518571 ] } },
{ "type": "Feature", "properties": { "内容": "訪問看護ステーション　ココレ【訪問看護】鹿児島県鹿児島市武1丁目5-18グランシャリオ武305号", "url": "https://www.kaigokensaku.mhlw.go.jp/46/index.php?action_kouhyou_detail_004_kani=true&JigyosyoCd=4660191547-00&ServiceCd=130&Type=search", "url2": "https://ligula-cocole.hp.peraichi.com/" }, "geometry": { "type": "Point", "coordinates": [ 130.5387014, 31.583932 ] } },
{ "type": "Feature", "properties": { "内容": "むぎのめ訪問看護ステーション【訪問看護】鹿児島県鹿児島市川上町１８６２－１", "url": "https://www.kaigokensaku.mhlw.go.jp/46/index.php?action_kouhyou_detail_004_kani=true&JigyosyoCd=4660190366-00&ServiceCd=130&Type=search", "url2": "http://www.muginome-fukushi.or.jp/" }, "geometry": { "type": "Point", "coordinates": [ 130.563787600000069, 31.6581255 ] } },
{ "type": "Feature", "properties": { "内容": "訪問看護・リハビリサービス　モーション鹿児島【訪問看護】鹿児島県鹿児島市星ｹ峯２－33－８フォルクス６　２０１", "url": "https://www.kaigokensaku.mhlw.go.jp/46/index.php?action_kouhyou_detail_004_kani=true&JigyosyoCd=4660190879-00&ServiceCd=130&Type=search", "url2": "http://3lh.co.jp" }, "geometry": { "type": "Point", "coordinates": [ 130.495147706745939, 31.574739034945477 ] } },
{ "type": "Feature", "properties": { "内容": "訪問看護ステーションかりん【訪問看護】西陵4丁目9－2", "url": "https://www.kaigokensaku.mhlw.go.jp/46/index.php?action_kouhyou_detail_004_kani=true&JigyosyoCd=4660190572-00&ServiceCd=130&Type=search", "url2": "http://www.karin-h.com/" }, "geometry": { "type": "Point", "coordinates": [ 130.508896844725228, 31.580021992314052 ] } },
{ "type": "Feature", "properties": { "内容": "よしの訪問看護ステーション【訪問看護】鹿児島県鹿児島市吉野２丁目17番15号総合ケアセンターよしの", "url": "https://www.kaigokensaku.mhlw.go.jp/46/index.php?action_kouhyou_detail_004_kani=true&JigyosyoCd=4660190176-00&ServiceCd=130&Type=search", "url2": "http://www.meikikai.com/" }, "geometry": { "type": "Point", "coordinates": [ 130.567440300000044, 31.6559618 ] } },
{ "type": "Feature", "properties": { "内容": "訪問看護Ｃｏｃｏ【訪問看護】鹿児島県鹿児島市西千石町９番８号タイガービル３Ｆ", "url": "https://www.kaigokensaku.mhlw.go.jp/46/index.php?action_kouhyou_detail_004_kani=true&JigyosyoCd=4660191406-00&ServiceCd=130&Type=search", "url2": "https://sites.google.com/view/houkan-coco" }, "geometry": { "type": "Point", "coordinates": [ 130.5487622, 31.5888981 ] } },
{ "type": "Feature", "properties": { "内容": "訪問看護ステーションきずな【訪問看護】鹿児島市喜入一倉町5243番地", "url": "https://www.kaigokensaku.mhlw.go.jp/46/index.php?action_kouhyou_detail_004_kani=true&JigyosyoCd=4664390012-00&ServiceCd=130&Type=search", "url2": null }, "geometry": { "type": "Point", "coordinates": [ 130.526162900000031, 31.3506593 ] } },
{ "type": "Feature", "properties": { "内容": "訪問看護ステーション　シエル【訪問看護】鹿児島県鹿児島市紫原二丁目18番9号", "url": "https://www.kaigokensaku.mhlw.go.jp/46/index.php?action_kouhyou_detail_004_kani=true&JigyosyoCd=4660190499-00&ServiceCd=130&Type=search", "url2": "http://jyouseikai.jp" }, "geometry": { "type": "Point", "coordinates": [ 130.535424400000011, 31.5607947 ] } },
{ "type": "Feature", "properties": { "内容": "訪問看護ステーション　てあて【訪問看護】鹿児島県鹿児島市坂之上3丁目8-1", "url": "https://www.kaigokensaku.mhlw.go.jp/46/index.php?action_kouhyou_detail_004_kani=true&JigyosyoCd=4660190655-00&ServiceCd=130&Type=search", "url2": "https://cure-connect.jp/" }, "geometry": { "type": "Point", "coordinates": [ 130.502311330266338, 31.506772777509223 ] } },
{ "type": "Feature", "properties": { "内容": "訪問看護ステーション　あおぞら荒田【訪問看護】鹿児島県鹿児島市荒田1−56−14", "url": "https://www.kaigokensaku.mhlw.go.jp/46/index.php?action_kouhyou_detail_004_kani=true&JigyosyoCd=4660190861-00&ServiceCd=130&Type=search", "url2": "https://www.aozora-cg.com/" }, "geometry": { "type": "Point", "coordinates": [ 130.552951, 31.57211520000001 ] } },
{ "type": "Feature", "properties": { "内容": "医療法人徳洲会　鹿児島徳洲会訪問看護ステーションみずほ【訪問看護】南栄5-10-51", "url": "https://www.kaigokensaku.mhlw.go.jp/46/index.php?action_kouhyou_detail_004_kani=true&JigyosyoCd=4660191760-00&ServiceCd=130&Type=search", "url2": null }, "geometry": { "type": "Point", "coordinates": [ 130.5170685, 31.5073385 ] } },
{ "type": "Feature", "properties": { "内容": "訪問看護ステーションあしあと【訪問看護】鹿児島県鹿児島市桜ヶ丘4丁目1-10グランデール桜ヶ丘908号室", "url": "https://www.kaigokensaku.mhlw.go.jp/46/index.php?action_kouhyou_detail_004_kani=true&JigyosyoCd=4660191786-00&ServiceCd=130&Type=search", "url2": null }, "geometry": { "type": "Point", "coordinates": [ 130.5169615, 31.5502468 ] } },
{ "type": "Feature", "properties": { "内容": "訪問看護ステーション　美都【訪問看護】鹿児島市天保山町11番8号ファミール美都4階", "url": "https://www.kaigokensaku.mhlw.go.jp/46/index.php?action_kouhyou_detail_004_kani=true&JigyosyoCd=4660190473-00&ServiceCd=130&Type=search", "url2": null }, "geometry": { "type": "Point", "coordinates": [ 130.561413746171667, 31.572115751318275 ] } },
{ "type": "Feature", "properties": { "内容": "訪問看護ステーションポプラ【訪問看護】鹿児島県鹿児島市郡元三丁目5番17号在宅医療・介護支援センター三愛", "url": "https://www.kaigokensaku.mhlw.go.jp/46/index.php?action_kouhyou_detail_004_kani=true&JigyosyoCd=4660190721-00&ServiceCd=130&Type=search", "url2": "https://www.sanaikai.or.jp/poplar/" }, "geometry": { "type": "Point", "coordinates": [ 130.548623, 31.5604129 ] } },
{ "type": "Feature", "properties": { "内容": "訪問看護ステーション美顔【訪問看護】鹿児島県鹿児島市清和3丁目4-15メゾンアコール103", "url": "https://www.kaigokensaku.mhlw.go.jp/46/index.php?action_kouhyou_detail_004_kani=true&JigyosyoCd=4660191430-00&ServiceCd=130&Type=search", "url2": null }, "geometry": { "type": "Point", "coordinates": [ 130.508712794581584, 31.537204697786915 ] } },
{ "type": "Feature", "properties": { "内容": "ツクイ鹿児島訪問看護ステーション【訪問看護】鹿児島県鹿児島市加治屋町18-8大樹生命鹿児島ビル８階", "url": "https://www.kaigokensaku.mhlw.go.jp/46/index.php?action_kouhyou_detail_004_kani=true&JigyosyoCd=4660191463-00&ServiceCd=130&Type=search", "url2": "https://www.tsukui.net/home-care/5041/" }, "geometry": { "type": "Point", "coordinates": [ 130.5523337, 31.5862471 ] } },
{ "type": "Feature", "properties": { "内容": "株式会社　優心　訪問看護ステーション　優心【訪問看護】鹿児島県鹿屋市大浦町14028-4", "url": "https://www.kaigokensaku.mhlw.go.jp/46/index.php?action_kouhyou_detail_004_kani=true&JigyosyoCd=4660390123-00&ServiceCd=130&Type=search", "url2": null }, "geometry": { "type": "Point", "coordinates": [ 130.842243899999971, 31.4046561 ] } },
{ "type": "Feature", "properties": { "内容": "訪問看護ステーション　あじさい【訪問看護】鹿児島県鹿屋市田崎町1316番地", "url": "https://www.kaigokensaku.mhlw.go.jp/46/index.php?action_kouhyou_detail_004_kani=true&JigyosyoCd=4660390099-00&ServiceCd=130&Type=search", "url2": "https://www.enishi-smile.co.jp/" }, "geometry": { "type": "Point", "coordinates": [ 130.857304146848151, 31.364044958661331 ] } },
{ "type": "Feature", "properties": { "内容": "訪問看護ステーション　ヒカリ【訪問看護】鹿児島県鹿屋市札元1丁目19番28号ビルドキューブ鹿屋101号", "url": "https://www.kaigokensaku.mhlw.go.jp/46/index.php?action_kouhyou_detail_004_kani=true&JigyosyoCd=4660390198-00&ServiceCd=130&Type=search", "url2": null }, "geometry": { "type": "Point", "coordinates": [ 130.8728228, 31.3933379 ] } },
{ "type": "Feature", "properties": { "内容": "医療法人徳洲会　訪問看護ステーション花みずき【訪問看護】新川町６０８１番地１", "url": "https://www.kaigokensaku.mhlw.go.jp/46/index.php?action_kouhyou_detail_004_kani=true&JigyosyoCd=4660390081-00&ServiceCd=130&Type=search", "url2": "http://www.kanoya-aishinkai.com/" }, "geometry": { "type": "Point", "coordinates": [ 130.860946199999944, 31.3773481 ] } },
{ "type": "Feature", "properties": { "内容": "訪問看護ステーション　ことぶき【訪問看護】鹿屋市寿8丁目7309-2", "url": "https://www.kaigokensaku.mhlw.go.jp/46/index.php?action_kouhyou_detail_004_kani=true&JigyosyoCd=4660390024-00&ServiceCd=130&Type=search", "url2": "http://www.koshinkai.or.jp" }, "geometry": { "type": "Point", "coordinates": [ 130.880278342327841, 31.385719611503671 ] } },
{ "type": "Feature", "properties": { "内容": "グリーンバードクリニック【訪問看護】鹿児島県鹿屋市輝北町市成2119番地2", "url": "https://www.kaigokensaku.mhlw.go.jp/46/index.php?action_kouhyou_detail_004_kani=true&JigyosyoCd=4610311732-00&ServiceCd=130&Type=search", "url2": "www.midori-net.or.jp" }, "geometry": { "type": "Point", "coordinates": [ 130.8616505, 31.585667 ] } },
{ "type": "Feature", "properties": { "内容": "訪問看護ステーション　以和貴苑【訪問看護】鹿児島県鹿屋市串良町下小原3106", "url": "https://www.kaigokensaku.mhlw.go.jp/46/index.php?action_kouhyou_detail_004_kani=true&JigyosyoCd=4660390149-00&ServiceCd=130&Type=search", "url2": "iwakikai.org" }, "geometry": { "type": "Point", "coordinates": [ 130.932196038423172, 31.397323284324042 ] } },
{ "type": "Feature", "properties": { "内容": "医療法人　青仁会　鹿屋訪問看護ステーション【訪問看護】鹿屋市下祓川町1794番地", "url": "https://www.kaigokensaku.mhlw.go.jp/46/index.php?action_kouhyou_detail_004_kani=true&JigyosyoCd=4660390016-00&ServiceCd=130&Type=search", "url2": "http://www.ikeda-hp.com/houkan/index.html" }, "geometry": { "type": "Point", "coordinates": [ 130.851715300000023, 31.4132084 ] } },
{ "type": "Feature", "properties": { "内容": "おおすみ訪問看護ステーション【訪問看護】川西町4668-3", "url": "https://www.kaigokensaku.mhlw.go.jp/46/index.php?action_kouhyou_detail_004_kani=true&JigyosyoCd=4660390057-00&ServiceCd=130&Type=search", "url2": null }, "geometry": { "type": "Point", "coordinates": [ 130.870261267587836, 31.364021044344288 ] } },
{ "type": "Feature", "properties": { "内容": "リニエ訪問看護ステーション大隅【訪問看護】鹿児島県鹿屋市川西町3703-15", "url": "https://www.kaigokensaku.mhlw.go.jp/46/index.php?action_kouhyou_detail_004_kani=true&JigyosyoCd=4660390255-00&ServiceCd=130&Type=search", "url2": "https://linie-group.jp/office/houmonkango-osumi/" }, "geometry": { "type": "Point", "coordinates": [ 130.8703453, 31.3604564 ] } },
{ "type": "Feature", "properties": { "内容": "訪問看護ステーション　はっぴーｏｎｅ【訪問看護】鹿児島県鹿屋市寿8丁目16-14", "url": "https://www.kaigokensaku.mhlw.go.jp/46/index.php?action_kouhyou_detail_004_kani=true&JigyosyoCd=4660390248-00&ServiceCd=130&Type=search", "url2": "https://www.happyone-jyunryu.com/" }, "geometry": { "type": "Point", "coordinates": [ 130.877442300000013, 31.3866296 ] } },
{ "type": "Feature", "properties": { "内容": "ほうもんかんご、かいごそうだんじょおりおん【訪問看護】鹿児島県鹿屋市寿4丁目2-6", "url": "https://www.kaigokensaku.mhlw.go.jp/46/index.php?action_kouhyou_detail_004_kani=true&JigyosyoCd=4660390214-00&ServiceCd=130&Type=search", "url2": "https://www.orion-vertecline.com/" }, "geometry": { "type": "Point", "coordinates": [ 130.873200199196106, 31.391767604576167 ] } },
{ "type": "Feature", "properties": { "内容": "枕崎市立病院【訪問看護】鹿児島県枕崎市日之出町230番地", "url": "https://www.kaigokensaku.mhlw.go.jp/46/index.php?action_kouhyou_detail_004_kani=true&JigyosyoCd=4610410112-00&ServiceCd=130&Type=search", "url2": "https://www.city.makurazaki.lg.jp/site/hospital/" }, "geometry": { "type": "Point", "coordinates": [ 130.30276230000004, 31.2715811 ] } },
{ "type": "Feature", "properties": { "内容": "医療法人　厚生会　訪問看護ステーション立神【訪問看護】鹿児島県枕崎市折口町１０９番地医療法人厚生会小原病院内", "url": "https://www.kaigokensaku.mhlw.go.jp/46/index.php?action_kouhyou_detail_004_kani=true&JigyosyoCd=4660490014-00&ServiceCd=130&Type=search", "url2": "http://www.synapse.ne.jp/koseikai/" }, "geometry": { "type": "Point", "coordinates": [ 130.295681974205024, 31.269537951565237 ] } },
{ "type": "Feature", "properties": { "内容": "合同会社訪問看護ステーション繋ぐ【訪問看護】鹿児島県枕崎市西本町90番地", "url": "https://www.kaigokensaku.mhlw.go.jp/46/index.php?action_kouhyou_detail_004_kani=true&JigyosyoCd=4660490048-00&ServiceCd=130&Type=search", "url2": "https://www.hk-tsunagu.com/" }, "geometry": { "type": "Point", "coordinates": [ 130.29883670000001, 31.269511100000013 ] } },
{ "type": "Feature", "properties": { "内容": "阿久根訪問看護ステーション【訪問看護】鹿児島県阿久根市赤瀬川379番地1", "url": "https://www.kaigokensaku.mhlw.go.jp/46/index.php?action_kouhyou_detail_004_kani=true&JigyosyoCd=4660690019-00&ServiceCd=130&Type=search", "url2": "http：//ｗｗｗ.uchimt.com/" }, "geometry": { "type": "Point", "coordinates": [ 130.200940865081776, 32.026016398540335 ] } },
{ "type": "Feature", "properties": { "内容": "グリーンフォレストみかさ訪問看護ステーション【訪問看護】阿久根市脇本字柞木迫6313番地1", "url": "https://www.kaigokensaku.mhlw.go.jp/46/index.php?action_kouhyou_detail_004_kani=true&JigyosyoCd=4660690027-00&ServiceCd=130&Type=search", "url2": null }, "geometry": { "type": "Point", "coordinates": [ 130.177752100000021, 32.0901826 ] } },
{ "type": "Feature", "properties": { "内容": "訪問看護ステーション　かけはし【訪問看護】鹿児島県出水市野田町下名6322番地5", "url": "https://www.kaigokensaku.mhlw.go.jp/46/index.php?action_kouhyou_detail_004_kani=true&JigyosyoCd=4660890072-00&ServiceCd=130&Type=search", "url2": null }, "geometry": { "type": "Point", "coordinates": [ 130.269459283250399, 32.069317419193688 ] } },
{ "type": "Feature", "properties": { "内容": "医療法人来仙医院【訪問看護】野田町下名６９０９番地", "url": "https://www.kaigokensaku.mhlw.go.jp/46/index.php?action_kouhyou_detail_004_kani=true&JigyosyoCd=4610810865-00&ServiceCd=130&Type=search", "url2": "https://raisen-iin.jimdosite.com" }, "geometry": { "type": "Point", "coordinates": [ 130.270733599999971, 32.0635518 ] } },
{ "type": "Feature", "properties": { "内容": "訪問看護ステーション　コミュニティケアいずみ【訪問看護】鹿児島県出水市野田町上名830-4", "url": "https://www.kaigokensaku.mhlw.go.jp/46/index.php?action_kouhyou_detail_004_kani=true&JigyosyoCd=4660890106-00&ServiceCd=130&Type=search", "url2": null }, "geometry": { "type": "Point", "coordinates": [ 130.270289663788986, 32.055996234213666 ] } },
{ "type": "Feature", "properties": { "内容": "訪問看護ステーション紬【訪問看護】鹿児島県出水市高尾野町柴引1524番地", "url": "https://www.kaigokensaku.mhlw.go.jp/46/index.php?action_kouhyou_detail_004_kani=true&JigyosyoCd=4660890130-00&ServiceCd=130&Type=search", "url2": "https://houkan-tsumugi.com" }, "geometry": { "type": "Point", "coordinates": [ 130.2994692, 32.0607707 ] } },
{ "type": "Feature", "properties": { "内容": "げんきリハサービス訪問看護ステーション【訪問看護】鹿児島県出水市高尾野町下水流2247-7", "url": "https://www.kaigokensaku.mhlw.go.jp/46/index.php?action_kouhyou_detail_004_kani=true&JigyosyoCd=4660890080-00&ServiceCd=130&Type=search", "url2": null }, "geometry": { "type": "Point", "coordinates": [ 130.299028799999974, 32.09267950000001 ] } },
{ "type": "Feature", "properties": { "内容": "三慶医院・訪問看護ステーション【訪問看護】鹿児島県出水市上鯖渕1966番地", "url": "https://www.kaigokensaku.mhlw.go.jp/46/index.php?action_kouhyou_detail_004_kani=true&JigyosyoCd=4660890098-00&ServiceCd=130&Type=search", "url2": "https://ochahoku.com" }, "geometry": { "type": "Point", "coordinates": [ 130.366091, 32.0802676 ] } },
{ "type": "Feature", "properties": { "内容": "訪問看護ステーション　share【訪問看護】鹿児島県出水市高尾野町唐笠木1854-5ヴィサルガA棟", "url": "https://www.kaigokensaku.mhlw.go.jp/46/index.php?action_kouhyou_detail_004_kani=true&JigyosyoCd=4660890155-00&ServiceCd=130&Type=search", "url2": "https://rihana-share.com/" }, "geometry": { "type": "Point", "coordinates": [ 130.282238400000011, 32.075754 ] } },
{ "type": "Feature", "properties": { "内容": "訪問看護ステーションリハシップあい【訪問看護】鹿児島県出水市大野原町1078番地2", "url": "https://www.kaigokensaku.mhlw.go.jp/46/index.php?action_kouhyou_detail_004_kani=true&JigyosyoCd=4660890031-00&ServiceCd=130&Type=search", "url2": "ｈｔｔｐ：//ｗｗｗ．ｒｉｈａｓｈｉｐ－ａｉ．ｃｏｍ" }, "geometry": { "type": "Point", "coordinates": [ 130.3329129, 32.076326 ] } },
{ "type": "Feature", "properties": { "内容": "在宅看護センターNicolor(ニコラ)【訪問看護】鹿児島県出水市緑町24番2号チッダヴェルデ101号", "url": "https://www.kaigokensaku.mhlw.go.jp/46/index.php?action_kouhyou_detail_004_kani=true&JigyosyoCd=4660890122-00&ServiceCd=130&Type=search", "url2": "https://lifecontact.co.jp" }, "geometry": { "type": "Point", "coordinates": [ 130.350227499999988, 32.0900904 ] } },
{ "type": "Feature", "properties": { "内容": "訪問看護ステーションまいん・いずみ【訪問看護】鹿児島県出水市野田町2379番", "url": "https://www.kaigokensaku.mhlw.go.jp/46/index.php?action_kouhyou_detail_004_kani=true&JigyosyoCd=4660890148-00&ServiceCd=130&Type=search", "url2": null }, "geometry": { "type": "Point", "coordinates": [ 130.268106267398082, 32.088125000602446 ] } },
{ "type": "Feature", "properties": { "内容": "レストケア出水在宅医療センター【訪問看護】上知識町806番地", "url": "https://www.kaigokensaku.mhlw.go.jp/46/index.php?action_kouhyou_detail_004_kani=true&JigyosyoCd=4660890056-00&ServiceCd=130&Type=search", "url2": "http://www5.synapse.ne.jp/restcare/aisatsu.htm" }, "geometry": { "type": "Point", "coordinates": [ 130.341017800000031, 32.0816032 ] } },
{ "type": "Feature", "properties": { "内容": "医療法人浩然会　指宿訪問看護ステーション【訪問看護】鹿児島県指宿市十町1159番3", "url": "https://www.kaigokensaku.mhlw.go.jp/46/index.php?action_kouhyou_detail_004_kani=true&JigyosyoCd=4661090011-00&ServiceCd=130&Type=search", "url2": null }, "geometry": { "type": "Point", "coordinates": [ 130.638855419882162, 31.249367012676245 ] } },
{ "type": "Feature", "properties": { "内容": "訪問看護ステーション　みなみ【訪問看護】鹿児島県指宿市大牟礼三丁目24番15号", "url": "https://www.kaigokensaku.mhlw.go.jp/46/index.php?action_kouhyou_detail_004_kani=true&JigyosyoCd=4661090102-00&ServiceCd=130&Type=search", "url2": "https://minamikinen-clinic.com/" }, "geometry": { "type": "Point", "coordinates": [ 130.6445894, 31.2467394 ] } },
{ "type": "Feature", "properties": { "内容": "訪問看護ステーションFullFull【訪問看護】鹿児島県西之表市西之表8919番地16", "url": "https://www.kaigokensaku.mhlw.go.jp/46/index.php?action_kouhyou_detail_004_kani=true&JigyosyoCd=4661390031-00&ServiceCd=130&Type=search", "url2": null }, "geometry": { "type": "Point", "coordinates": [ 131.0091482, 30.7220532 ] } },
{ "type": "Feature", "properties": { "内容": "訪問看護ステーション野の花【訪問看護】鹿児島県西之表市西之表7463管理棟", "url": "https://www.kaigokensaku.mhlw.go.jp/46/index.php?action_kouhyou_detail_004_kani=true&JigyosyoCd=4661390015-00&ServiceCd=130&Type=search", "url2": "http://www.tanegashima-mc.jp" }, "geometry": { "type": "Point", "coordinates": [ 130.999271099999959, 30.736122700000017 ] } },
{ "type": "Feature", "properties": { "内容": "訪問看護ステーション　ミント【訪問看護】鹿児島県西之表市鴨女町92番地1ハーモニーセンター", "url": "https://www.kaigokensaku.mhlw.go.jp/46/index.php?action_kouhyou_detail_004_kani=true&JigyosyoCd=4661390023-00&ServiceCd=130&Type=search", "url2": null }, "geometry": { "type": "Point", "coordinates": [ 130.995150689167758, 30.724548310729777 ] } },
{ "type": "Feature", "properties": { "内容": "訪問看護ステーション　オーパス・ワン【訪問看護】鹿児島県西之表市西之表7147", "url": "https://www.kaigokensaku.mhlw.go.jp/46/index.php?action_kouhyou_detail_004_kani=true&JigyosyoCd=4661390049-00&ServiceCd=130&Type=search", "url2": null }, "geometry": { "type": "Point", "coordinates": [ 130.9948071, 30.7380178 ] } },
{ "type": "Feature", "properties": { "内容": "公益社団法人肝属郡医師会立訪問看護ステーション【訪問看護】鹿児島県垂水市錦江町1番地140（老健コスモス苑内）垂水市立介護老人保健施設コスモス苑", "url": "https://www.kaigokensaku.mhlw.go.jp/46/index.php?action_kouhyou_detail_004_kani=true&JigyosyoCd=4661490146-00&ServiceCd=130&Type=search", "url2": null }, "geometry": { "type": "Point", "coordinates": [ 130.693723299999988, 31.4910705 ] } },
{ "type": "Feature", "properties": { "内容": "訪問看護ステーション　ワンオール【訪問看護】鹿児島県薩摩川内市隈之城町308-3", "url": "https://www.kaigokensaku.mhlw.go.jp/46/index.php?action_kouhyou_detail_004_kani=true&JigyosyoCd=4661590218-00&ServiceCd=130&Type=search", "url2": "https://www.oneallkango.com" }, "geometry": { "type": "Point", "coordinates": [ 130.308483700000011, 31.8013585 ] } },
{ "type": "Feature", "properties": { "内容": "＠（あっと）訪問看護ステーション薩摩川内【訪問看護】鹿児島県薩摩川内市中郷町４６２０－１バーディー102", "url": "https://www.kaigokensaku.mhlw.go.jp/46/index.php?action_kouhyou_detail_004_kani=true&JigyosyoCd=4661590176-00&ServiceCd=130&Type=search", "url2": null }, "geometry": { "type": "Point", "coordinates": [ 130.306571399999939, 31.8349819 ] } },
{ "type": "Feature", "properties": { "内容": "びっぐすまいる訪問看護ステーション【訪問看護】鹿児島県薩摩川内市平佐町1872グランドール平佐11号館", "url": "https://www.kaigokensaku.mhlw.go.jp/46/index.php?action_kouhyou_detail_004_kani=true&JigyosyoCd=4661590150-00&ServiceCd=130&Type=search", "url2": "https://www.bigsmile-nsrh/com/" }, "geometry": { "type": "Point", "coordinates": [ 130.3214246, 31.8100395 ] } },
{ "type": "Feature", "properties": { "内容": "訪問看護ステーションあすなろ【訪問看護】鹿児島県薩摩川内市永利町962番地4", "url": "https://www.kaigokensaku.mhlw.go.jp/46/index.php?action_kouhyou_detail_004_kani=true&JigyosyoCd=4661590200-00&ServiceCd=130&Type=search", "url2": "http://www.of-fujita.jp/" }, "geometry": { "type": "Point", "coordinates": [ 130.335138150787344, 31.805843353352248 ] } },
{ "type": "Feature", "properties": { "内容": "訪問看護ステーション　こんにちわ【訪問看護】鹿児島県薩摩川内市天辰町1512番地1", "url": "https://www.kaigokensaku.mhlw.go.jp/46/index.php?action_kouhyou_detail_004_kani=true&JigyosyoCd=4661590085-00&ServiceCd=130&Type=search", "url2": "http://www.takushokai.com" }, "geometry": { "type": "Point", "coordinates": [ 130.401061814016629, 31.785674176905637 ] } },
{ "type": "Feature", "properties": { "内容": "訪問看護ステーションCruto薩摩川内【訪問看護】御陵下町29-3", "url": "https://www.kaigokensaku.mhlw.go.jp/46/index.php?action_kouhyou_detail_004_kani=true&JigyosyoCd=4661590234-00&ServiceCd=130&Type=search", "url2": null }, "geometry": { "type": "Point", "coordinates": [ 130.291400900000014, 31.8340716 ] } },
{ "type": "Feature", "properties": { "内容": "川内市医師会訪問看護ステーション【訪問看護】鹿児島県薩摩川内市大小路町70番26号", "url": "https://www.kaigokensaku.mhlw.go.jp/46/index.php?action_kouhyou_detail_004_kani=true&JigyosyoCd=4661590051-00&ServiceCd=130&Type=search", "url2": "https://sendai-ishikai.jp/about/mission/houmon-kango/" }, "geometry": { "type": "Point", "coordinates": [ 130.30756181786046, 31.822299174821744 ] } },
{ "type": "Feature", "properties": { "内容": "社会福祉法人恩賜財団　済生会訪問看護ステーションせんだい【訪問看護】鹿児島県薩摩川内市原田町2番46号", "url": "https://www.kaigokensaku.mhlw.go.jp/46/index.php?action_kouhyou_detail_004_kani=true&JigyosyoCd=4661590044-00&ServiceCd=130&Type=search", "url2": "http://www.synapse.ne.jp./saiseikai-/saisei/" }, "geometry": { "type": "Point", "coordinates": [ 130.3067522, 31.8265549 ] } },
{ "type": "Feature", "properties": { "内容": "訪問看護ステーション　べーぐる【訪問看護】鹿児島県薩摩川内市矢倉町４３０２－２", "url": "https://www.kaigokensaku.mhlw.go.jp/46/index.php?action_kouhyou_detail_004_kani=true&JigyosyoCd=4661590226-00&ServiceCd=130&Type=search", "url2": null }, "geometry": { "type": "Point", "coordinates": [ 130.3124819, 31.786192 ] } },
{ "type": "Feature", "properties": { "内容": "訪問看護ステーション　コスモス【訪問看護】鹿児島県薩摩川内市神田町11番20号", "url": "https://www.kaigokensaku.mhlw.go.jp/46/index.php?action_kouhyou_detail_004_kani=true&JigyosyoCd=4661590028-00&ServiceCd=130&Type=search", "url2": "www.wakamatsu-hp.jp" }, "geometry": { "type": "Point", "coordinates": [ 130.303141833729569, 31.815692519591721 ] } },
{ "type": "Feature", "properties": { "内容": "訪問看護ステーションこんにちわ【訪問看護】鹿児島県薩摩川内市田崎町630-16看護小規模多機能施設懐風舎内", "url": "https://www.kaigokensaku.mhlw.go.jp/46/index.php?action_kouhyou_detail_004_kani=true&JigyosyoCd=4661590291-00&ServiceCd=130&Type=search", "url2": null }, "geometry": { "type": "Point", "coordinates": [ 130.328788800000041, 31.819664799999984 ] } },
{ "type": "Feature", "properties": { "内容": "訪問看護ステーション　音いろ【訪問看護】鹿児島県日置市伊集院町妙円寺1丁目2200-680", "url": "https://www.kaigokensaku.mhlw.go.jp/46/index.php?action_kouhyou_detail_004_kani=true&JigyosyoCd=4661690083-00&ServiceCd=130&Type=search", "url2": null }, "geometry": { "type": "Point", "coordinates": [ 130.396102380812039, 31.643991538953205 ] } },
{ "type": "Feature", "properties": { "内容": "訪問看護ステーション　ゆの里【訪問看護】鹿児島県日置市伊集院町妙円寺1丁目1番地6", "url": "https://www.kaigokensaku.mhlw.go.jp/46/index.php?action_kouhyou_detail_004_kani=true&JigyosyoCd=4661690034-00&ServiceCd=130&Type=search", "url2": "http://www.seishin-kai.org/" }, "geometry": { "type": "Point", "coordinates": [ 130.396860299999986, 31.6429656 ] } },
{ "type": "Feature", "properties": { "内容": "ローズ訪問看護ステーション【訪問看護】鹿児島県日置市日吉町日置403", "url": "https://www.kaigokensaku.mhlw.go.jp/46/index.php?action_kouhyou_detail_004_kani=true&JigyosyoCd=4661690067-00&ServiceCd=130&Type=search", "url2": "www.miyuki-clinic.net" }, "geometry": { "type": "Point", "coordinates": [ 130.346161536119837, 31.590883786315707 ] } },
{ "type": "Feature", "properties": { "内容": "訪問看護ステーションCruto日置【訪問看護】鹿児島県日置市妙円寺１丁目70-1", "url": "https://www.kaigokensaku.mhlw.go.jp/46/index.php?action_kouhyou_detail_004_kani=true&JigyosyoCd=4661690109-00&ServiceCd=130&Type=search", "url2": null }, "geometry": { "type": "Point", "coordinates": [ 130.398022200000014, 31.6424266 ] } },
{ "type": "Feature", "properties": { "内容": "ちひろ訪問看護ステーション【訪問看護】鹿児島県日置市伊集院町猪鹿倉622-46", "url": "https://www.kaigokensaku.mhlw.go.jp/46/index.php?action_kouhyou_detail_004_kani=true&JigyosyoCd=4661690125-00&ServiceCd=130&Type=search", "url2": null }, "geometry": { "type": "Point", "coordinates": [ 130.403849, 31.6271501 ] } },
{ "type": "Feature", "properties": { "内容": "大隅地域訪問看護ステーション【訪問看護】鹿児島県曽於市大隅町下窪町1番地", "url": "https://www.kaigokensaku.mhlw.go.jp/46/index.php?action_kouhyou_detail_004_kani=true&JigyosyoCd=4661790016-00&ServiceCd=130&Type=search", "url2": null }, "geometry": { "type": "Point", "coordinates": [ 131.0009632, 31.5833654 ] } },
{ "type": "Feature", "properties": { "内容": "さくら訪問看護ステーション【訪問看護】鹿児島県曽於市末吉町南之郷4354番地2", "url": "https://www.kaigokensaku.mhlw.go.jp/46/index.php?action_kouhyou_detail_004_kani=true&JigyosyoCd=4661790032-00&ServiceCd=130&Type=search", "url2": "http://www.oasis-soo.com" }, "geometry": { "type": "Point", "coordinates": [ 131.064235300000064, 31.6206563 ] } },
{ "type": "Feature", "properties": { "内容": "曽於医師会立訪問看護ステーションほほえみ【訪問看護】鹿児島県曽於市大隅町月野894-2", "url": "https://www.kaigokensaku.mhlw.go.jp/46/index.php?action_kouhyou_detail_004_kani=true&JigyosyoCd=4661790040-00&ServiceCd=130&Type=search", "url2": null }, "geometry": { "type": "Point", "coordinates": [ 131.033672200000012, 31.5691953 ] } },
{ "type": "Feature", "properties": { "内容": "末吉訪問看護ステーション【訪問看護】曽於市末吉町栄町２丁目12-1", "url": "https://www.kaigokensaku.mhlw.go.jp/46/index.php?action_kouhyou_detail_004_kani=true&JigyosyoCd=4661790024-00&ServiceCd=130&Type=search", "url2": "http://www.takahara-net.or.jp" }, "geometry": { "type": "Point", "coordinates": [ 131.018171100000018, 31.6564819 ] } },
{ "type": "Feature", "properties": { "内容": "医療法人春成会　鵜木医院【訪問看護】鹿児島県霧島市国分中央3丁目19-15", "url": "https://www.kaigokensaku.mhlw.go.jp/46/index.php?action_kouhyou_detail_004_kani=true&JigyosyoCd=4611910110-00&ServiceCd=130&Type=search", "url2": "https://syunseikai.or.jp/" }, "geometry": { "type": "Point", "coordinates": [ 130.769274799999948, 31.7369714 ] } },
{ "type": "Feature", "properties": { "内容": "訪問看護ステーション姫城【訪問看護】鹿児島県霧島市隼人町一丁目37番地", "url": "https://www.kaigokensaku.mhlw.go.jp/46/index.php?action_kouhyou_detail_004_kani=true&JigyosyoCd=4661990095-00&ServiceCd=130&Type=search", "url2": "http://hayato-spa.hospi.jp/" }, "geometry": { "type": "Point", "coordinates": [ 130.757344053982308, 31.760877345435127 ] } },
{ "type": "Feature", "properties": { "内容": "訪問看護ステーション　心つむぐ【訪問看護】鹿児島県霧島市隼人町神宮一丁目８−２３", "url": "https://www.kaigokensaku.mhlw.go.jp/46/index.php?action_kouhyou_detail_004_kani=true&JigyosyoCd=4661990293-00&ServiceCd=130&Type=search", "url2": null }, "geometry": { "type": "Point", "coordinates": [ 130.7413076, 31.749081 ] } },
{ "type": "Feature", "properties": { "内容": "訪問看護ステーションテラス【訪問看護】鹿児島県霧島市国分新町二丁目15番7号", "url": "https://www.kaigokensaku.mhlw.go.jp/46/index.php?action_kouhyou_detail_004_kani=true&JigyosyoCd=4661990129-00&ServiceCd=130&Type=search", "url2": "http://e-terasu.com/" }, "geometry": { "type": "Point", "coordinates": [ 130.76323, 31.754258800000041 ] } },
{ "type": "Feature", "properties": { "内容": "姶良地区医師会訪問看護ステーション【訪問看護】霧島市隼人町内山田一丁目6番52号", "url": "https://www.kaigokensaku.mhlw.go.jp/46/index.php?action_kouhyou_detail_004_kani=true&JigyosyoCd=4661990046-00&ServiceCd=130&Type=search", "url2": "http://www.minc.ne.jp/airamed" }, "geometry": { "type": "Point", "coordinates": [ 130.73578079999993, 31.743520199999981 ] } },
{ "type": "Feature", "properties": { "内容": "ニチイケアセンター隼人【訪問看護】鹿児島県霧島市隼人町東郷1088-1", "url": "https://www.kaigokensaku.mhlw.go.jp/46/index.php?action_kouhyou_detail_004_kani=true&JigyosyoCd=4661990111-00&ServiceCd=130&Type=search", "url2": "http://www.nichiigakkan.co.jp" }, "geometry": { "type": "Point", "coordinates": [ 130.750491300000022, 31.7717431 ] } },
{ "type": "Feature", "properties": { "内容": "訪問看護ステーションサンライト【訪問看護】鹿児島県霧島市牧園町高千穂3167番地640", "url": "https://www.kaigokensaku.mhlw.go.jp/46/index.php?action_kouhyou_detail_004_kani=true&JigyosyoCd=4661990087-00&ServiceCd=130&Type=search", "url2": "http://www.toukeikai.jp/" }, "geometry": { "type": "Point", "coordinates": [ 130.819562859277283, 31.879898109294857 ] } },
{ "type": "Feature", "properties": { "内容": "株式会社　霧島リハウォーク絆訪問看護ステーション【訪問看護】隼人町内山田１１１０－２", "url": "https://www.kaigokensaku.mhlw.go.jp/46/index.php?action_kouhyou_detail_004_kani=true&JigyosyoCd=4661990103-00&ServiceCd=130&Type=search", "url2": null }, "geometry": { "type": "Point", "coordinates": [ 130.73009275560608, 31.747770883719404 ] } },
{ "type": "Feature", "properties": { "内容": "生協訪問看護ステーション・こくぶ【訪問看護】霧島市国分中央三丁目38番15号", "url": "https://www.kaigokensaku.mhlw.go.jp/46/index.php?action_kouhyou_detail_004_kani=true&JigyosyoCd=4661990012-00&ServiceCd=130&Type=search", "url2": "kokubu-seikyo.jp/houmon-kokubu/" }, "geometry": { "type": "Point", "coordinates": [ 130.766072300000019, 31.7363159 ] } },
{ "type": "Feature", "properties": { "内容": "訪問看護ステーションあんしん【訪問看護】鹿児島県霧島市霧島田口2143", "url": "https://www.kaigokensaku.mhlw.go.jp/46/index.php?action_kouhyou_detail_004_kani=true&JigyosyoCd=4661990053-00&ServiceCd=130&Type=search", "url2": "http:/www.kouseikai.info" }, "geometry": { "type": "Point", "coordinates": [ 130.856116125235303, 31.848735743189565 ] } },
{ "type": "Feature", "properties": { "内容": "ステップハート訪問看護ステーション【訪問看護】国分中央４丁目１２番２２号", "url": "https://www.kaigokensaku.mhlw.go.jp/46/index.php?action_kouhyou_detail_004_kani=true&JigyosyoCd=4661990145-00&ServiceCd=130&Type=search", "url2": "http://www.unity-g.com/index.php" }, "geometry": { "type": "Point", "coordinates": [ 130.775038900000027, 31.7306413 ] } },
{ "type": "Feature", "properties": { "内容": "マグノリア株式会社　訪問看護ステーション牧園【訪問看護】鹿児島県霧島市牧園町宿窪田939", "url": "https://www.kaigokensaku.mhlw.go.jp/46/index.php?action_kouhyou_detail_004_kani=true&JigyosyoCd=4661990392-00&ServiceCd=130&Type=search", "url2": "http://magnolia-smile.com/" }, "geometry": { "type": "Point", "coordinates": [ 130.741397799999987, 31.863153 ] } },
{ "type": "Feature", "properties": { "内容": "訪問看護ステーションゆい【訪問看護】鹿児島県霧島市国分福島2丁目14-9", "url": "https://www.kaigokensaku.mhlw.go.jp/46/index.php?action_kouhyou_detail_004_kani=true&JigyosyoCd=4661990343-00&ServiceCd=130&Type=search", "url2": null }, "geometry": { "type": "Point", "coordinates": [ 130.7564382, 31.7257847 ] } },
{ "type": "Feature", "properties": { "内容": "リニエ訪問看護ステーション霧島【訪問看護】鹿児島県霧島市隼人町見次297-1エクセレント302号室", "url": "https://www.kaigokensaku.mhlw.go.jp/46/index.php?action_kouhyou_detail_004_kani=true&JigyosyoCd=4661990376-00&ServiceCd=130&Type=search", "url2": "https://linie-group.jp/office/houmonkango-kirishima/" }, "geometry": { "type": "Point", "coordinates": [ 130.742990099999986, 31.7399549 ] } },
{ "type": "Feature", "properties": { "内容": "こじか訪問看護ステーション【訪問看護】鹿児島県いちき串木野市湊町2丁目92", "url": "https://www.kaigokensaku.mhlw.go.jp/46/index.php?action_kouhyou_detail_004_kani=true&JigyosyoCd=4661890048-00&ServiceCd=130&Type=search", "url2": "http://www.kojika-co.com/" }, "geometry": { "type": "Point", "coordinates": [ 130.289913924992305, 31.69585748087805 ] } },
{ "type": "Feature", "properties": { "内容": "いちき串木野市医師会立脳神経外科センター　訪問看護ステーションさくら【訪問看護】生福5419番地5", "url": "https://www.kaigokensaku.mhlw.go.jp/46/index.php?action_kouhyou_detail_004_kani=true&JigyosyoCd=4661890063-00&ServiceCd=130&Type=search", "url2": "http://www.kunc99.jp/" }, "geometry": { "type": "Point", "coordinates": [ 130.301845700000058, 31.720572399999973 ] } },
{ "type": "Feature", "properties": { "内容": "訪問看護ステーションきなり【訪問看護】鹿児島県いちき串木野市春日町159番地", "url": "https://www.kaigokensaku.mhlw.go.jp/46/index.php?action_kouhyou_detail_004_kani=true&JigyosyoCd=4661890071-00&ServiceCd=130&Type=search", "url2": "https://sites.google.com/view/kinarihoukan/home" }, "geometry": { "type": "Point", "coordinates": [ 130.27078130000001, 31.7216235 ] } },
{ "type": "Feature", "properties": { "内容": "医療法人健仁会　訪問看護ステーションほがらか【訪問看護】鹿児島県いちき串木野市大里3816-1", "url": "https://www.kaigokensaku.mhlw.go.jp/46/index.php?action_kouhyou_detail_004_kani=true&JigyosyoCd=4661890089-00&ServiceCd=130&Type=search", "url2": "https://hogaraka-ichiki.com/" }, "geometry": { "type": "Point", "coordinates": [ 130.297490547674357, 31.687360120133928 ] } },
{ "type": "Feature", "properties": { "内容": "加世田訪問看護ステーション【訪問看護】鹿児島県南さつま市加世田本町54-6", "url": "https://www.kaigokensaku.mhlw.go.jp/46/index.php?action_kouhyou_detail_004_kani=true&JigyosyoCd=4664090018-00&ServiceCd=130&Type=search", "url2": "http://www.nonohanakai.or.jp/" }, "geometry": { "type": "Point", "coordinates": [ 130.320468065051273, 31.415488244787088 ] } },
{ "type": "Feature", "properties": { "内容": "椎原会　有馬病院【訪問看護】鹿児島県南さつま市加世田地頭所５７０番地", "url": "https://www.kaigokensaku.mhlw.go.jp/46/index.php?action_kouhyou_detail_004_kani=true&JigyosyoCd=4614010132-00&ServiceCd=130&Type=search", "url2": "http://www.ahp.or.jp/" }, "geometry": { "type": "Point", "coordinates": [ 130.321321300000022, 31.4227917 ] } },
{ "type": "Feature", "properties": { "内容": "さつま訪問看護ステーション【訪問看護】鹿児島県南さつま市金峰町中津野1207番地1", "url": "https://www.kaigokensaku.mhlw.go.jp/46/index.php?action_kouhyou_detail_004_kani=true&JigyosyoCd=4664090042-00&ServiceCd=130&Type=search", "url2": null }, "geometry": { "type": "Point", "coordinates": [ 130.346925899999974, 31.4485049 ] } },
{ "type": "Feature", "properties": { "内容": "曽於医師会立訪問看護ステーション【訪問看護】有明町野井倉8288-1", "url": "https://www.kaigokensaku.mhlw.go.jp/46/index.php?action_kouhyou_detail_004_kani=true&JigyosyoCd=4664190024-00&ServiceCd=130&Type=search", "url2": "http://www.btvm.ne.jp/~r-ariake/" }, "geometry": { "type": "Point", "coordinates": [ 131.066721, 31.455654 ] } },
{ "type": "Feature", "properties": { "内容": "志布志訪問看護リハビリステーション【訪問看護】鹿児島県志布志市志布志町志布志一丁目１３番１号藤後クリニック２階", "url": "https://www.kaigokensaku.mhlw.go.jp/46/index.php?action_kouhyou_detail_004_kani=true&JigyosyoCd=4664190016-00&ServiceCd=130&Type=search", "url2": "http://www.sayuukai.or.jp" }, "geometry": { "type": "Point", "coordinates": [ 131.103069, 31.476738700000013 ] } },
{ "type": "Feature", "properties": { "内容": "志布志中央クリニック【訪問看護】志布志町志布志1290-1", "url": "https://www.kaigokensaku.mhlw.go.jp/46/index.php?action_kouhyou_detail_004_kani=true&JigyosyoCd=4614110296-00&ServiceCd=130&Type=search", "url2": "https://www.med-sakura.or.jp/" }, "geometry": { "type": "Point", "coordinates": [ 131.08626, 31.4837393 ] } },
{ "type": "Feature", "properties": { "内容": "医療法人徳洲会笠利病院　訪問看護事業所【訪問看護】鹿児島県奄美市笠利町中金久120", "url": "https://www.kaigokensaku.mhlw.go.jp/46/index.php?action_kouhyou_detail_004_kani=true&JigyosyoCd=4614210542-00&ServiceCd=130&Type=search", "url2": "http://kasarihp.com" }, "geometry": { "type": "Point", "coordinates": [ 129.6764875, 28.4535582 ] } },
{ "type": "Feature", "properties": { "内容": "生協訪問看護ステーションあまみ【訪問看護】鹿児島県奄美市名瀬長浜町8-7生協会館１階", "url": "https://www.kaigokensaku.mhlw.go.jp/46/index.php?action_kouhyou_detail_004_kani=true&JigyosyoCd=4664290022-00&ServiceCd=130&Type=search", "url2": null }, "geometry": { "type": "Point", "coordinates": [ 129.494052207934601, 28.391832751056597 ] } },
{ "type": "Feature", "properties": { "内容": "ネリヤ訪問ステーション【訪問看護】鹿児島県奄美市名瀬和光町３１番地１４ファミリークリニック　ネリヤ内", "url": "https://www.kaigokensaku.mhlw.go.jp/46/index.php?action_kouhyou_detail_004_kani=true&JigyosyoCd=4664290071-00&ServiceCd=130&Type=search", "url2": "https://neriya.or.jp" }, "geometry": { "type": "Point", "coordinates": [ 129.525031498147541, 28.389374061448883 ] } },
{ "type": "Feature", "properties": { "内容": "奄美市訪問看護ステーション「ふれ愛」【訪問看護】奄美市笠利町大字中金久45番地2F", "url": "https://www.kaigokensaku.mhlw.go.jp/46/index.php?action_kouhyou_detail_004_kani=true&JigyosyoCd=4664290048-00&ServiceCd=130&Type=search", "url2": null }, "geometry": { "type": "Point", "coordinates": [ 129.674881899999946, 28.4562163 ] } },
{ "type": "Feature", "properties": { "内容": "訪問看護ケアステーションいいだっか。【訪問看護】鹿児島県奄美市名瀬末広町１ー６ベルメゾン２１　４０７", "url": "https://www.kaigokensaku.mhlw.go.jp/46/index.php?action_kouhyou_detail_004_kani=true&JigyosyoCd=4664290121-00&ServiceCd=130&Type=search", "url2": "http://www.iidkl.com" }, "geometry": { "type": "Point", "coordinates": [ 129.494536399999987, 28.3792643 ] } },
{ "type": "Feature", "properties": { "内容": "名瀬徳洲会訪問看護ステーション【訪問看護】鹿児島県奄美市名瀬朝日町28-1", "url": "https://www.kaigokensaku.mhlw.go.jp/46/index.php?action_kouhyou_detail_004_kani=true&JigyosyoCd=4664290063-00&ServiceCd=130&Type=search", "url2": null }, "geometry": { "type": "Point", "coordinates": [ 129.52629321349184, 28.398696243418996 ] } },
{ "type": "Feature", "properties": { "内容": "訪問看護ステーションほほえみ【訪問看護】鹿児島県奄美市名瀬有屋町29-31", "url": "https://www.kaigokensaku.mhlw.go.jp/46/index.php?action_kouhyou_detail_004_kani=true&JigyosyoCd=4664290089-00&ServiceCd=130&Type=search", "url2": "homenursehohoemi@cloud.line.com" }, "geometry": { "type": "Point", "coordinates": [ 129.527843014421933, 28.390985837191757 ] } },
{ "type": "Feature", "properties": { "内容": "大島郡医師会訪問看護ステーション【訪問看護】奄美市名瀬小宿3411番地", "url": "https://www.kaigokensaku.mhlw.go.jp/46/index.php?action_kouhyou_detail_004_kani=true&JigyosyoCd=4664290030-00&ServiceCd=130&Type=search", "url2": "http://hp.oshima-med.or.jp/kaigo/hns" }, "geometry": { "type": "Point", "coordinates": [ 129.474406199999976, 28.3863716 ] } },
{ "type": "Feature", "properties": { "内容": "さくら訪問看護ステーション【訪問看護】鹿児島県奄美市名瀬幸町16－16　2階", "url": "https://www.kaigokensaku.mhlw.go.jp/46/index.php?action_kouhyou_detail_004_kani=true&JigyosyoCd=4664290113-00&ServiceCd=130&Type=search", "url2": null }, "geometry": { "type": "Point", "coordinates": [ 129.492879, 28.3784371 ] } },
{ "type": "Feature", "properties": { "内容": "訪問看護ステーション日和【訪問看護】鹿児島県奄美市名瀬朝仁新町35番地23", "url": "https://www.kaigokensaku.mhlw.go.jp/46/index.php?action_kouhyou_detail_004_kani=true&JigyosyoCd=4664290139-00&ServiceCd=130&Type=search", "url2": "https://firm.mirai-amami.com/" }, "geometry": { "type": "Point", "coordinates": [ 129.4861682, 28.3946389 ] } },
{ "type": "Feature", "properties": { "内容": "生協訪問看護ステーション・万之瀬【訪問看護】鹿児島県南九州市川辺町両添1118番地", "url": "https://www.kaigokensaku.mhlw.go.jp/46/index.php?action_kouhyou_detail_004_kani=true&JigyosyoCd=4664390053-00&ServiceCd=130&Type=search", "url2": null }, "geometry": { "type": "Point", "coordinates": [ 130.403341485918077, 31.391649624662808 ] } },
{ "type": "Feature", "properties": { "内容": "サザン訪問看護ステーション【訪問看護】鹿児島県南九州市知覧町郡17810-1サザン地域医療・介護支援センター南九州", "url": "https://www.kaigokensaku.mhlw.go.jp/46/index.php?action_kouhyou_detail_004_kani=true&JigyosyoCd=4660490030-00&ServiceCd=130&Type=search", "url2": null }, "geometry": { "type": "Point", "coordinates": [ 130.43218259859637, 31.36024669934903 ] } },
{ "type": "Feature", "properties": { "内容": "一歩訪問看護ステーション【訪問看護】鹿児島県南九州市頴娃町上別府8413-1", "url": "https://www.kaigokensaku.mhlw.go.jp/46/index.php?action_kouhyou_detail_004_kani=true&JigyosyoCd=4664390087-00&ServiceCd=130&Type=search", "url2": "ippoyume66@yahoo.co.jp" }, "geometry": { "type": "Point", "coordinates": [ 130.439985930471835, 31.305827161857664 ] } },
{ "type": "Feature", "properties": { "内容": "川辺訪問看護ステーション小菊【訪問看護】鹿児島県南九州市川辺町平山3815番地", "url": "https://www.kaigokensaku.mhlw.go.jp/46/index.php?action_kouhyou_detail_004_kani=true&JigyosyoCd=4664390046-00&ServiceCd=130&Type=search", "url2": "https://kikunokai.jp" }, "geometry": { "type": "Point", "coordinates": [ 130.390564300000051, 31.3871731 ] } },
{ "type": "Feature", "properties": { "内容": "訪問看護ステーションあゆみ【訪問看護】鹿児島県伊佐市菱刈前目654-51", "url": "https://www.kaigokensaku.mhlw.go.jp/46/index.php?action_kouhyou_detail_004_kani=true&JigyosyoCd=4664490226-00&ServiceCd=130&Type=search", "url2": null }, "geometry": { "type": "Point", "coordinates": [ 130.644387099999989, 32.0074169 ] } },
{ "type": "Feature", "properties": { "内容": "訪問看護ステーションとどろ【訪問看護】大口里491－2", "url": "https://www.kaigokensaku.mhlw.go.jp/46/index.php?action_kouhyou_detail_004_kani=true&JigyosyoCd=4664490036-00&ServiceCd=130&Type=search", "url2": "https://matsumoto-hp.net" }, "geometry": { "type": "Point", "coordinates": [ 130.604216599999972, 32.0608829 ] } },
{ "type": "Feature", "properties": { "内容": "たけうちクリニック【訪問看護】鹿児島県姶良市西餅田140", "url": "https://www.kaigokensaku.mhlw.go.jp/46/index.php?action_kouhyou_detail_004_kani=true&JigyosyoCd=4614510446-00&ServiceCd=130&Type=search", "url2": "http;www.kagoshima-med.jp/takeuchi-c/" }, "geometry": { "type": "Point", "coordinates": [ 130.628923799999939, 31.7356721 ] } },
{ "type": "Feature", "properties": { "内容": "訪問看護ステーションどんぐり【訪問看護】鹿児島県姶良市宮島町31-12", "url": "https://www.kaigokensaku.mhlw.go.jp/46/index.php?action_kouhyou_detail_004_kani=true&JigyosyoCd=4664590173-00&ServiceCd=130&Type=search", "url2": "https://careline-group.jp" }, "geometry": { "type": "Point", "coordinates": [ 130.627980857227186, 31.727080119188507 ] } },
{ "type": "Feature", "properties": { "内容": "訪問看護ステーション　こもれ陽【訪問看護】鹿児島県姶良市宮島町55-8在宅医療支援センター　あいら", "url": "https://www.kaigokensaku.mhlw.go.jp/46/index.php?action_kouhyou_detail_004_kani=true&JigyosyoCd=4664590058-00&ServiceCd=130&Type=search", "url2": "http://www.komorebi-st.jp" }, "geometry": { "type": "Point", "coordinates": [ 130.624712622090073, 31.724702610315848 ] } },
{ "type": "Feature", "properties": { "内容": "訪問看護ステーションぷらす【訪問看護】鹿児島県姶良市加治木町木田2764番地1", "url": "https://www.kaigokensaku.mhlw.go.jp/46/index.php?action_kouhyou_detail_004_kani=true&JigyosyoCd=4664590389-00&ServiceCd=130&Type=search", "url2": "https://carenet-group.jp" }, "geometry": { "type": "Point", "coordinates": [ 130.6517088, 31.7406968 ] } },
{ "type": "Feature", "properties": { "内容": "訪問看護ステーションビオラ【訪問看護】鹿児島県姶良市加治木町木田９０９番地1さくら静寿会", "url": "https://www.kaigokensaku.mhlw.go.jp/46/index.php?action_kouhyou_detail_004_kani=true&JigyosyoCd=4661990301-00&ServiceCd=130&Type=search", "url2": "http:/www.sakuraseijyukai.com/" }, "geometry": { "type": "Point", "coordinates": [ 130.6492394, 31.7347105 ] } },
{ "type": "Feature", "properties": { "内容": "訪問看護ステーションこめっと【訪問看護】鹿児島県姶良市西餅田3444番地36", "url": "https://www.kaigokensaku.mhlw.go.jp/46/index.php?action_kouhyou_detail_004_kani=true&JigyosyoCd=4664590421-00&ServiceCd=130&Type=search", "url2": "https://www.big-advance.site/c/184/1817" }, "geometry": { "type": "Point", "coordinates": [ 130.6248981, 31.7187524 ] } },
{ "type": "Feature", "properties": { "内容": "リニエ訪問看護ステーションあいら【訪問看護】鹿児島県姶良市加治木町本町119季一遊201号室", "url": "https://www.kaigokensaku.mhlw.go.jp/46/index.php?action_kouhyou_detail_004_kani=true&JigyosyoCd=4664590256-00&ServiceCd=130&Type=search", "url2": "https://linie-group.jp/office/houmonkango-aira/" }, "geometry": { "type": "Point", "coordinates": [ 130.6658395, 31.73648140000001 ] } },
{ "type": "Feature", "properties": { "内容": "はなみずき訪問看護ステーション福洋【訪問看護】姶良市加治木町木田799-1", "url": "https://www.kaigokensaku.mhlw.go.jp/46/index.php?action_kouhyou_detail_004_kani=true&JigyosyoCd=4664590314-00&ServiceCd=130&Type=search", "url2": null }, "geometry": { "type": "Point", "coordinates": [ 130.653537533354495, 31.735121552676699 ] } },
{ "type": "Feature", "properties": { "内容": "訪問看護・リハクオラｕ【訪問看護】鹿児島県薩摩郡さつま町船木2311番地6", "url": "https://www.kaigokensaku.mhlw.go.jp/46/index.php?action_kouhyou_detail_004_kani=true&JigyosyoCd=4662590035-00&ServiceCd=130&Type=search", "url2": null }, "geometry": { "type": "Point", "coordinates": [ 130.43901100216894, 31.873159382163596 ] } },
{ "type": "Feature", "properties": { "内容": "ナガシマ訪問看護ステーション【訪問看護】鹿児島県出水郡長島町指江82－13長島クリニック２階", "url": "https://www.kaigokensaku.mhlw.go.jp/46/index.php?action_kouhyou_detail_004_kani=true&JigyosyoCd=4662690041-00&ServiceCd=130&Type=search", "url2": null }, "geometry": { "type": "Point", "coordinates": [ 130.116083, 32.15657130000001 ] } },
{ "type": "Feature", "properties": { "内容": "訪問看護ステーション達者の家【訪問看護】鹿児島県出水郡長島町鷹巣1799番地1", "url": "https://www.kaigokensaku.mhlw.go.jp/46/index.php?action_kouhyou_detail_004_kani=true&JigyosyoCd=4662690033-00&ServiceCd=130&Type=search", "url2": null }, "geometry": { "type": "Point", "coordinates": [ 130.176689799999963, 32.1972881 ] } },
{ "type": "Feature", "properties": { "内容": "訪問看護ステーション　南の太陽【訪問看護】鹿児島県肝属郡東串良町池之原2761-2", "url": "https://www.kaigokensaku.mhlw.go.jp/46/index.php?action_kouhyou_detail_004_kani=true&JigyosyoCd=4663090092-00&ServiceCd=130&Type=search", "url2": null }, "geometry": { "type": "Point", "coordinates": [ 130.972355300058837, 31.393179004010992 ] } },
{ "type": "Feature", "properties": { "内容": "訪問看護ステーション菜の花【訪問看護】鹿児島県肝属郡錦江町馬場998-1番地", "url": "https://www.kaigokensaku.mhlw.go.jp/46/index.php?action_kouhyou_detail_004_kani=true&JigyosyoCd=4663090050-00&ServiceCd=130&Type=search", "url2": null }, "geometry": { "type": "Point", "coordinates": [ -92.203396, 31.1131287 ] } },
{ "type": "Feature", "properties": { "内容": "医療法人社団春陽会　高山訪問看護ステーションたんぽぽ【訪問看護】鹿児島県肝属郡肝付町新富550番地1", "url": "https://www.kaigokensaku.mhlw.go.jp/46/index.php?action_kouhyou_detail_004_kani=true&JigyosyoCd=4663090019-00&ServiceCd=130&Type=search", "url2": "https://shunyoukai-central-hospital.jp/rf/home-nursing.html" }, "geometry": { "type": "Point", "coordinates": [ 130.947416387746983, 31.352662754179185 ] } },
{ "type": "Feature", "properties": { "内容": "訪問看護ステーションがじゅまる【訪問看護】鹿児島県熊毛郡中種子町野間4232-4", "url": "https://www.kaigokensaku.mhlw.go.jp/46/index.php?action_kouhyou_detail_004_kani=true&JigyosyoCd=4663190041-00&ServiceCd=130&Type=search", "url2": "http://hp.kaipoke.biz/mp2/" }, "geometry": { "type": "Point", "coordinates": [ 130.959972407934629, 30.540275794785479 ] } },
{ "type": "Feature", "properties": { "内容": "訪問看護ステーション　ことの葉【訪問看護】鹿児島県熊毛郡南種子町中之下1863-47", "url": "https://www.kaigokensaku.mhlw.go.jp/46/index.php?action_kouhyou_detail_004_kani=true&JigyosyoCd=4663190033-00&ServiceCd=130&Type=search", "url2": null }, "geometry": { "type": "Point", "coordinates": [ 130.89516792127165, 30.40932584244932 ] } },
{ "type": "Feature", "properties": { "内容": "訪問看護ステーション雲雀【訪問看護】鹿児島県熊毛郡屋久島町安房1796-14-107ヒバリーヒルズ", "url": "https://www.kaigokensaku.mhlw.go.jp/46/index.php?action_kouhyou_detail_004_kani=true&JigyosyoCd=4663190025-00&ServiceCd=130&Type=search", "url2": "yakushima-hibari.com" }, "geometry": { "type": "Point", "coordinates": [ 130.653893737703498, 30.316788461422679 ] } },
{ "type": "Feature", "properties": { "内容": "医療法人徳洲会屋久島徳洲会病院【訪問看護】熊毛郡屋久島町宮之浦2467番地", "url": "https://www.kaigokensaku.mhlw.go.jp/46/index.php?action_kouhyou_detail_004_kani=true&JigyosyoCd=4613110446-00&ServiceCd=130&Type=search", "url2": "http://yakutoku.com/" }, "geometry": { "type": "Point", "coordinates": [ 130.586549800000057, 30.4183409 ] } },
{ "type": "Feature", "properties": { "内容": "瀬戸内徳洲会病院訪問看護【訪問看護】鹿児島県大島郡瀬戸内町古仁屋字トンキャン原１３５８－１", "url": "https://www.kaigokensaku.mhlw.go.jp/46/index.php?action_kouhyou_detail_004_kani=true&JigyosyoCd=4613211384-00&ServiceCd=130&Type=search", "url2": "setoutisyokusyuukai.or.jp" }, "geometry": { "type": "Point", "coordinates": [ 129.310249, 28.1478515 ] } },
{ "type": "Feature", "properties": { "内容": "いもーれ奄美訪問看護ステーション【訪問看護】鹿児島県大島郡瀬戸内町大字手安字瀬戸田原809-2", "url": "https://www.kaigokensaku.mhlw.go.jp/46/index.php?action_kouhyou_detail_004_kani=true&JigyosyoCd=4663290148-00&ServiceCd=130&Type=search", "url2": null }, "geometry": { "type": "Point", "coordinates": [ 129.301860285180652, 28.151972395454283 ] } },
{ "type": "Feature", "properties": { "内容": "医療法人　徳洲会　喜界徳洲会病院　訪問看護【訪問看護】鹿児島県大島郡喜界町赤連105-5", "url": "https://www.kaigokensaku.mhlw.go.jp/46/index.php?action_kouhyou_detail_004_kani=true&JigyosyoCd=4613211004-00&ServiceCd=130&Type=search", "url2": "http://www.kikaitokushukai.jp" }, "geometry": { "type": "Point", "coordinates": [ 129.9400319, 28.316836 ] } },
{ "type": "Feature", "properties": { "内容": "医療法人南溟会宮上病院訪問看護【訪問看護】鹿児島県大島郡徳之島町亀津７２６８番地", "url": "https://www.kaigokensaku.mhlw.go.jp/46/index.php?action_kouhyou_detail_004_kani=true&JigyosyoCd=4613210634-00&ServiceCd=130&Type=search", "url2": "www.hospital-miyagami.com" }, "geometry": { "type": "Point", "coordinates": [ 129.018846599999961, 27.7276089 ] } },
{ "type": "Feature", "properties": { "内容": "光秀訪問看護リハビリステーション【訪問看護】鹿児島県大島郡伊仙町大字伊仙2093番地5", "url": "https://www.kaigokensaku.mhlw.go.jp/46/index.php?action_kouhyou_detail_004_kani=true&JigyosyoCd=4663290155-00&ServiceCd=130&Type=search", "url2": "https://koshu.satellite-sai-g.xyz/" }, "geometry": { "type": "Point", "coordinates": [ 128.904154, 27.7099634 ] } },
{ "type": "Feature", "properties": { "内容": "医療法人徳洲会　沖永良部徳洲会病院　訪問看護【訪問看護】瀬利覚2208番地沖永良部徳洲会病院", "url": "https://www.kaigokensaku.mhlw.go.jp/46/index.php?action_kouhyou_detail_004_kani=true&JigyosyoCd=4613210964-00&ServiceCd=130&Type=search", "url2": "https://erabu.tokushukai.or.jp/" }, "geometry": { "type": "Point", "coordinates": [ 128.576752199999987, 27.335181 ] } },
{ "type": "Feature", "properties": { "内容": "つむぎ訪問看護ステーション【訪問看護】鹿児島県大島郡与論町茶花254-1", "url": "https://www.kaigokensaku.mhlw.go.jp/46/index.php?action_kouhyou_detail_004_kani=true&JigyosyoCd=4663290171-00&ServiceCd=130&Type=search", "url2": null }, "geometry": { "type": "Point", "coordinates": [ 128.41672080655735, 27.048602361705058 ] } },
{ "type": "Feature", "properties": { "内容": "医療法人徳洲会　訪問看護ステーションゆんぬ【訪問看護】鹿児島県大島郡与論町大字茶花字赤佐241番地11", "url": "https://www.kaigokensaku.mhlw.go.jp/46/index.php?action_kouhyou_detail_004_kani=true&JigyosyoCd=4663290163-00&ServiceCd=130&Type=search", "url2": null }, "geometry": { "type": "Point", "coordinates": [ 128.419254099999989, 27.0493203 ] } }
]
}
