{
"type": "FeatureCollection",
"name": "geo_46_特定施設入居者生活介護（有料老人ホーム）",
"crs": { "type": "name", "properties": { "name": "urn:ogc:def:crs:OGC:1.3:CRS84" } },
"features": [
{ "type": "Feature", "properties": { "内容": "介護付有料老人ホームオアシスケア西坂元【特定施設入居者生活介護（有料老人ホーム）】鹿児島県鹿児島市西坂元町6番3号", "url": "https://www.kaigokensaku.mhlw.go.jp/46/index.php?action_kouhyou_detail_004_kani=true&JigyosyoCd=4670108937-00&ServiceCd=331&Type=search", "url2": "https://oasiscare.jp/" }, "geometry": { "type": "Point", "coordinates": [ 130.554382199999964, 31.6069717 ] } },
{ "type": "Feature", "properties": { "内容": "介護付き有料老人ホーム　慈愛の郷【特定施設入居者生活介護（有料老人ホーム）】鹿児島市高麗町39-11介護付き有料老人ホーム　慈愛の郷", "url": "https://www.kaigokensaku.mhlw.go.jp/46/index.php?action_kouhyou_detail_004_kani=true&JigyosyoCd=4670106774-00&ServiceCd=331&Type=search", "url2": "ｈｔｔｐ：//ｗｗｗ.jiainosato.jp/" }, "geometry": { "type": "Point", "coordinates": [ 130.550836200000049, 31.5783416 ] } },
{ "type": "Feature", "properties": { "内容": "介護付有料老人ホーム　ローズマリー【特定施設入居者生活介護（有料老人ホーム）】鹿児島県鹿児島市与次郎１丁目３番１２号", "url": "https://www.kaigokensaku.mhlw.go.jp/46/index.php?action_kouhyou_detail_004_kani=true&JigyosyoCd=4670109745-00&ServiceCd=331&Type=search", "url2": "http://www.koufuu-kai.jp/" }, "geometry": { "type": "Point", "coordinates": [ 130.559921900000063, 31.5680402 ] } },
{ "type": "Feature", "properties": { "内容": "グランガーデン鹿児島【特定施設入居者生活介護（有料老人ホーム）】鹿児島県鹿児島市鴨池一丁目55番10号グランガーデン鹿児島", "url": "https://www.kaigokensaku.mhlw.go.jp/46/index.php?action_kouhyou_detail_004_kani=true&JigyosyoCd=4670105826-00&ServiceCd=331&Type=search", "url2": "http://www.kyuden-glkago.co.jp/" }, "geometry": { "type": "Point", "coordinates": [ 130.5490201, 31.5632932 ] } },
{ "type": "Feature", "properties": { "内容": "介護付有料老人ホーム　けやき【特定施設入居者生活介護（有料老人ホーム）】鹿児島県鹿児島市伊敷台４丁目３４－１介護付有料老人ホームけやき", "url": "https://www.kaigokensaku.mhlw.go.jp/46/index.php?action_kouhyou_detail_004_kani=true&JigyosyoCd=4670106097-00&ServiceCd=331&Type=search", "url2": "https://kaigo-keitenkai.com" }, "geometry": { "type": "Point", "coordinates": [ 130.54406229999995, 31.6304946 ] } },
{ "type": "Feature", "properties": { "内容": "有料老人ホームひまわり【特定施設入居者生活介護（有料老人ホーム）】鹿児島県鹿児島市真砂本町３－８１－２階", "url": "https://www.kaigokensaku.mhlw.go.jp/46/index.php?action_kouhyou_detail_004_kani=true&JigyosyoCd=4670113283-00&ServiceCd=331&Type=search", "url2": "https://himawari.ookatsu.jp/" }, "geometry": { "type": "Point", "coordinates": [ 130.549229, 31.5571468 ] } },
{ "type": "Feature", "properties": { "内容": "有料老人ホーム　ふれあいの里山田【特定施設入居者生活介護（有料老人ホーム）】鹿児島県鹿児島市山田町２０７１－１", "url": "https://www.kaigokensaku.mhlw.go.jp/46/index.php?action_kouhyou_detail_004_kani=true&JigyosyoCd=4670107046-00&ServiceCd=331&Type=search", "url2": "https://ookatsu.jp/yamada/" }, "geometry": { "type": "Point", "coordinates": [ 130.508298664418021, 31.56412776169952 ] } },
{ "type": "Feature", "properties": { "内容": "介護付有料老人ホーム　クレセール天保山【特定施設入居者生活介護（有料老人ホーム）】鹿児島県鹿児島市下荒田2丁目39番－1号介護付有料老人ホームクレセール天保山", "url": "https://www.kaigokensaku.mhlw.go.jp/46/index.php?action_kouhyou_detail_004_kani=true&JigyosyoCd=4670107517-00&ServiceCd=331&Type=search", "url2": "www.crescertenpozan.com" }, "geometry": { "type": "Point", "coordinates": [ 130.559094100000038, 31.5734202 ] } },
{ "type": "Feature", "properties": { "内容": "ガーデンハウス慈遊館【特定施設入居者生活介護（有料老人ホーム）】鹿児島市下福元町3741", "url": "https://www.kaigokensaku.mhlw.go.jp/46/index.php?action_kouhyou_detail_004_kani=true&JigyosyoCd=4670105305-00&ServiceCd=331&Type=search", "url2": "http://www.jiyu-kan.com/gardenhouse/" }, "geometry": { "type": "Point", "coordinates": [ 130.497901599999977, 31.511135420758393 ] } },
{ "type": "Feature", "properties": { "内容": "介護ハウス　悠【特定施設入居者生活介護（有料老人ホーム）】鹿児島県鹿児島市山田町７３番地５介護ハウス　悠", "url": "https://www.kaigokensaku.mhlw.go.jp/46/index.php?action_kouhyou_detail_004_kani=true&JigyosyoCd=4670105347-00&ServiceCd=331&Type=search", "url2": null }, "geometry": { "type": "Point", "coordinates": [ 130.503494499999988, 31.5530938 ] } },
{ "type": "Feature", "properties": { "内容": "介護付有料老人ホームおあぞら四元【特定施設入居者生活介護（有料老人ホーム）】四元町1097-1", "url": "https://www.kaigokensaku.mhlw.go.jp/46/index.php?action_kouhyou_detail_004_kani=true&JigyosyoCd=4673100071-00&ServiceCd=331&Type=search", "url2": "https://www.aozora-cg.com/project" }, "geometry": { "type": "Point", "coordinates": [ 130.437141699999984, 31.5768952 ] } },
{ "type": "Feature", "properties": { "内容": "マリンピア与次郎【特定施設入居者生活介護（有料老人ホーム）】鹿児島県鹿児島市与次郎2丁目9-2", "url": "https://www.kaigokensaku.mhlw.go.jp/46/index.php?action_kouhyou_detail_004_kani=true&JigyosyoCd=4670112418-00&ServiceCd=331&Type=search", "url2": "http://yojirohome.jp" }, "geometry": { "type": "Point", "coordinates": [ 130.561845400000038, 31.5577563 ] } },
{ "type": "Feature", "properties": { "内容": "ボルベール石燈籠【特定施設入居者生活介護（有料老人ホーム）】鹿児島市泉町13番5号ボルベール石燈籠", "url": "https://www.kaigokensaku.mhlw.go.jp/46/index.php?action_kouhyou_detail_004_kani=true&JigyosyoCd=4670106782-00&ServiceCd=331&Type=search", "url2": "https://www.sanaikai.or.jp/volver-izuro/" }, "geometry": { "type": "Point", "coordinates": [ 130.560046199999988, 31.5928096 ] } },
{ "type": "Feature", "properties": { "内容": "株式会社トータルケア【特定施設入居者生活介護（有料老人ホーム）】鹿児島県鹿屋市横山町２７６０番地１", "url": "https://www.kaigokensaku.mhlw.go.jp/46/index.php?action_kouhyou_detail_004_kani=true&JigyosyoCd=4670300922-00&ServiceCd=331&Type=search", "url2": null }, "geometry": { "type": "Point", "coordinates": [ 130.8213442, 31.3447887 ] } },
{ "type": "Feature", "properties": { "内容": "有料老人ホームことぶき【特定施設入居者生活介護（有料老人ホーム）】出水市上鯖渕48番地1", "url": "https://www.kaigokensaku.mhlw.go.jp/46/index.php?action_kouhyou_detail_004_kani=true&JigyosyoCd=4670800400-00&ServiceCd=331&Type=search", "url2": "http://seishou.biz/" }, "geometry": { "type": "Point", "coordinates": [ 130.359030399999938, 32.0846671 ] } },
{ "type": "Feature", "properties": { "内容": "有料老人ホームつどい【特定施設入居者生活介護（有料老人ホーム）】鹿児島県出水市高尾野町下水流993-1", "url": "https://www.kaigokensaku.mhlw.go.jp/46/index.php?action_kouhyou_detail_004_kani=true&JigyosyoCd=4674800190-00&ServiceCd=331&Type=search", "url2": null }, "geometry": { "type": "Point", "coordinates": [ 130.292326499999945, 32.0966707 ] } },
{ "type": "Feature", "properties": { "内容": "介護付有料老人ホームスマイル【特定施設入居者生活介護（有料老人ホーム）】指宿市十二町503-6", "url": "https://www.kaigokensaku.mhlw.go.jp/46/index.php?action_kouhyou_detail_004_kani=true&JigyosyoCd=4671000323-00&ServiceCd=331&Type=search", "url2": "https://ursmile.co.jp/" }, "geometry": { "type": "Point", "coordinates": [ 130.636945299999979, 31.2386856 ] } },
{ "type": "Feature", "properties": { "内容": "介護付有料老人ホーム　ビクトリア街【特定施設入居者生活介護（有料老人ホーム）】日置市伊集院町徳重342番3", "url": "https://www.kaigokensaku.mhlw.go.jp/46/index.php?action_kouhyou_detail_004_kani=true&JigyosyoCd=4671500223-00&ServiceCd=331&Type=search", "url2": "http://www.seishin-kai.org/vt/" }, "geometry": { "type": "Point", "coordinates": [ 130.395328100000029, 31.6308531 ] } },
{ "type": "Feature", "properties": { "内容": "介護付有料老人ホーム　ウェルリンク【特定施設入居者生活介護（有料老人ホーム）】鹿児島県曽於市大隅町月野1583番地2", "url": "https://www.kaigokensaku.mhlw.go.jp/46/index.php?action_kouhyou_detail_004_kani=true&JigyosyoCd=4671600254-00&ServiceCd=331&Type=search", "url2": "https://osumikai.net" }, "geometry": { "type": "Point", "coordinates": [ 131.014125700000022, 31.5758112 ] } },
{ "type": "Feature", "properties": { "内容": "介護付有料老人ホーム　サンライズ霧島【特定施設入居者生活介護（有料老人ホーム）】鹿児島県霧島市霧島田口577番1", "url": "https://www.kaigokensaku.mhlw.go.jp/46/index.php?action_kouhyou_detail_004_kani=true&JigyosyoCd=4671201863-00&ServiceCd=331&Type=search", "url2": null }, "geometry": { "type": "Point", "coordinates": [ 130.8406024, 31.83204 ] } },
{ "type": "Feature", "properties": { "内容": "はぴね国分【特定施設入居者生活介護（有料老人ホーム）】鹿児島県霧島市国分中央6丁目21-13はぴね国分", "url": "https://www.kaigokensaku.mhlw.go.jp/46/index.php?action_kouhyou_detail_004_kani=true&JigyosyoCd=4671201293-00&ServiceCd=331&Type=search", "url2": "http://www.greenlife-inc.co.jp" }, "geometry": { "type": "Point", "coordinates": [ 130.767730600000021, 31.734016100000041 ] } },
{ "type": "Feature", "properties": { "内容": "はぴね隼人【特定施設入居者生活介護（有料老人ホーム）】隼人町姫城1050番地1はぴね隼人", "url": "https://www.kaigokensaku.mhlw.go.jp/46/index.php?action_kouhyou_detail_004_kani=true&JigyosyoCd=4671201285-00&ServiceCd=331&Type=search", "url2": "http://www.greenlife-inc.co.jp/" }, "geometry": { "type": "Point", "coordinates": [ 130.757621699999987, 31.76004990000003 ] } },
{ "type": "Feature", "properties": { "内容": "かいごつきゆうりょうろうじんほーむゆうらくかん【特定施設入居者生活介護（有料老人ホーム）】隼人町小田220番地", "url": "https://www.kaigokensaku.mhlw.go.jp/46/index.php?action_kouhyou_detail_004_kani=true&JigyosyoCd=4671200709-00&ServiceCd=331&Type=search", "url2": null }, "geometry": { "type": "Point", "coordinates": [ 130.725299100000029, 31.7371177 ] } },
{ "type": "Feature", "properties": { "内容": "介護付有料老人ホームみち草【特定施設入居者生活介護（有料老人ホーム）】鹿児島県霧島市霧島田口２１４３番地", "url": "https://www.kaigokensaku.mhlw.go.jp/46/index.php?action_kouhyou_detail_004_kani=true&JigyosyoCd=4676000112-00&ServiceCd=331&Type=search", "url2": "http://www.kouseikai.info" }, "geometry": { "type": "Point", "coordinates": [ 130.855783323942546, 31.847110513565891 ] } },
{ "type": "Feature", "properties": { "内容": "有料老人ホーム協愛【特定施設入居者生活介護（有料老人ホーム）】鹿児島県霧島市国分下井781番2", "url": "https://www.kaigokensaku.mhlw.go.jp/46/index.php?action_kouhyou_detail_004_kani=true&JigyosyoCd=4671201202-00&ServiceCd=331&Type=search", "url2": "https://kyouai-kaigo.com" }, "geometry": { "type": "Point", "coordinates": [ 130.782912145082832, 31.7156066116418 ] } },
{ "type": "Feature", "properties": { "内容": "介護付有料老人ホームうらら【特定施設入居者生活介護（有料老人ホーム）】鹿児島県霧島市国分下井2988", "url": "https://www.kaigokensaku.mhlw.go.jp/46/index.php?action_kouhyou_detail_004_kani=true&JigyosyoCd=4671201905-00&ServiceCd=331&Type=search", "url2": "https://www.aozora-cg.com/" }, "geometry": { "type": "Point", "coordinates": [ 130.7768691, 31.7092515 ] } },
{ "type": "Feature", "properties": { "内容": "介護付有料老人ホームはな【特定施設入居者生活介護（有料老人ホーム）】鹿児島県霧島市国分清水1-2-23介護付有料老人ホームはな", "url": "https://www.kaigokensaku.mhlw.go.jp/46/index.php?action_kouhyou_detail_004_kani=true&JigyosyoCd=4671200956-00&ServiceCd=331&Type=search", "url2": null }, "geometry": { "type": "Point", "coordinates": [ 130.771885099999963, 31.7499897 ] } },
{ "type": "Feature", "properties": { "内容": "介護付有料老人ホーム今日館【特定施設入居者生活介護（有料老人ホーム）】鹿児島県霧島市隼人町住吉１８８番地", "url": "https://www.kaigokensaku.mhlw.go.jp/46/index.php?action_kouhyou_detail_004_kani=true&JigyosyoCd=4671201038-00&ServiceCd=331&Type=search", "url2": "https://www.yoshimitsu-group.com" }, "geometry": { "type": "Point", "coordinates": [ 130.747286230224631, 31.723802009384851 ] } },
{ "type": "Feature", "properties": { "内容": "介護付有料老人ホーム　光里苑【特定施設入居者生活介護（有料老人ホーム）】鹿児島県いちき串木野市湊町2744-1", "url": "https://www.kaigokensaku.mhlw.go.jp/46/index.php?action_kouhyou_detail_004_kani=true&JigyosyoCd=4670500356-00&ServiceCd=331&Type=search", "url2": "http://www.seishin-kai.org/ke/" }, "geometry": { "type": "Point", "coordinates": [ 130.293292147360233, 31.697081923062665 ] } },
{ "type": "Feature", "properties": { "内容": "有料老人ホームひかりの丘【特定施設入居者生活介護（有料老人ホーム）】鹿児島県志布志市志布志町志布志1347番地", "url": "https://www.kaigokensaku.mhlw.go.jp/46/index.php?action_kouhyou_detail_004_kani=true&JigyosyoCd=4676800230-00&ServiceCd=331&Type=search", "url2": "http://confiance2002.com/" }, "geometry": { "type": "Point", "coordinates": [ 131.085034800000017, 31.4827518 ] } },
{ "type": "Feature", "properties": { "内容": "介護付有料老人ホーム　一茶ん家【特定施設入居者生活介護（有料老人ホーム）】鹿児島県志布志市有明町伊崎田８７９１－１", "url": "https://www.kaigokensaku.mhlw.go.jp/46/index.php?action_kouhyou_detail_004_kani=true&JigyosyoCd=4671700153-00&ServiceCd=331&Type=search", "url2": null }, "geometry": { "type": "Point", "coordinates": [ 131.057014699999968, 31.52836 ] } },
{ "type": "Feature", "properties": { "内容": "有料老人ホームいきいきホーム【特定施設入居者生活介護（有料老人ホーム）】鹿児島県奄美市名瀬朝日町２３－１いきいきホーム", "url": "https://www.kaigokensaku.mhlw.go.jp/46/index.php?action_kouhyou_detail_004_kani=true&JigyosyoCd=4670701111-00&ServiceCd=331&Type=search", "url2": "https://tokushukai-amami-area.com/group/facility/paid-nursing-home/ikiikihome/" }, "geometry": { "type": "Point", "coordinates": [ 129.52698369999996, 28.3996021 ] } },
{ "type": "Feature", "properties": { "内容": "シニアマンション鹿児島信愛（介護付）【特定施設入居者生活介護（有料老人ホーム）】鹿児島県姶良市脇元956番地1シニアマンション鹿児島信愛", "url": "https://www.kaigokensaku.mhlw.go.jp/46/index.php?action_kouhyou_detail_004_kani=true&JigyosyoCd=4674500436-00&ServiceCd=331&Type=search", "url2": "https://yoshimitsu-group.com/service/" }, "geometry": { "type": "Point", "coordinates": [ 130.619059200000038, 31.7133103 ] } },
{ "type": "Feature", "properties": { "内容": "介護付有料老人ホーム菱の里【特定施設入居者生活介護（有料老人ホーム）】鹿児島県曽於郡大崎町菱田２７８０番地１", "url": "https://www.kaigokensaku.mhlw.go.jp/46/index.php?action_kouhyou_detail_004_kani=true&JigyosyoCd=4677000194-00&ServiceCd=331&Type=search", "url2": null }, "geometry": { "type": "Point", "coordinates": [ 131.029481974205027, 31.447087930829539 ] } },
{ "type": "Feature", "properties": { "内容": "有料老人ホームひまわり苑【特定施設入居者生活介護（有料老人ホーム）】鹿児島県大島郡喜界町塩道１５３６番地１２", "url": "https://www.kaigokensaku.mhlw.go.jp/46/index.php?action_kouhyou_detail_004_kani=true&JigyosyoCd=4679000168-00&ServiceCd=331&Type=search", "url2": null }, "geometry": { "type": "Point", "coordinates": [ 130.005973099999977, 28.3363471 ] } }
]
}
