{
"type": "FeatureCollection",
"name": "geo_46_専修学校",
"crs": { "type": "name", "properties": { "name": "urn:ogc:def:crs:EPSG::6668" } },
"features": [
{ "type": "Feature", "properties": { "P29_001": "46203", "P29_002": "H146210000012", "P29_003": "16016", "P29_004": "鹿屋市立鹿屋看護専門学校", "P29_005": "鹿児島県鹿屋市西原3-7-40", "P29_006": "3", "P29_007": "0", "P29_008": "00", "P29_009": null }, "geometry": { "type": "Point", "coordinates": [ 130.837504343704779, 31.382013868298657 ] } },
{ "type": "Feature", "properties": { "P29_001": "46216", "P29_002": "H146210000021", "P29_003": "16016", "P29_004": "鹿児島県立農業大学校", "P29_005": "鹿児島県日置市吹上町和田1800", "P29_006": "2", "P29_007": "0", "P29_008": "00", "P29_009": null }, "geometry": { "type": "Point", "coordinates": [ 130.348408720819833, 31.482952575333378 ] } },
{ "type": "Feature", "properties": { "P29_001": "46218", "P29_002": "H146310000010", "P29_003": "16016", "P29_004": "鹿児島中央専門学校", "P29_005": "鹿児島県霧島市隼人町神宮5-11-7", "P29_006": "4", "P29_007": "0", "P29_008": "00", "P29_009": null }, "geometry": { "type": "Point", "coordinates": [ 130.744162199766038, 31.751556125061814 ] } },
{ "type": "Feature", "properties": { "P29_001": "46201", "P29_002": "H146310000029", "P29_003": "16016", "P29_004": "赤塚学園美容・デザイン専門学校", "P29_005": "鹿児島県鹿児島市上荒田町6-1", "P29_006": "4", "P29_007": "0", "P29_008": "00", "P29_009": null }, "geometry": { "type": "Point", "coordinates": [ 130.543945737789699, 31.5775337087791 ] } },
{ "type": "Feature", "properties": { "P29_001": "46201", "P29_002": "H146310000038", "P29_003": "16016", "P29_004": "鹿児島看護専門学校", "P29_005": "鹿児島県鹿児島市永吉1-18-2", "P29_006": "4", "P29_007": "0", "P29_008": "00", "P29_009": null }, "geometry": { "type": "Point", "coordinates": [ 130.534520904224877, 31.599622402922659 ] } },
{ "type": "Feature", "properties": { "P29_001": "46218", "P29_002": "H146310000047", "P29_003": "16016", "P29_004": "たちばな医療専門学校", "P29_005": "鹿児島県霧島市真孝910-7", "P29_006": "4", "P29_007": "0", "P29_008": "00", "P29_009": null }, "geometry": { "type": "Point", "coordinates": [ 130.731838084259579, 31.729858612612226 ] } },
{ "type": "Feature", "properties": { "P29_001": "46218", "P29_002": "H146310000056", "P29_003": "16016", "P29_004": "仁心看護専門学校", "P29_005": "鹿児島県霧島市真孝910-7", "P29_006": "4", "P29_007": "0", "P29_008": "00", "P29_009": null }, "geometry": { "type": "Point", "coordinates": [ 130.731798645507752, 31.729891999651215 ] } },
{ "type": "Feature", "properties": { "P29_001": "46201", "P29_002": "H146310000065", "P29_003": "16016", "P29_004": "今村学園ライセンスアカデミー", "P29_005": "鹿児島県鹿児島市新屋敷町2-10", "P29_006": "4", "P29_007": "0", "P29_008": "00", "P29_009": null }, "geometry": { "type": "Point", "coordinates": [ 130.553925783593058, 31.581454709703564 ] } },
{ "type": "Feature", "properties": { "P29_001": "46201", "P29_002": "H146310000074", "P29_003": "16016", "P29_004": "鹿児島県理容美容専門学校", "P29_005": "鹿児島県鹿児島市加治屋町17-7", "P29_006": "4", "P29_007": "0", "P29_008": "00", "P29_009": null }, "geometry": { "type": "Point", "coordinates": [ 130.551716178953285, 31.585926129518867 ] } },
{ "type": "Feature", "properties": { "P29_001": "46201", "P29_002": "H146310000083", "P29_003": "16016", "P29_004": "野村服飾専門学校", "P29_005": "鹿児島県鹿児島市下荒田3-28-12", "P29_006": "4", "P29_007": "0", "P29_008": "00", "P29_009": null }, "geometry": { "type": "Point", "coordinates": [ 130.552384074583955, 31.569979093340613 ] } },
{ "type": "Feature", "properties": { "P29_001": "46201", "P29_002": "H146310000092", "P29_003": "16016", "P29_004": "鹿児島中央看護専門学校", "P29_005": "鹿児島県鹿児島市泉町12-7", "P29_006": "4", "P29_007": "0", "P29_008": "00", "P29_009": null }, "geometry": { "type": "Point", "coordinates": [ 130.559762568891898, 31.592652591412214 ] } },
{ "type": "Feature", "properties": { "P29_001": "46201", "P29_002": "H146310000109", "P29_003": "16016", "P29_004": "鹿児島工学院専門学校", "P29_005": "鹿児島県鹿児島市五ヶ別府町3721-7", "P29_006": "4", "P29_007": "0", "P29_008": "00", "P29_009": null }, "geometry": { "type": "Point", "coordinates": [ 130.488123538388749, 31.588995229726049 ] } },
{ "type": "Feature", "properties": { "P29_001": "46201", "P29_002": "H146310000118", "P29_003": "16016", "P29_004": "第一東大医進予備校", "P29_005": "鹿児島県鹿児島市上荒田町7-14", "P29_006": "4", "P29_007": "0", "P29_008": "00", "P29_009": null }, "geometry": { "type": "Point", "coordinates": [ 130.544976002018615, 31.577526567458928 ] } },
{ "type": "Feature", "properties": { "P29_001": "46201", "P29_002": "H146310000127", "P29_003": "16016", "P29_004": "鹿児島歯科学院専門学校", "P29_005": "鹿児島県鹿児島市照国町13-15", "P29_006": "4", "P29_007": "0", "P29_008": "00", "P29_009": null }, "geometry": { "type": "Point", "coordinates": [ 130.551626734625984, 31.592192764447795 ] } },
{ "type": "Feature", "properties": { "P29_001": "46215", "P29_002": "H146310000145", "P29_003": "16016", "P29_004": "川内看護専門学校", "P29_005": "鹿児島県薩摩川内市大小路町70-26", "P29_006": "4", "P29_007": "0", "P29_008": "00", "P29_009": null }, "geometry": { "type": "Point", "coordinates": [ 130.307096897921923, 31.822183617758121 ] } },
{ "type": "Feature", "properties": { "P29_001": "46201", "P29_002": "H146310000154", "P29_003": "16016", "P29_004": "鹿児島県医療法人協会立看護専門学校", "P29_005": "鹿児島県鹿児島市中山町878-1", "P29_006": "4", "P29_007": "0", "P29_008": "00", "P29_009": null }, "geometry": { "type": "Point", "coordinates": [ 130.497421364691007, 31.547555745448186 ] } },
{ "type": "Feature", "properties": { "P29_001": "46201", "P29_002": "H146310000163", "P29_003": "16016", "P29_004": "鹿児島鍼灸専門学校", "P29_005": "鹿児島県鹿児島市高麗町37-7", "P29_006": "4", "P29_007": "0", "P29_008": "00", "P29_009": null }, "geometry": { "type": "Point", "coordinates": [ 130.551003922746816, 31.579299544292464 ] } },
{ "type": "Feature", "properties": { "P29_001": "46201", "P29_002": "H146310000172", "P29_003": "16016", "P29_004": "ＫＣＳ鹿児島情報専門学校", "P29_005": "鹿児島県鹿児島市郡元1-9-5", "P29_006": "4", "P29_007": "0", "P29_008": "00", "P29_009": null }, "geometry": { "type": "Point", "coordinates": [ 130.54198487147417, 31.567212591118842 ] } },
{ "type": "Feature", "properties": { "P29_001": "46201", "P29_002": "H146310000181", "P29_003": "16016", "P29_004": "鹿児島情報ビジネス公務員専門学校", "P29_005": "鹿児島県鹿児島市東千石町19-32", "P29_006": "4", "P29_007": "0", "P29_008": "00", "P29_009": null }, "geometry": { "type": "Point", "coordinates": [ 130.554367165173176, 31.593193010013088 ] } },
{ "type": "Feature", "properties": { "P29_001": "46201", "P29_002": "H146310000190", "P29_003": "16016", "P29_004": "鹿児島キャリアデザイン専門学校", "P29_005": "鹿児島県鹿児島市谷山中央2-4173", "P29_006": "4", "P29_007": "0", "P29_008": "00", "P29_009": null }, "geometry": { "type": "Point", "coordinates": [ 130.521249394902981, 31.526507068051508 ] } },
{ "type": "Feature", "properties": { "P29_001": "46201", "P29_002": "H146310000207", "P29_003": "16016", "P29_004": "鹿児島医療福祉専門学校", "P29_005": "鹿児島県鹿児島市田上8-21-3", "P29_006": "4", "P29_007": "0", "P29_008": "00", "P29_009": null }, "geometry": { "type": "Point", "coordinates": [ 130.502821225780792, 31.594590985220766 ] } },
{ "type": "Feature", "properties": { "P29_001": "46206", "P29_002": "H146310000216", "P29_003": "16016", "P29_004": "出水郡医師会広域医療センター附属阿久根看護学校", "P29_005": "鹿児島県阿久根市赤瀬川4513", "P29_006": "4", "P29_007": "0", "P29_008": "00", "P29_009": null }, "geometry": { "type": "Point", "coordinates": [ 130.194894919779045, 32.027239320340115 ] } },
{ "type": "Feature", "properties": { "P29_001": "46201", "P29_002": "H146310000225", "P29_003": "16016", "P29_004": "南九州医療事務医療秘書専門学校", "P29_005": "鹿児島県鹿児島市荒田1-27-1", "P29_006": "4", "P29_007": "0", "P29_008": "00", "P29_009": null }, "geometry": { "type": "Point", "coordinates": [ 130.548766451875764, 31.57666867080637 ] } },
{ "type": "Feature", "properties": { "P29_001": "46201", "P29_002": "H146310000234", "P29_003": "16016", "P29_004": "久木田学園看護専門学校", "P29_005": "鹿児島県鹿児島市本名町481-1", "P29_006": "4", "P29_007": "0", "P29_008": "00", "P29_009": null }, "geometry": { "type": "Point", "coordinates": [ 130.551030243634813, 31.579446902817686 ] } },
{ "type": "Feature", "properties": { "P29_001": "46201", "P29_002": "H146310000243", "P29_003": "16016", "P29_004": "鹿児島医療技術専門学校", "P29_005": "鹿児島県鹿児島市平川町宇都口5417-1", "P29_006": "4", "P29_007": "0", "P29_008": "00", "P29_009": null }, "geometry": { "type": "Point", "coordinates": [ 130.506822111410969, 31.433869129287494 ] } },
{ "type": "Feature", "properties": { "P29_001": "46225", "P29_002": "H146310000252", "P29_003": "16016", "P29_004": "加治木看護専門学校", "P29_005": "鹿児島県姶良市加治木町港町131-1", "P29_006": "4", "P29_007": "0", "P29_008": "00", "P29_009": null }, "geometry": { "type": "Point", "coordinates": [ 130.665129655210677, 31.733651877493251 ] } },
{ "type": "Feature", "properties": { "P29_001": "46201", "P29_002": "H146310000261", "P29_003": "16016", "P29_004": "鹿児島公務員専修学校", "P29_005": "鹿児島県鹿児島市田上1-12-2", "P29_006": "4", "P29_007": "0", "P29_008": "00", "P29_009": null }, "geometry": { "type": "Point", "coordinates": [ 130.531736898146335, 31.576278790887134 ] } },
{ "type": "Feature", "properties": { "P29_001": "46201", "P29_002": "H146310000270", "P29_003": "16016", "P29_004": "鹿児島外語学院", "P29_005": "鹿児島県鹿児島市下荒田4-41-4", "P29_006": "4", "P29_007": "0", "P29_008": "00", "P29_009": null }, "geometry": { "type": "Point", "coordinates": [ 130.555756799182348, 31.567258547944981 ] } },
{ "type": "Feature", "properties": { "P29_001": "46219", "P29_002": "H146310000289", "P29_003": "16016", "P29_004": "神村学園専修学校", "P29_005": "鹿児島県いちき串木野市別府4460", "P29_006": "4", "P29_007": "0", "P29_008": "00", "P29_009": null }, "geometry": { "type": "Point", "coordinates": [ 130.28198153946073, 31.704167617752777 ] } },
{ "type": "Feature", "properties": { "P29_001": "46201", "P29_002": "H146310000298", "P29_003": "16016", "P29_004": "鹿児島高等予備校", "P29_005": "鹿児島県鹿児島市高麗町15-10", "P29_006": "4", "P29_007": "0", "P29_008": "00", "P29_009": null }, "geometry": { "type": "Point", "coordinates": [ 130.552256390425015, 31.581074441348985 ] } },
{ "type": "Feature", "properties": { "P29_001": "46222", "P29_002": "H146310000305", "P29_003": "16016", "P29_004": "奄美看護福祉専門学校", "P29_005": "鹿児島県奄美市名瀬小湊外金久338-2", "P29_006": "4", "P29_007": "0", "P29_008": "00", "P29_009": null }, "geometry": { "type": "Point", "coordinates": [ 129.531902768666498, 28.323832830443845 ] } },
{ "type": "Feature", "properties": { "P29_001": "46201", "P29_002": "H146310000314", "P29_003": "16016", "P29_004": "鹿児島レディスカレッジ", "P29_005": "鹿児島県鹿児島市加治屋町12-9", "P29_006": "4", "P29_007": "0", "P29_008": "00", "P29_009": null }, "geometry": { "type": "Point", "coordinates": [ 130.549398424584098, 31.587662485995505 ] } },
{ "type": "Feature", "properties": { "P29_001": "46201", "P29_002": "H146310000323", "P29_003": "16016", "P29_004": "鹿児島県美容専門学校", "P29_005": "鹿児島県鹿児島市鴨池2-4-6", "P29_006": "4", "P29_007": "0", "P29_008": "00", "P29_009": null }, "geometry": { "type": "Point", "coordinates": [ 130.553063585986422, 31.567417504979566 ] } },
{ "type": "Feature", "properties": { "P29_001": "46218", "P29_002": "H146310000332", "P29_003": "16016", "P29_004": "鹿児島第一医療リハビリ専門学校", "P29_005": "鹿児島県霧島市国分中央1-12-42", "P29_006": "4", "P29_007": "0", "P29_008": "00", "P29_009": null }, "geometry": { "type": "Point", "coordinates": [ 130.769400749286319, 31.747870148262084 ] } },
{ "type": "Feature", "properties": { "P29_001": "46201", "P29_002": "H146310000350", "P29_003": "16016", "P29_004": "独立行政法人国立病院機構鹿児島医療センター附属鹿児島看護学校", "P29_005": "鹿児島県鹿児島市下伊敷1-52-17", "P29_006": "0", "P29_007": "0", "P29_008": "00", "P29_009": null }, "geometry": { "type": "Point", "coordinates": [ 130.53259101442049, 31.615514822930503 ] } },
{ "type": "Feature", "properties": { "P29_001": "46201", "P29_002": "H146310000369", "P29_003": "16016", "P29_004": "北九州予備校鹿児島校", "P29_005": "鹿児島県鹿児島市西田1-7-3", "P29_006": "4", "P29_007": "0", "P29_008": "00", "P29_009": null }, "geometry": { "type": "Point", "coordinates": [ 130.54408538957253, 31.587845078387815 ] } },
{ "type": "Feature", "properties": { "P29_001": "46222", "P29_002": "H146310000378", "P29_003": "16016", "P29_004": "奄美情報処理専門学校", "P29_005": "鹿児島県奄美市小俣町3-50", "P29_006": "4", "P29_007": "0", "P29_008": "00", "P29_009": null }, "geometry": { "type": "Point", "coordinates": [ 129.502389569016202, 28.371558669337603 ] } },
{ "type": "Feature", "properties": { "P29_001": "46201", "P29_002": "H146310000387", "P29_003": "16016", "P29_004": "赤塚学園看護専門学校", "P29_005": "鹿児島県鹿児島市上荒田町21-12", "P29_006": "4", "P29_007": "0", "P29_008": "00", "P29_009": null }, "geometry": { "type": "Point", "coordinates": [ 130.543468155506901, 31.577157910623264 ] } },
{ "type": "Feature", "properties": { "P29_001": "46201", "P29_002": "H146310000396", "P29_003": "16016", "P29_004": "鹿児島環境・情報専門学校", "P29_005": "鹿児島県鹿児島市田上3-4-8", "P29_006": "4", "P29_007": "0", "P29_008": "00", "P29_009": null }, "geometry": { "type": "Point", "coordinates": [ 130.530054933072392, 31.575160783205529 ] } },
{ "type": "Feature", "properties": { "P29_001": "46201", "P29_002": "H146310000403", "P29_003": "16016", "P29_004": "鹿児島医療工学専門学校", "P29_005": "鹿児島県鹿児島市船津町4-18", "P29_006": "4", "P29_007": "0", "P29_008": "00", "P29_009": null }, "geometry": { "type": "Point", "coordinates": [ 130.558368311779333, 31.588333259035636 ] } }
]
}
