{
"type": "FeatureCollection",
"name": "geo_46_中学校",
"crs": { "type": "name", "properties": { "name": "urn:ogc:def:crs:EPSG::6668" } },
"features": [
{ "type": "Feature", "properties": { "P29_001": "46201", "P29_002": "C146110000015", "P29_003": "16002", "P29_004": "鹿児島大学教育学部附属中学校", "P29_005": "鹿児島県鹿児島市郡元1-20-35", "P29_006": "1", "P29_007": "1", "P29_008": "00", "P29_009": null }, "geometry": { "type": "Point", "coordinates": [ 130.544060899961295, 31.566785516847467 ] } },
{ "type": "Feature", "properties": { "P29_001": "46201", "P29_002": "C146210000013", "P29_003": "16002", "P29_004": "鹿児島市立吉野中学校", "P29_005": "鹿児島県鹿児島市吉野町3074", "P29_006": "3", "P29_007": "1", "P29_008": "00", "P29_009": null }, "geometry": { "type": "Point", "coordinates": [ 130.572684188617274, 31.646714495601934 ] } },
{ "type": "Feature", "properties": { "P29_001": "46201", "P29_002": "C146210000022", "P29_003": "16002", "P29_004": "鹿児島市立清水中学校", "P29_005": "鹿児島県鹿児島市稲荷町36-29", "P29_006": "3", "P29_007": "1", "P29_008": "00", "P29_009": null }, "geometry": { "type": "Point", "coordinates": [ 130.565782544660948, 31.612379989000534 ] } },
{ "type": "Feature", "properties": { "P29_001": "46201", "P29_002": "C146210000031", "P29_003": "16002", "P29_004": "鹿児島市立長田中学校", "P29_005": "鹿児島県鹿児島市小川町3-10", "P29_006": "3", "P29_007": "1", "P29_008": "00", "P29_009": null }, "geometry": { "type": "Point", "coordinates": [ 130.55913076779035, 31.600285590071749 ] } },
{ "type": "Feature", "properties": { "P29_001": "46201", "P29_002": "C146210000040", "P29_003": "16002", "P29_004": "鹿児島市立甲東中学校", "P29_005": "鹿児島県鹿児島市樋之口町4-38", "P29_006": "3", "P29_007": "1", "P29_008": "00", "P29_009": null }, "geometry": { "type": "Point", "coordinates": [ 130.554016490786466, 31.585387428171622 ] } },
{ "type": "Feature", "properties": { "P29_001": "46201", "P29_002": "C146210000059", "P29_003": "16002", "P29_004": "鹿児島市立城西中学校", "P29_005": "鹿児島県鹿児島市城西2-3-12", "P29_006": "3", "P29_007": "1", "P29_008": "00", "P29_009": null }, "geometry": { "type": "Point", "coordinates": [ 130.539275042190525, 31.596355537861964 ] } },
{ "type": "Feature", "properties": { "P29_001": "46201", "P29_002": "C146210000068", "P29_003": "16002", "P29_004": "鹿児島市立武中学校", "P29_005": "鹿児島県鹿児島市武3-42-1", "P29_006": "3", "P29_007": "1", "P29_008": "00", "P29_009": null }, "geometry": { "type": "Point", "coordinates": [ 130.53332507911648, 31.581112112520533 ] } },
{ "type": "Feature", "properties": { "P29_001": "46201", "P29_002": "C146210000077", "P29_003": "16002", "P29_004": "鹿児島市立甲南中学校", "P29_005": "鹿児島県鹿児島市高麗町36-32", "P29_006": "3", "P29_007": "1", "P29_008": "00", "P29_009": null }, "geometry": { "type": "Point", "coordinates": [ 130.550253791127346, 31.579341813243129 ] } },
{ "type": "Feature", "properties": { "P29_001": "46201", "P29_002": "C146210000086", "P29_003": "16002", "P29_004": "鹿児島市立天保山中学校", "P29_005": "鹿児島県鹿児島市下荒田2-31-15", "P29_006": "3", "P29_007": "1", "P29_008": "00", "P29_009": null }, "geometry": { "type": "Point", "coordinates": [ 130.559374674058802, 31.575230183319 ] } },
{ "type": "Feature", "properties": { "P29_001": "46201", "P29_002": "C146210000095", "P29_003": "16002", "P29_004": "鹿児島市立鴨池中学校", "P29_005": "鹿児島県鹿児島市真砂本町58-58", "P29_006": "3", "P29_007": "1", "P29_008": "00", "P29_009": null }, "geometry": { "type": "Point", "coordinates": [ 130.553600679165953, 31.553878129573 ] } },
{ "type": "Feature", "properties": { "P29_001": "46201", "P29_002": "C146210000102", "P29_003": "16002", "P29_004": "鹿児島市立南中学校", "P29_005": "鹿児島県鹿児島市東郡元13-34", "P29_006": "3", "P29_007": "1", "P29_008": "00", "P29_009": null }, "geometry": { "type": "Point", "coordinates": [ 130.546763520344996, 31.553634516010074 ] } },
{ "type": "Feature", "properties": { "P29_001": "46201", "P29_002": "C146210000111", "P29_003": "16002", "P29_004": "鹿児島市立紫原中学校", "P29_005": "鹿児島県鹿児島市紫原6-31-19", "P29_006": "3", "P29_007": "1", "P29_008": "00", "P29_009": null }, "geometry": { "type": "Point", "coordinates": [ 130.5289148553247, 31.564326205827044 ] } },
{ "type": "Feature", "properties": { "P29_001": "46201", "P29_002": "C146210000120", "P29_003": "16002", "P29_004": "鹿児島市立伊敷中学校", "P29_005": "鹿児島県鹿児島市下伊敷1-11-1", "P29_006": "3", "P29_007": "1", "P29_008": "00", "P29_009": null }, "geometry": { "type": "Point", "coordinates": [ 130.537129140038076, 31.609966364474332 ] } },
{ "type": "Feature", "properties": { "P29_001": "46201", "P29_002": "C146210000139", "P29_003": "16002", "P29_004": "鹿児島市立河頭中学校", "P29_005": "鹿児島県鹿児島市犬迫町1168", "P29_006": "3", "P29_007": "1", "P29_008": "00", "P29_009": null }, "geometry": { "type": "Point", "coordinates": [ 130.512595613243747, 31.643055927405868 ] } },
{ "type": "Feature", "properties": { "P29_001": "46201", "P29_002": "C146210000148", "P29_003": "16002", "P29_004": "鹿児島市立東桜島中学校", "P29_005": "鹿児島県鹿児島市東桜島町810", "P29_006": "3", "P29_007": "1", "P29_008": "00", "P29_009": null }, "geometry": { "type": "Point", "coordinates": [ 130.636005967450387, 31.552623468780695 ] } },
{ "type": "Feature", "properties": { "P29_001": "46201", "P29_002": "C146210000157", "P29_003": "16002", "P29_004": "鹿児島市立黒神中学校", "P29_005": "鹿児島県鹿児島市黒神町647", "P29_006": "3", "P29_007": "1", "P29_008": "00", "P29_009": null }, "geometry": { "type": "Point", "coordinates": [ 130.705889432128657, 31.584487142678299 ] } },
{ "type": "Feature", "properties": { "P29_001": "46201", "P29_002": "C146210000166", "P29_003": "16002", "P29_004": "鹿児島市立谷山中学校", "P29_005": "鹿児島県鹿児島市上福元町5500", "P29_006": "3", "P29_007": "1", "P29_008": "00", "P29_009": null }, "geometry": { "type": "Point", "coordinates": [ 130.510576296194785, 31.524269507392493 ] } },
{ "type": "Feature", "properties": { "P29_001": "46201", "P29_002": "C146210000175", "P29_003": "16002", "P29_004": "鹿児島市立和田中学校", "P29_005": "鹿児島県鹿児島市和田2-44-3", "P29_006": "3", "P29_007": "1", "P29_008": "00", "P29_009": null }, "geometry": { "type": "Point", "coordinates": [ 130.508502584577002, 31.507736030979402 ] } },
{ "type": "Feature", "properties": { "P29_001": "46201", "P29_002": "C146210000184", "P29_003": "16002", "P29_004": "鹿児島市立福平中学校", "P29_005": "鹿児島県鹿児島市平川町6004", "P29_006": "3", "P29_007": "1", "P29_008": "00", "P29_009": null }, "geometry": { "type": "Point", "coordinates": [ 130.497641417504923, 31.477290538861908 ] } },
{ "type": "Feature", "properties": { "P29_001": "46201", "P29_002": "C146210000193", "P29_003": "16002", "P29_004": "鹿児島市立錫山中学校", "P29_005": "鹿児島県鹿児島市下福元町9856", "P29_006": "3", "P29_007": "1", "P29_008": "00", "P29_009": null }, "geometry": { "type": "Point", "coordinates": [ 130.453463114368674, 31.495757900875475 ] } },
{ "type": "Feature", "properties": { "P29_001": "46201", "P29_002": "C146210000200", "P29_003": "16002", "P29_004": "鹿児島市立谷山北中学校", "P29_005": "鹿児島県鹿児島市山田町1690", "P29_006": "3", "P29_007": "1", "P29_008": "00", "P29_009": null }, "geometry": { "type": "Point", "coordinates": [ 130.504842691967752, 31.562777675394642 ] } },
{ "type": "Feature", "properties": { "P29_001": "46210", "P29_002": "C146210000219", "P29_003": "16002", "P29_004": "指宿市立北指宿中学校", "P29_005": "鹿児島県指宿市西方2329", "P29_006": "3", "P29_007": "1", "P29_008": "00", "P29_009": null }, "geometry": { "type": "Point", "coordinates": [ 130.62354938296923, 31.268822281170177 ] } },
{ "type": "Feature", "properties": { "P29_001": "46210", "P29_002": "C146210000228", "P29_003": "16002", "P29_004": "指宿市立南指宿中学校", "P29_005": "鹿児島県指宿市十二町420", "P29_006": "3", "P29_007": "1", "P29_008": "00", "P29_009": null }, "geometry": { "type": "Point", "coordinates": [ 130.633568841179709, 31.23911972626518 ] } },
{ "type": "Feature", "properties": { "P29_001": "46210", "P29_002": "C146210000237", "P29_003": "16002", "P29_004": "指宿市立西指宿中学校", "P29_005": "鹿児島県指宿市新西方1534-2", "P29_006": "3", "P29_007": "1", "P29_008": "00", "P29_009": null }, "geometry": { "type": "Point", "coordinates": [ 130.588115276733646, 31.275342993998922 ] } },
{ "type": "Feature", "properties": { "P29_001": "46204", "P29_002": "C146210000246", "P29_003": "16002", "P29_004": "枕崎市立枕崎中学校", "P29_005": "鹿児島県枕崎市桜木町478", "P29_006": "3", "P29_007": "1", "P29_008": "00", "P29_009": null }, "geometry": { "type": "Point", "coordinates": [ 130.292685028833603, 31.277086016319576 ] } },
{ "type": "Feature", "properties": { "P29_001": "46204", "P29_002": "C146210000255", "P29_003": "16002", "P29_004": "枕崎市立桜山中学校", "P29_005": "鹿児島県枕崎市桜山町272", "P29_006": "3", "P29_007": "1", "P29_008": "00", "P29_009": null }, "geometry": { "type": "Point", "coordinates": [ 130.290097753613395, 31.292101225723716 ] } },
{ "type": "Feature", "properties": { "P29_001": "46204", "P29_002": "C146210000264", "P29_003": "16002", "P29_004": "枕崎市立別府中学校", "P29_005": "鹿児島県枕崎市別府東町543", "P29_006": "3", "P29_007": "1", "P29_008": "00", "P29_009": null }, "geometry": { "type": "Point", "coordinates": [ 130.35003184862444, 31.278463089014902 ] } },
{ "type": "Feature", "properties": { "P29_001": "46220", "P29_002": "C146210000273", "P29_003": "16002", "P29_004": "南さつま市立加世田中学校", "P29_005": "鹿児島県南さつま市加世田武田15533", "P29_006": "3", "P29_007": "1", "P29_008": "00", "P29_009": null }, "geometry": { "type": "Point", "coordinates": [ 130.316783735772503, 31.408710959042004 ] } },
{ "type": "Feature", "properties": { "P29_001": "46220", "P29_002": "C146210000282", "P29_003": "16002", "P29_004": "南さつま市立万世中学校", "P29_005": "鹿児島県南さつま市加世田唐仁原5898", "P29_006": "3", "P29_007": "1", "P29_008": "00", "P29_009": null }, "geometry": { "type": "Point", "coordinates": [ 130.290502340464343, 31.428006682151423 ] } },
{ "type": "Feature", "properties": { "P29_001": "46219", "P29_002": "C146210000291", "P29_003": "16002", "P29_004": "いちき串木野市立串木野中学校", "P29_005": "鹿児島県いちき串木野市上名700", "P29_006": "3", "P29_007": "1", "P29_008": "00", "P29_009": null }, "geometry": { "type": "Point", "coordinates": [ 130.279353953163479, 31.718345070857204 ] } },
{ "type": "Feature", "properties": { "P29_001": "46219", "P29_002": "C146210000308", "P29_003": "16002", "P29_004": "いちき串木野市立串木野西中学校", "P29_005": "鹿児島県いちき串木野市平江20226-1", "P29_006": "3", "P29_007": "1", "P29_008": "00", "P29_009": null }, "geometry": { "type": "Point", "coordinates": [ 130.263319525522718, 31.729651319529307 ] } },
{ "type": "Feature", "properties": { "P29_001": "46219", "P29_002": "C146210000317", "P29_003": "16002", "P29_004": "いちき串木野市立羽島中学校", "P29_005": "鹿児島県いちき串木野市羽島5355", "P29_006": "3", "P29_007": "1", "P29_008": "00", "P29_009": null }, "geometry": { "type": "Point", "coordinates": [ 130.202244587303966, 31.757270292938362 ] } },
{ "type": "Feature", "properties": { "P29_001": "46219", "P29_002": "C146210000326", "P29_003": "16002", "P29_004": "いちき串木野市立生冠中学校", "P29_005": "鹿児島県いちき串木野市上名8551", "P29_006": "3", "P29_007": "1", "P29_008": "00", "P29_009": null }, "geometry": { "type": "Point", "coordinates": [ 130.313134240769529, 31.726583785185756 ] } },
{ "type": "Feature", "properties": { "P29_001": "46215", "P29_002": "C146210000335", "P29_003": "16002", "P29_004": "薩摩川内市立川内北中学校", "P29_005": "鹿児島県薩摩川内市花木町17-60", "P29_006": "3", "P29_007": "1", "P29_008": "00", "P29_009": null }, "geometry": { "type": "Point", "coordinates": [ 130.296051719153297, 31.824139274394568 ] } },
{ "type": "Feature", "properties": { "P29_001": "46215", "P29_002": "C146210000344", "P29_003": "16002", "P29_004": "薩摩川内市立川内南中学校", "P29_005": "鹿児島県薩摩川内市平佐町985", "P29_006": "3", "P29_007": "1", "P29_008": "00", "P29_009": null }, "geometry": { "type": "Point", "coordinates": [ 130.326157970608335, 31.798832009258902 ] } },
{ "type": "Feature", "properties": { "P29_001": "46215", "P29_002": "C146210000353", "P29_003": "16002", "P29_004": "薩摩川内市立水引中学校", "P29_005": "鹿児島県薩摩川内市水引町7602-1", "P29_006": "3", "P29_007": "1", "P29_008": "00", "P29_009": null }, "geometry": { "type": "Point", "coordinates": [ 130.236171179325225, 31.855350196839389 ] } },
{ "type": "Feature", "properties": { "P29_001": "46206", "P29_002": "C146210000362", "P29_003": "16002", "P29_004": "阿久根市立阿久根中学校", "P29_005": "鹿児島県阿久根市波留5529", "P29_006": "3", "P29_007": "1", "P29_008": "00", "P29_009": null }, "geometry": { "type": "Point", "coordinates": [ 130.20078736416815, 32.0131007623093 ] } },
{ "type": "Feature", "properties": { "P29_001": "46206", "P29_002": "C146210000371", "P29_003": "16002", "P29_004": "阿久根市立鶴川内中学校", "P29_005": "鹿児島県阿久根市鶴川内10300", "P29_006": "3", "P29_007": "1", "P29_008": "00", "P29_009": null }, "geometry": { "type": "Point", "coordinates": [ 130.240234008223268, 32.044121166036028 ] } },
{ "type": "Feature", "properties": { "P29_001": "46206", "P29_002": "C146210000380", "P29_003": "16002", "P29_004": "阿久根市立三笠中学校", "P29_005": "鹿児島県阿久根市脇本7877", "P29_006": "3", "P29_007": "1", "P29_008": "00", "P29_009": null }, "geometry": { "type": "Point", "coordinates": [ 130.201417726532128, 32.080991514320544 ] } },
{ "type": "Feature", "properties": { "P29_001": "46208", "P29_002": "C146210000399", "P29_003": "16002", "P29_004": "出水市立出水中学校", "P29_005": "鹿児島県出水市中央町1262", "P29_006": "3", "P29_007": "1", "P29_008": "00", "P29_009": null }, "geometry": { "type": "Point", "coordinates": [ 130.347987908005848, 32.081123780801349 ] } },
{ "type": "Feature", "properties": { "P29_001": "46208", "P29_002": "C146210000406", "P29_003": "16002", "P29_004": "出水市立米ノ津中学校", "P29_005": "鹿児島県出水市明神町100", "P29_006": "3", "P29_007": "1", "P29_008": "00", "P29_009": null }, "geometry": { "type": "Point", "coordinates": [ 130.334975649361922, 32.113043038998185 ] } },
{ "type": "Feature", "properties": { "P29_001": "46208", "P29_002": "C146210000415", "P29_003": "16002", "P29_004": "出水市立大川内中学校", "P29_005": "鹿児島県出水市上大川内823", "P29_006": "3", "P29_007": "1", "P29_008": "00", "P29_009": null }, "geometry": { "type": "Point", "coordinates": [ 130.442392932888652, 32.072361901357034 ] } },
{ "type": "Feature", "properties": { "P29_001": "46218", "P29_002": "C146210000424", "P29_003": "16002", "P29_004": "霧島市立国分中学校", "P29_005": "鹿児島県霧島市国分清水1-16-14", "P29_006": "3", "P29_007": "1", "P29_008": "00", "P29_009": null }, "geometry": { "type": "Point", "coordinates": [ 130.774299851261361, 31.749805123850965 ] } },
{ "type": "Feature", "properties": { "P29_001": "46218", "P29_002": "C146210000433", "P29_003": "16002", "P29_004": "霧島市立木原中学校", "P29_005": "鹿児島県霧島市国分郡田3592", "P29_006": "3", "P29_007": "1", "P29_008": "00", "P29_009": null }, "geometry": { "type": "Point", "coordinates": [ 130.85245567027809, 31.774493940265188 ] } },
{ "type": "Feature", "properties": { "P29_001": "46218", "P29_002": "C146210000442", "P29_003": "16002", "P29_004": "霧島市立国分南中学校", "P29_005": "鹿児島県霧島市国分下井817", "P29_006": "3", "P29_007": "1", "P29_008": "00", "P29_009": null }, "geometry": { "type": "Point", "coordinates": [ 130.78266101782441, 31.717029079025679 ] } },
{ "type": "Feature", "properties": { "P29_001": "46203", "P29_002": "C146210000451", "P29_003": "16002", "P29_004": "鹿屋市立鹿屋中学校", "P29_005": "鹿児島県鹿屋市打馬2-24-1", "P29_006": "3", "P29_007": "1", "P29_008": "00", "P29_009": null }, "geometry": { "type": "Point", "coordinates": [ 130.853064445752466, 31.400517604839937 ] } },
{ "type": "Feature", "properties": { "P29_001": "46203", "P29_002": "C146210000460", "P29_003": "16002", "P29_004": "鹿屋市立第一鹿屋中学校", "P29_005": "鹿児島県鹿屋市西原2-1-2", "P29_006": "3", "P29_007": "1", "P29_008": "00", "P29_009": null }, "geometry": { "type": "Point", "coordinates": [ 130.834644541420573, 31.385386945599826 ] } },
{ "type": "Feature", "properties": { "P29_001": "46203", "P29_002": "C146210000479", "P29_003": "16002", "P29_004": "鹿屋市立田崎中学校", "P29_005": "鹿児島県鹿屋市川西町4890", "P29_006": "3", "P29_007": "1", "P29_008": "00", "P29_009": null }, "geometry": { "type": "Point", "coordinates": [ 130.87529999837318, 31.368013194601243 ] } },
{ "type": "Feature", "properties": { "P29_001": "46203", "P29_002": "C146210000488", "P29_003": "16002", "P29_004": "鹿屋市立大姶良中学校", "P29_005": "鹿児島県鹿屋市田淵町987", "P29_006": "3", "P29_007": "1", "P29_008": "00", "P29_009": null }, "geometry": { "type": "Point", "coordinates": [ 130.839427572485334, 31.338206590749937 ] } },
{ "type": "Feature", "properties": { "P29_001": "46203", "P29_002": "C146210000497", "P29_003": "16002", "P29_004": "鹿屋市立花岡中学校", "P29_005": "鹿児島県鹿屋市古里町99", "P29_006": "3", "P29_007": "1", "P29_008": "00", "P29_009": null }, "geometry": { "type": "Point", "coordinates": [ 130.781183523703163, 31.3981718988368 ] } },
{ "type": "Feature", "properties": { "P29_001": "46203", "P29_002": "C146210000503", "P29_003": "16002", "P29_004": "鹿屋市立高隈中学校", "P29_005": "鹿児島県鹿屋市下高隈町568", "P29_006": "3", "P29_007": "1", "P29_008": "00", "P29_009": null }, "geometry": { "type": "Point", "coordinates": [ 130.8802756810299, 31.489337102347918 ] } },
{ "type": "Feature", "properties": { "P29_001": "46222", "P29_002": "C146210000512", "P29_003": "16002", "P29_004": "奄美市立名瀬中学校", "P29_005": "鹿児島県奄美市真名津町14-1", "P29_006": "3", "P29_007": "1", "P29_008": "00", "P29_009": null }, "geometry": { "type": "Point", "coordinates": [ 129.498825399638378, 28.364522458487663 ] } },
{ "type": "Feature", "properties": { "P29_001": "46222", "P29_002": "C146210000521", "P29_003": "16002", "P29_004": "奄美市立金久中学校", "P29_005": "鹿児島県奄美市名瀬塩浜町15-10", "P29_006": "3", "P29_007": "1", "P29_008": "00", "P29_009": null }, "geometry": { "type": "Point", "coordinates": [ 129.492924727150694, 28.388126212239591 ] } },
{ "type": "Feature", "properties": { "P29_001": "46222", "P29_002": "C146210000530", "P29_003": "16002", "P29_004": "奄美市立朝日中学校", "P29_005": "鹿児島県奄美市名瀬朝日町29-1", "P29_006": "3", "P29_007": "1", "P29_008": "00", "P29_009": null }, "geometry": { "type": "Point", "coordinates": [ 129.526811405456584, 28.398467541568824 ] } },
{ "type": "Feature", "properties": { "P29_001": "46222", "P29_002": "C146210000549", "P29_003": "16002", "P29_004": "奄美市立小宿中学校", "P29_005": "鹿児島県奄美市名瀬小宿2788", "P29_006": "3", "P29_007": "1", "P29_008": "00", "P29_009": null }, "geometry": { "type": "Point", "coordinates": [ 129.467517417680739, 28.394609380530866 ] } },
{ "type": "Feature", "properties": { "P29_001": "46222", "P29_002": "C146210000558", "P29_003": "16002", "P29_004": "奄美市立大川中学校", "P29_005": "鹿児島県奄美市名瀬大字西仲勝1201-3", "P29_006": "3", "P29_007": "1", "P29_008": "00", "P29_009": null }, "geometry": { "type": "Point", "coordinates": [ 129.508486119371867, 28.325740058783925 ] } },
{ "type": "Feature", "properties": { "P29_001": "46222", "P29_002": "C146210000567", "P29_003": "16002", "P29_004": "奄美市立芦花部中学校", "P29_005": "鹿児島県奄美市名瀬芦花部585", "P29_006": "3", "P29_007": "1", "P29_008": "00", "P29_009": null }, "geometry": { "type": "Point", "coordinates": [ 129.540554370914521, 28.438723013370762 ] } },
{ "type": "Feature", "properties": { "P29_001": "46222", "P29_002": "C146210000576", "P29_003": "16002", "P29_004": "奄美市立崎原中学校", "P29_005": "鹿児島県奄美市名瀬崎原44", "P29_006": "3", "P29_007": "1", "P29_008": "00", "P29_009": null }, "geometry": { "type": "Point", "coordinates": [ 129.561475721185701, 28.336719833755204 ] } },
{ "type": "Feature", "properties": { "P29_001": "46201", "P29_002": "C146210000585", "P29_003": "16002", "P29_004": "鹿児島市立桜島中学校", "P29_005": "鹿児島県鹿児島市藤野町1342", "P29_006": "3", "P29_007": "1", "P29_008": "00", "P29_009": null }, "geometry": { "type": "Point", "coordinates": [ 130.632952222649777, 31.620432729645504 ] } },
{ "type": "Feature", "properties": { "P29_001": "46201", "P29_002": "C146210000594", "P29_003": "16002", "P29_004": "鹿児島市立吉田北中学校", "P29_005": "鹿児島県鹿児島市西佐多町269", "P29_006": "3", "P29_007": "1", "P29_008": "00", "P29_009": null }, "geometry": { "type": "Point", "coordinates": [ 130.567847119201815, 31.737466536449826 ] } },
{ "type": "Feature", "properties": { "P29_001": "46201", "P29_002": "C146210000601", "P29_003": "16002", "P29_004": "鹿児島市立吉田南中学校", "P29_005": "鹿児島県鹿児島市本名町565", "P29_006": "3", "P29_007": "1", "P29_008": "00", "P29_009": null }, "geometry": { "type": "Point", "coordinates": [ 130.548992690967538, 31.689190804522539 ] } },
{ "type": "Feature", "properties": { "P29_001": "46201", "P29_002": "C146210000610", "P29_003": "16002", "P29_004": "鹿児島市立喜入中学校", "P29_005": "鹿児島県鹿児島市喜入町7143", "P29_006": "3", "P29_007": "1", "P29_008": "00", "P29_009": null }, "geometry": { "type": "Point", "coordinates": [ 130.535414626578415, 31.371323581461457 ] } },
{ "type": "Feature", "properties": { "P29_001": "46210", "P29_002": "C146210000629", "P29_003": "16002", "P29_004": "指宿市立山川中学校", "P29_005": "鹿児島県指宿市山川成川2350", "P29_006": "3", "P29_007": "1", "P29_008": "00", "P29_009": null }, "geometry": { "type": "Point", "coordinates": [ 130.618540833487941, 31.203393708289109 ] } },
{ "type": "Feature", "properties": { "P29_001": "46210", "P29_002": "C146210000638", "P29_003": "16002", "P29_004": "指宿市立開聞中学校", "P29_005": "鹿児島県指宿市開聞十町2561", "P29_006": "3", "P29_007": "1", "P29_008": "00", "P29_009": null }, "geometry": { "type": "Point", "coordinates": [ 130.538216059440771, 31.199196093536141 ] } },
{ "type": "Feature", "properties": { "P29_001": "46223", "P29_002": "C146210000647", "P29_003": "16002", "P29_004": "南九州市立頴娃中学校", "P29_005": "鹿児島県南九州市頴娃町郡1442-1", "P29_006": "3", "P29_007": "1", "P29_008": "00", "P29_009": null }, "geometry": { "type": "Point", "coordinates": [ 130.498368604126654, 31.241170324803797 ] } },
{ "type": "Feature", "properties": { "P29_001": "46219", "P29_002": "C146210000656", "P29_003": "16002", "P29_004": "いちき串木野市立市来中学校", "P29_005": "鹿児島県いちき串木野市大里3764", "P29_006": "3", "P29_007": "1", "P29_008": "00", "P29_009": null }, "geometry": { "type": "Point", "coordinates": [ 130.293399662393, 31.687005340871714 ] } },
{ "type": "Feature", "properties": { "P29_001": "46216", "P29_002": "C146210000665", "P29_003": "16002", "P29_004": "日置市立東市来中学校", "P29_005": "鹿児島県日置市東市来町長里2684-2", "P29_006": "3", "P29_007": "1", "P29_008": "00", "P29_009": null }, "geometry": { "type": "Point", "coordinates": [ 130.35252870282136, 31.658079089888041 ] } },
{ "type": "Feature", "properties": { "P29_001": "46216", "P29_002": "C146210000683", "P29_003": "16002", "P29_004": "日置市立伊集院中学校", "P29_005": "鹿児島県日置市伊集院町下谷口1547", "P29_006": "3", "P29_007": "1", "P29_008": "00", "P29_009": null }, "geometry": { "type": "Point", "coordinates": [ 130.394466968593804, 31.623840169558498 ] } },
{ "type": "Feature", "properties": { "P29_001": "46216", "P29_002": "C146210000692", "P29_003": "16002", "P29_004": "日置市立伊集院北中学校", "P29_005": "鹿児島県日置市伊集院町下神殿1154", "P29_006": "3", "P29_007": "1", "P29_008": "00", "P29_009": null }, "geometry": { "type": "Point", "coordinates": [ 130.401739180150201, 31.651884721477849 ] } },
{ "type": "Feature", "properties": { "P29_001": "46216", "P29_002": "C146210000709", "P29_003": "16002", "P29_004": "日置市立土橋中学校", "P29_005": "鹿児島県日置市伊集院町土橋1350", "P29_006": "3", "P29_007": "1", "P29_008": "00", "P29_009": null }, "geometry": { "type": "Point", "coordinates": [ 130.447649439753832, 31.63619979895854 ] } },
{ "type": "Feature", "properties": { "P29_001": "46201", "P29_002": "C146210000718", "P29_003": "16002", "P29_004": "鹿児島市立松元中学校", "P29_005": "鹿児島県鹿児島市上谷口町2994-2", "P29_006": "3", "P29_007": "1", "P29_008": "00", "P29_009": null }, "geometry": { "type": "Point", "coordinates": [ 130.434660605850155, 31.600733260830793 ] } },
{ "type": "Feature", "properties": { "P29_001": "46201", "P29_002": "C146210000727", "P29_003": "16002", "P29_004": "鹿児島市立郡山中学校", "P29_005": "鹿児島県鹿児島市鹿児島市郡山町1500", "P29_006": "3", "P29_007": "1", "P29_008": "00", "P29_009": null }, "geometry": { "type": "Point", "coordinates": [ 130.469379453822228, 31.679426943508446 ] } },
{ "type": "Feature", "properties": { "P29_001": "46216", "P29_002": "C146210000745", "P29_003": "16002", "P29_004": "日置市立吹上中学校", "P29_005": "鹿児島県日置市吹上町中原1691", "P29_006": "3", "P29_007": "1", "P29_008": "00", "P29_009": null }, "geometry": { "type": "Point", "coordinates": [ 130.350625596101111, 31.521715540842756 ] } },
{ "type": "Feature", "properties": { "P29_001": "46215", "P29_002": "C146210000754", "P29_003": "16002", "P29_004": "薩摩川内市立樋脇中学校", "P29_005": "鹿児島県薩摩川内市樋脇町塔之原10295", "P29_006": "3", "P29_007": "1", "P29_008": "00", "P29_009": null }, "geometry": { "type": "Point", "coordinates": [ 130.396610574878991, 31.800829101215466 ] } },
{ "type": "Feature", "properties": { "P29_001": "46215", "P29_002": "C146210000763", "P29_003": "16002", "P29_004": "薩摩川内市立入来中学校", "P29_005": "鹿児島県薩摩川内市入来町浦之名7635", "P29_006": "3", "P29_007": "1", "P29_008": "00", "P29_009": null }, "geometry": { "type": "Point", "coordinates": [ 130.43641513120528, 31.80185324220307 ] } },
{ "type": "Feature", "properties": { "P29_001": "46392", "P29_002": "C146210000772", "P29_003": "16002", "P29_004": "さつま町立宮之城中学校", "P29_005": "鹿児島県薩摩郡さつま町宮之城屋地391", "P29_006": "3", "P29_007": "1", "P29_008": "00", "P29_009": null }, "geometry": { "type": "Point", "coordinates": [ 130.447099067354571, 31.902215563189987 ] } },
{ "type": "Feature", "properties": { "P29_001": "46215", "P29_002": "C146210000781", "P29_003": "16002", "P29_004": "薩摩川内市立祁答院中学校", "P29_005": "鹿児島県薩摩川内市下手190-1", "P29_006": "3", "P29_007": "1", "P29_008": "00", "P29_009": null }, "geometry": { "type": "Point", "coordinates": [ 130.495038090752047, 31.868541925110911 ] } },
{ "type": "Feature", "properties": { "P29_001": "46215", "P29_002": "C146210000790", "P29_003": "16002", "P29_004": "薩摩川内市立里中学校", "P29_005": "鹿児島県薩摩川内市里町里3377", "P29_006": "3", "P29_007": "1", "P29_008": "00", "P29_009": null }, "geometry": { "type": "Point", "coordinates": [ 129.918648229898935, 31.844689237795436 ] } },
{ "type": "Feature", "properties": { "P29_001": "46215", "P29_002": "C146210000807", "P29_003": "16002", "P29_004": "薩摩川内市立上甑中学校", "P29_005": "鹿児島県薩摩川内市上甑町中甑191-1", "P29_006": "3", "P29_007": "1", "P29_008": "00", "P29_009": null }, "geometry": { "type": "Point", "coordinates": [ 129.868408328872874, 31.83378892257236 ] } },
{ "type": "Feature", "properties": { "P29_001": "46215", "P29_002": "C146210000816", "P29_003": "16002", "P29_004": "薩摩川内市立海星中学校", "P29_005": "鹿児島県薩摩川内市下甑町青瀬1034-1", "P29_006": "3", "P29_007": "1", "P29_008": "00", "P29_009": null }, "geometry": { "type": "Point", "coordinates": [ 129.730363392693135, 31.684437851422761 ] } },
{ "type": "Feature", "properties": { "P29_001": "46215", "P29_002": "C146210000825", "P29_003": "16002", "P29_004": "薩摩川内市立鹿島中学校", "P29_005": "鹿児島県薩摩川内市鹿島町藺牟田1397", "P29_006": "3", "P29_007": "1", "P29_008": "00", "P29_009": null }, "geometry": { "type": "Point", "coordinates": [ 129.78836727228196, 31.778421577920756 ] } },
{ "type": "Feature", "properties": { "P29_001": "46208", "P29_002": "C146210000834", "P29_003": "16002", "P29_004": "出水市立高尾野中学校", "P29_005": "鹿児島県出水市高尾野町柴引2143", "P29_006": "3", "P29_007": "1", "P29_008": "00", "P29_009": null }, "geometry": { "type": "Point", "coordinates": [ 130.298746859001255, 32.058533993509464 ] } },
{ "type": "Feature", "properties": { "P29_001": "46208", "P29_002": "C146210000843", "P29_003": "16002", "P29_004": "出水市立江内中学校", "P29_005": "鹿児島県出水市高尾野町江内3200", "P29_006": "3", "P29_007": "1", "P29_008": "00", "P29_009": null }, "geometry": { "type": "Point", "coordinates": [ 130.253857977412821, 32.098666809647497 ] } },
{ "type": "Feature", "properties": { "P29_001": "46208", "P29_002": "C146210000852", "P29_003": "16002", "P29_004": "出水市立野田中学校", "P29_005": "鹿児島県出水市野田町上名6172", "P29_006": "3", "P29_007": "1", "P29_008": "00", "P29_009": null }, "geometry": { "type": "Point", "coordinates": [ 130.262802353967487, 32.05909651975292 ] } },
{ "type": "Feature", "properties": { "P29_001": "46404", "P29_002": "C146210000861", "P29_003": "16002", "P29_004": "長島町立鷹巣中学校", "P29_005": "鹿児島県出水郡長島町鷹巣1687", "P29_006": "3", "P29_007": "1", "P29_008": "00", "P29_009": null }, "geometry": { "type": "Point", "coordinates": [ 130.175012815617407, 32.194261665923989 ] } },
{ "type": "Feature", "properties": { "P29_001": "46404", "P29_002": "C146210000870", "P29_003": "16002", "P29_004": "長島町立川床中学校", "P29_005": "鹿児島県出水郡長島町川床1547", "P29_006": "3", "P29_007": "1", "P29_008": "00", "P29_009": null }, "geometry": { "type": "Point", "coordinates": [ 130.168718804750569, 32.144710071580143 ] } },
{ "type": "Feature", "properties": { "P29_001": "46404", "P29_002": "C146210000889", "P29_003": "16002", "P29_004": "長島町立獅子島中学校", "P29_005": "鹿児島県出水郡長島町獅子島118", "P29_006": "3", "P29_007": "1", "P29_008": "00", "P29_009": null }, "geometry": { "type": "Point", "coordinates": [ 130.216430084379368, 32.279035943250356 ] } },
{ "type": "Feature", "properties": { "P29_001": "46404", "P29_002": "C146210000898", "P29_003": "16002", "P29_004": "長島町立長島中学校", "P29_005": "鹿児島県出水郡長島町指江548", "P29_006": "3", "P29_007": "1", "P29_008": "00", "P29_009": null }, "geometry": { "type": "Point", "coordinates": [ 130.120917575536026, 32.156003473045345 ] } },
{ "type": "Feature", "properties": { "P29_001": "46404", "P29_002": "C146210000905", "P29_003": "16002", "P29_004": "長島町立平尾中学校", "P29_005": "鹿児島県出水郡長島町平尾5719", "P29_006": "3", "P29_007": "1", "P29_008": "00", "P29_009": null }, "geometry": { "type": "Point", "coordinates": [ 130.144738331881115, 32.193691493383724 ] } },
{ "type": "Feature", "properties": { "P29_001": "46224", "P29_002": "C146210000914", "P29_003": "16002", "P29_004": "伊佐市立菱刈中学校", "P29_005": "鹿児島県伊佐市菱刈前目2697", "P29_006": "3", "P29_007": "1", "P29_008": "00", "P29_009": null }, "geometry": { "type": "Point", "coordinates": [ 130.648822561931041, 31.998321056624285 ] } },
{ "type": "Feature", "properties": { "P29_001": "46225", "P29_002": "C146210000923", "P29_003": "16002", "P29_004": "姶良市立帖佐中学校", "P29_005": "鹿児島県姶良市西餅田1586", "P29_006": "3", "P29_007": "1", "P29_008": "00", "P29_009": null }, "geometry": { "type": "Point", "coordinates": [ 130.62353149203912, 31.740321453485858 ] } },
{ "type": "Feature", "properties": { "P29_001": "46225", "P29_002": "C146210000932", "P29_003": "16002", "P29_004": "姶良市立重富中学校", "P29_005": "鹿児島県姶良市平松7092", "P29_006": "3", "P29_007": "1", "P29_008": "00", "P29_009": null }, "geometry": { "type": "Point", "coordinates": [ 130.615767426064224, 31.713225532426112 ] } },
{ "type": "Feature", "properties": { "P29_001": "46225", "P29_002": "C146210000941", "P29_003": "16002", "P29_004": "姶良市立山田中学校", "P29_005": "鹿児島県姶良市下名977", "P29_006": "3", "P29_007": "1", "P29_008": "00", "P29_009": null }, "geometry": { "type": "Point", "coordinates": [ 130.611051905290054, 31.770699579486678 ] } },
{ "type": "Feature", "properties": { "P29_001": "46225", "P29_002": "C146210000950", "P29_003": "16002", "P29_004": "姶良市立蒲生中学校", "P29_005": "鹿児島県姶良市蒲生町北10", "P29_006": "3", "P29_007": "1", "P29_008": "00", "P29_009": null }, "geometry": { "type": "Point", "coordinates": [ 130.565410008735427, 31.764351288339135 ] } },
{ "type": "Feature", "properties": { "P29_001": "46218", "P29_002": "C146210000969", "P29_003": "16002", "P29_004": "霧島市立溝辺中学校", "P29_005": "鹿児島県霧島市溝辺町有川166", "P29_006": "3", "P29_007": "1", "P29_008": "00", "P29_009": null }, "geometry": { "type": "Point", "coordinates": [ 130.686560116210188, 31.832904767205363 ] } },
{ "type": "Feature", "properties": { "P29_001": "46218", "P29_002": "C146210000978", "P29_003": "16002", "P29_004": "霧島市立陵南中学校", "P29_005": "鹿児島県霧島市溝辺町麓2-24", "P29_006": "3", "P29_007": "1", "P29_008": "00", "P29_009": null }, "geometry": { "type": "Point", "coordinates": [ 130.709915356177817, 31.801839915382846 ] } },
{ "type": "Feature", "properties": { "P29_001": "46218", "P29_002": "C146210000987", "P29_003": "16002", "P29_004": "霧島市立横川中学校", "P29_005": "鹿児島県霧島市横川町中ノ524", "P29_006": "3", "P29_007": "1", "P29_008": "00", "P29_009": null }, "geometry": { "type": "Point", "coordinates": [ 130.695777904011607, 31.901431524514447 ] } },
{ "type": "Feature", "properties": { "P29_001": "46452", "P29_002": "C146210000996", "P29_003": "16002", "P29_004": "湧水町立栗野中学校", "P29_005": "鹿児島県姶良郡湧水町木場790", "P29_006": "3", "P29_007": "1", "P29_008": "00", "P29_009": null }, "geometry": { "type": "Point", "coordinates": [ 130.726650224759283, 31.950706367831977 ] } },
{ "type": "Feature", "properties": { "P29_001": "46452", "P29_002": "C146210001003", "P29_003": "16002", "P29_004": "湧水町立吉松中学校", "P29_005": "鹿児島県姶良郡湧水町川西2137-1", "P29_006": "3", "P29_007": "1", "P29_008": "00", "P29_009": null }, "geometry": { "type": "Point", "coordinates": [ 130.742026201226651, 32.00644148589172 ] } },
{ "type": "Feature", "properties": { "P29_001": "46218", "P29_002": "C146210001012", "P29_003": "16002", "P29_004": "霧島市立牧園中学校", "P29_005": "鹿児島県霧島市牧園町宿窪田751-1", "P29_006": "3", "P29_007": "1", "P29_008": "00", "P29_009": null }, "geometry": { "type": "Point", "coordinates": [ 130.751196782700532, 31.858043336748111 ] } },
{ "type": "Feature", "properties": { "P29_001": "46218", "P29_002": "C146210001021", "P29_003": "16002", "P29_004": "霧島市立霧島中学校", "P29_005": "鹿児島県霧島市霧島田口3085", "P29_006": "3", "P29_007": "1", "P29_008": "00", "P29_009": null }, "geometry": { "type": "Point", "coordinates": [ 130.839312894422108, 31.825626276619719 ] } },
{ "type": "Feature", "properties": { "P29_001": "46218", "P29_002": "C146210001030", "P29_003": "16002", "P29_004": "霧島市立隼人中学校", "P29_005": "鹿児島県霧島市隼人町真孝900-1", "P29_006": "3", "P29_007": "1", "P29_008": "00", "P29_009": null }, "geometry": { "type": "Point", "coordinates": [ 130.731965725248614, 31.731461948252896 ] } },
{ "type": "Feature", "properties": { "P29_001": "46218", "P29_002": "C146210001049", "P29_003": "16002", "P29_004": "霧島市立日当山中学校", "P29_005": "鹿児島県霧島市隼人町東郷1187-2", "P29_006": "3", "P29_007": "1", "P29_008": "00", "P29_009": null }, "geometry": { "type": "Point", "coordinates": [ 130.754774356437537, 31.772601066859682 ] } },
{ "type": "Feature", "properties": { "P29_001": "46218", "P29_002": "C146210001058", "P29_003": "16002", "P29_004": "霧島市立牧之原中学校", "P29_005": "鹿児島県霧島市福山町福山4623-1", "P29_006": "3", "P29_007": "1", "P29_008": "00", "P29_009": null }, "geometry": { "type": "Point", "coordinates": [ 130.844519640299069, 31.671981011633704 ] } },
{ "type": "Feature", "properties": { "P29_001": "46217", "P29_002": "C146210001067", "P29_003": "16002", "P29_004": "曽於市立財部中学校", "P29_005": "鹿児島県曽於市財部町北俣814", "P29_006": "3", "P29_007": "1", "P29_008": "00", "P29_009": null }, "geometry": { "type": "Point", "coordinates": [ 130.9894183375296, 31.731389887151597 ] } },
{ "type": "Feature", "properties": { "P29_001": "46217", "P29_002": "C146210001076", "P29_003": "16002", "P29_004": "曽於市立末吉中学校", "P29_005": "鹿児島県曽於市末吉町二之方2101", "P29_006": "3", "P29_007": "1", "P29_008": "00", "P29_009": null }, "geometry": { "type": "Point", "coordinates": [ 131.022240945390848, 31.656410630298133 ] } },
{ "type": "Feature", "properties": { "P29_001": "46221", "P29_002": "C146210001085", "P29_003": "16002", "P29_004": "志布志市立松山中学校", "P29_005": "鹿児島県志布志市松山町泰野3870", "P29_006": "3", "P29_007": "1", "P29_008": "00", "P29_009": null }, "geometry": { "type": "Point", "coordinates": [ 131.07115816138986, 31.570266047221708 ] } },
{ "type": "Feature", "properties": { "P29_001": "46221", "P29_002": "C146210001094", "P29_003": "16002", "P29_004": "志布志市立志布志中学校", "P29_005": "鹿児島県志布志市志布志町帖3389", "P29_006": "3", "P29_007": "1", "P29_008": "00", "P29_009": null }, "geometry": { "type": "Point", "coordinates": [ 131.101598134682746, 31.481421458798057 ] } },
{ "type": "Feature", "properties": { "P29_001": "46221", "P29_002": "C146210001101", "P29_003": "16002", "P29_004": "志布志市立有明中学校", "P29_005": "鹿児島県志布志市有明町野井倉1582", "P29_006": "3", "P29_007": "1", "P29_008": "00", "P29_009": null }, "geometry": { "type": "Point", "coordinates": [ 131.053261783364206, 31.49045040391777 ] } },
{ "type": "Feature", "properties": { "P29_001": "46221", "P29_002": "C146210001110", "P29_003": "16002", "P29_004": "志布志市立宇都中学校", "P29_005": "鹿児島県志布志市有明町原田2256-1", "P29_006": "3", "P29_007": "1", "P29_008": "00", "P29_009": null }, "geometry": { "type": "Point", "coordinates": [ 131.00699282453985, 31.48110615406619 ] } },
{ "type": "Feature", "properties": { "P29_001": "46221", "P29_002": "C146210001129", "P29_003": "16002", "P29_004": "志布志市立伊崎田中学校", "P29_005": "鹿児島県志布志市有明町伊崎田8866", "P29_006": "3", "P29_007": "1", "P29_008": "00", "P29_009": null }, "geometry": { "type": "Point", "coordinates": [ 131.051422583076175, 31.533096896331106 ] } },
{ "type": "Feature", "properties": { "P29_001": "46468", "P29_002": "C146210001138", "P29_003": "16002", "P29_004": "大崎町立大崎中学校", "P29_005": "鹿児島県曽於郡大崎町仮宿1699-1", "P29_006": "3", "P29_007": "1", "P29_008": "00", "P29_009": null }, "geometry": { "type": "Point", "coordinates": [ 131.013725789423887, 31.425837179657421 ] } },
{ "type": "Feature", "properties": { "P29_001": "46203", "P29_002": "C146210001147", "P29_003": "16002", "P29_004": "鹿屋市立串良中学校", "P29_005": "鹿児島県鹿屋市串良町岡崎2542", "P29_006": "3", "P29_007": "1", "P29_008": "00", "P29_009": null }, "geometry": { "type": "Point", "coordinates": [ 130.95135010358274, 31.394427601862844 ] } },
{ "type": "Feature", "properties": { "P29_001": "46203", "P29_002": "C146210001156", "P29_003": "16002", "P29_004": "鹿屋市立細山田中学校", "P29_005": "鹿児島県鹿屋市串良町細山田4943-1", "P29_006": "3", "P29_007": "1", "P29_008": "00", "P29_009": null }, "geometry": { "type": "Point", "coordinates": [ 130.916341648139507, 31.440525019353352 ] } },
{ "type": "Feature", "properties": { "P29_001": "46203", "P29_002": "C146210001165", "P29_003": "16002", "P29_004": "鹿屋市立上小原中学校", "P29_005": "鹿児島県鹿屋市串良町上小原3514-1", "P29_006": "3", "P29_007": "1", "P29_008": "00", "P29_009": null }, "geometry": { "type": "Point", "coordinates": [ 130.916786677399529, 31.385004369871677 ] } },
{ "type": "Feature", "properties": { "P29_001": "46482", "P29_002": "C146210001174", "P29_003": "16002", "P29_004": "東串良町立東串良中学校", "P29_005": "鹿児島県肝属郡東串良町川西1615", "P29_006": "3", "P29_007": "1", "P29_008": "00", "P29_009": null }, "geometry": { "type": "Point", "coordinates": [ 130.975585277903377, 31.386045695557421 ] } },
{ "type": "Feature", "properties": { "P29_001": "46492", "P29_002": "C146210001183", "P29_003": "16002", "P29_004": "肝付町立内之浦中学校", "P29_005": "鹿児島県肝属郡肝付町北方1951-4", "P29_006": "3", "P29_007": "1", "P29_008": "00", "P29_009": null }, "geometry": { "type": "Point", "coordinates": [ 131.072228834883788, 31.284532830467874 ] } },
{ "type": "Feature", "properties": { "P29_001": "46492", "P29_002": "C146210001209", "P29_003": "16002", "P29_004": "肝付町立高山中学校", "P29_005": "鹿児島県肝属郡肝付町前田1132", "P29_006": "3", "P29_007": "1", "P29_008": "00", "P29_009": null }, "geometry": { "type": "Point", "coordinates": [ 130.946248134669219, 31.3510425149138 ] } },
{ "type": "Feature", "properties": { "P29_001": "46492", "P29_002": "C146210001218", "P29_003": "16002", "P29_004": "肝付町立波野中学校", "P29_005": "鹿児島県肝属郡肝付町波見1065", "P29_006": "3", "P29_007": "1", "P29_008": "00", "P29_009": null }, "geometry": { "type": "Point", "coordinates": [ 130.988855724658151, 31.351755508766104 ] } },
{ "type": "Feature", "properties": { "P29_001": "46492", "P29_002": "C146210001227", "P29_003": "16002", "P29_004": "肝付町立国見中学校", "P29_005": "鹿児島県肝属郡肝付町後田1857", "P29_006": "3", "P29_007": "1", "P29_008": "00", "P29_009": null }, "geometry": { "type": "Point", "coordinates": [ 130.944628309048625, 31.320289057151861 ] } },
{ "type": "Feature", "properties": { "P29_001": "46203", "P29_002": "C146210001236", "P29_003": "16002", "P29_004": "鹿屋市立吾平中学校", "P29_005": "鹿児島県鹿屋市上名7520", "P29_006": "3", "P29_007": "1", "P29_008": "00", "P29_009": null }, "geometry": { "type": "Point", "coordinates": [ 130.90124543253657, 31.324351243973396 ] } },
{ "type": "Feature", "properties": { "P29_001": "46490", "P29_002": "C146210001245", "P29_003": "16002", "P29_004": "錦江町立田代中学校", "P29_005": "鹿児島県肝属郡錦江町田代麓5624", "P29_006": "3", "P29_007": "1", "P29_008": "00", "P29_009": null }, "geometry": { "type": "Point", "coordinates": [ 130.843328394565361, 31.196046950895447 ] } },
{ "type": "Feature", "properties": { "P29_001": "46505", "P29_002": "C146210001254", "P29_003": "16002", "P29_004": "屋久島町立金岳中学校", "P29_005": "鹿児島県熊毛郡屋久島町口永良部島626", "P29_006": "3", "P29_007": "1", "P29_008": "00", "P29_009": null }, "geometry": { "type": "Point", "coordinates": [ 130.193368696066528, 30.465729306698854 ] } },
{ "type": "Feature", "properties": { "P29_001": "46505", "P29_002": "C146210001263", "P29_003": "16002", "P29_004": "屋久島町立安房中学校", "P29_005": "鹿児島県熊毛郡屋久島町安房2371-67", "P29_006": "3", "P29_007": "1", "P29_008": "00", "P29_009": null }, "geometry": { "type": "Point", "coordinates": [ 130.652290608541222, 30.311231722136583 ] } },
{ "type": "Feature", "properties": { "P29_001": "46304", "P29_002": "C146210001272", "P29_003": "16002", "P29_004": "十島村立中之島中学校", "P29_005": "鹿児島県鹿児島郡十島村中之島131", "P29_006": "3", "P29_007": "1", "P29_008": "00", "P29_009": null }, "geometry": { "type": "Point", "coordinates": [ 129.854257133867634, 29.83282613901288 ] } },
{ "type": "Feature", "properties": { "P29_001": "46304", "P29_002": "C146210001281", "P29_003": "16002", "P29_004": "十島村立平島中学校", "P29_005": "鹿児島県鹿児島郡十島村平島120", "P29_006": "3", "P29_007": "1", "P29_008": "00", "P29_009": null }, "geometry": { "type": "Point", "coordinates": [ 129.530722453193135, 29.68881020622111 ] } },
{ "type": "Feature", "properties": { "P29_001": "46304", "P29_002": "C146210001290", "P29_003": "16002", "P29_004": "十島村立宝島中学校", "P29_005": "鹿児島県鹿児島郡十島村宝島78", "P29_006": "3", "P29_007": "1", "P29_008": "00", "P29_009": null }, "geometry": { "type": "Point", "coordinates": [ 129.205461827303935, 29.150972533801866 ] } },
{ "type": "Feature", "properties": { "P29_001": "46304", "P29_002": "C146210001307", "P29_003": "16002", "P29_004": "十島村立悪石島中学校", "P29_005": "鹿児島県鹿児島郡十島村悪石島64-1", "P29_006": "3", "P29_007": "1", "P29_008": "00", "P29_009": null }, "geometry": { "type": "Point", "coordinates": [ 129.604243438927369, 29.450716046446438 ] } },
{ "type": "Feature", "properties": { "P29_001": "46304", "P29_002": "C146210001316", "P29_003": "16002", "P29_004": "十島村立口之島中学校", "P29_005": "鹿児島県鹿児島郡十島村口之島19", "P29_006": "3", "P29_007": "1", "P29_008": "00", "P29_009": null }, "geometry": { "type": "Point", "coordinates": [ 129.918432111447913, 29.98917595893014 ] } },
{ "type": "Feature", "properties": { "P29_001": "46524", "P29_002": "C146210001325", "P29_003": "16002", "P29_004": "宇検村立田検中学校", "P29_005": "鹿児島県大島郡宇検村田検191", "P29_006": "3", "P29_007": "1", "P29_008": "00", "P29_009": null }, "geometry": { "type": "Point", "coordinates": [ 129.29050281002219, 28.285891208070609 ] } },
{ "type": "Feature", "properties": { "P29_001": "46524", "P29_002": "C146210001334", "P29_003": "16002", "P29_004": "宇検村立久志中学校", "P29_005": "鹿児島県大島郡宇検村久志2", "P29_006": "3", "P29_007": "1", "P29_008": "00", "P29_009": null }, "geometry": { "type": "Point", "coordinates": [ 129.233290743097541, 28.286881337002157 ] } },
{ "type": "Feature", "properties": { "P29_001": "46524", "P29_002": "C146210001343", "P29_003": "16002", "P29_004": "宇検村立名柄中学校", "P29_005": "鹿児島県大島郡宇検村名柄1263", "P29_006": "3", "P29_007": "1", "P29_008": "00", "P29_009": null }, "geometry": { "type": "Point", "coordinates": [ 129.249851003542858, 28.252296477578739 ] } },
{ "type": "Feature", "properties": { "P29_001": "46524", "P29_002": "C146210001352", "P29_003": "16002", "P29_004": "宇検村立阿室中学校", "P29_005": "鹿児島県大島郡宇検村阿室195", "P29_006": "3", "P29_007": "1", "P29_008": "00", "P29_009": null }, "geometry": { "type": "Point", "coordinates": [ 129.200061706408604, 28.256789874050085 ] } },
{ "type": "Feature", "properties": { "P29_001": "46222", "P29_002": "C146210001361", "P29_003": "16002", "P29_004": "奄美市立住用中学校", "P29_005": "鹿児島県奄美市住用町役勝27", "P29_006": "3", "P29_007": "1", "P29_008": "00", "P29_009": null }, "geometry": { "type": "Point", "coordinates": [ 129.399407401075194, 28.255491644114226 ] } },
{ "type": "Feature", "properties": { "P29_001": "46222", "P29_002": "C146210001370", "P29_003": "16002", "P29_004": "奄美市立市中学校", "P29_005": "鹿児島県奄美市住用町市62", "P29_006": "3", "P29_007": "1", "P29_008": "00", "P29_009": null }, "geometry": { "type": "Point", "coordinates": [ 129.453446936152829, 28.227572954600266 ] } },
{ "type": "Feature", "properties": { "P29_001": "46222", "P29_002": "C146210001389", "P29_003": "16002", "P29_004": "奄美市立東城中学校", "P29_005": "鹿児島県奄美市住用町摺勝610", "P29_006": "3", "P29_007": "1", "P29_008": "00", "P29_009": null }, "geometry": { "type": "Point", "coordinates": [ 129.44322110585378, 28.294716826477334 ] } },
{ "type": "Feature", "properties": { "P29_001": "46525", "P29_002": "C146210001398", "P29_003": "16002", "P29_004": "瀬戸内町立篠川中学校", "P29_005": "鹿児島県大島郡瀬戸内町篠川150", "P29_006": "3", "P29_007": "1", "P29_008": "00", "P29_009": null }, "geometry": { "type": "Point", "coordinates": [ 129.297799891147321, 28.222716766014145 ] } },
{ "type": "Feature", "properties": { "P29_001": "46525", "P29_002": "C146210001414", "P29_003": "16002", "P29_004": "瀬戸内町立薩川中学校", "P29_005": "鹿児島県大島郡瀬戸内町薩川767", "P29_006": "3", "P29_007": "9", "P29_008": "00", "P29_009": null }, "geometry": { "type": "Point", "coordinates": [ 129.203904932444374, 28.178800924475425 ] } },
{ "type": "Feature", "properties": { "P29_001": "46525", "P29_002": "C146210001432", "P29_003": "16002", "P29_004": "瀬戸内町立諸鈍中学校", "P29_005": "鹿児島県大島郡瀬戸内町諸鈍295-イ", "P29_006": "3", "P29_007": "1", "P29_008": "00", "P29_009": null }, "geometry": { "type": "Point", "coordinates": [ 129.325364923845569, 28.094887475761407 ] } },
{ "type": "Feature", "properties": { "P29_001": "46525", "P29_002": "C146210001441", "P29_003": "16002", "P29_004": "瀬戸内町立伊子茂中学校", "P29_005": "鹿児島県大島郡瀬戸内町伊子茂207", "P29_006": "3", "P29_007": "1", "P29_008": "00", "P29_009": null }, "geometry": { "type": "Point", "coordinates": [ 129.242623761497384, 28.108070813846854 ] } },
{ "type": "Feature", "properties": { "P29_001": "46525", "P29_002": "C146210001450", "P29_003": "16002", "P29_004": "瀬戸内町立秋徳中学校", "P29_005": "鹿児島県大島郡瀬戸内町秋徳245", "P29_006": "3", "P29_007": "9", "P29_008": "00", "P29_009": null }, "geometry": { "type": "Point", "coordinates": [ 129.282848122541623, 28.085455203009623 ] } },
{ "type": "Feature", "properties": { "P29_001": "46525", "P29_002": "C146210001469", "P29_003": "16002", "P29_004": "瀬戸内町立池地中学校", "P29_005": "鹿児島県大島郡瀬戸内町池地329", "P29_006": "3", "P29_007": "1", "P29_008": "00", "P29_009": null }, "geometry": { "type": "Point", "coordinates": [ 129.23854536425111, 28.029901127301496 ] } },
{ "type": "Feature", "properties": { "P29_001": "46525", "P29_002": "C146210001478", "P29_003": "16002", "P29_004": "瀬戸内町立与路中学校", "P29_005": "鹿児島県大島郡瀬戸内町与路484", "P29_006": "3", "P29_007": "1", "P29_008": "00", "P29_009": null }, "geometry": { "type": "Point", "coordinates": [ 129.163384627431782, 28.044998138805106 ] } },
{ "type": "Feature", "properties": { "P29_001": "46525", "P29_002": "C146210001487", "P29_003": "16002", "P29_004": "瀬戸内町立古仁屋中学校", "P29_005": "鹿児島県大島郡瀬戸内町古仁屋842-8", "P29_006": "3", "P29_007": "1", "P29_008": "00", "P29_009": null }, "geometry": { "type": "Point", "coordinates": [ 129.316110793420052, 28.150349959381991 ] } },
{ "type": "Feature", "properties": { "P29_001": "46525", "P29_002": "C146210001496", "P29_003": "16002", "P29_004": "瀬戸内町立阿木名中学校", "P29_005": "鹿児島県大島郡瀬戸内町瀬戸内町阿木名2141", "P29_006": "3", "P29_007": "1", "P29_008": "00", "P29_009": null }, "geometry": { "type": "Point", "coordinates": [ 129.336814023767516, 28.170998505479393 ] } },
{ "type": "Feature", "properties": { "P29_001": "46525", "P29_002": "C146210001502", "P29_003": "16002", "P29_004": "瀬戸内町立油井中学校", "P29_005": "鹿児島県大島郡瀬戸内町油井603-1", "P29_006": "3", "P29_007": "1", "P29_008": "00", "P29_009": null }, "geometry": { "type": "Point", "coordinates": [ 129.294002941562411, 28.181968386937651 ] } },
{ "type": "Feature", "properties": { "P29_001": "46527", "P29_002": "C146210001511", "P29_003": "16002", "P29_004": "龍郷町立龍南中学校", "P29_005": "鹿児島県大島郡龍郷町浦528", "P29_006": "3", "P29_007": "1", "P29_008": "00", "P29_009": null }, "geometry": { "type": "Point", "coordinates": [ 129.586038362967571, 28.40687937463133 ] } },
{ "type": "Feature", "properties": { "P29_001": "46527", "P29_002": "C146210001520", "P29_003": "16002", "P29_004": "龍郷町立龍北中学校", "P29_005": "鹿児島県大島郡龍郷町嘉渡487", "P29_006": "3", "P29_007": "1", "P29_008": "00", "P29_009": null }, "geometry": { "type": "Point", "coordinates": [ 129.566941252171517, 28.456002525170351 ] } },
{ "type": "Feature", "properties": { "P29_001": "46527", "P29_002": "C146210001539", "P29_003": "16002", "P29_004": "龍郷町立赤徳中学校", "P29_005": "鹿児島県大島郡龍郷町赤尾木259", "P29_006": "3", "P29_007": "1", "P29_008": "00", "P29_009": null }, "geometry": { "type": "Point", "coordinates": [ 129.624888238879635, 28.41493983444515 ] } },
{ "type": "Feature", "properties": { "P29_001": "46222", "P29_002": "C146210001548", "P29_003": "16002", "P29_004": "奄美市立赤木名中学校", "P29_005": "鹿児島県奄美市笠利町里364", "P29_006": "3", "P29_007": "1", "P29_008": "00", "P29_009": null }, "geometry": { "type": "Point", "coordinates": [ 129.679018274334481, 28.452384703690512 ] } },
{ "type": "Feature", "properties": { "P29_001": "46222", "P29_002": "C146210001557", "P29_003": "16002", "P29_004": "奄美市立笠利中学校", "P29_005": "鹿児島県奄美市笠利町笠利1924", "P29_006": "3", "P29_007": "1", "P29_008": "00", "P29_009": null }, "geometry": { "type": "Point", "coordinates": [ 129.691254821594299, 28.490125471897976 ] } },
{ "type": "Feature", "properties": { "P29_001": "46530", "P29_002": "C146210001566", "P29_003": "16002", "P29_004": "徳之島町立亀津中学校", "P29_005": "鹿児島県大島郡徳之島町亀津2840", "P29_006": "3", "P29_007": "1", "P29_008": "00", "P29_009": null }, "geometry": { "type": "Point", "coordinates": [ 129.014933744476849, 27.730503501649071 ] } },
{ "type": "Feature", "properties": { "P29_001": "46530", "P29_002": "C146210001575", "P29_003": "16002", "P29_004": "徳之島町立井之川中学校", "P29_005": "鹿児島県大島郡徳之島町井之川2455", "P29_006": "3", "P29_007": "1", "P29_008": "00", "P29_009": null }, "geometry": { "type": "Point", "coordinates": [ 129.015374254958033, 27.77967595785935 ] } },
{ "type": "Feature", "properties": { "P29_001": "46530", "P29_002": "C146210001584", "P29_003": "16002", "P29_004": "徳之島町立尾母中学校", "P29_005": "鹿児島県大島郡徳之島町尾母300", "P29_006": "3", "P29_007": "1", "P29_008": "00", "P29_009": null }, "geometry": { "type": "Point", "coordinates": [ 128.98879686728236, 27.715221918205177 ] } },
{ "type": "Feature", "properties": { "P29_001": "46530", "P29_002": "C146210001593", "P29_003": "16002", "P29_004": "徳之島町立東天城中学校", "P29_005": "鹿児島県大島郡徳之島町花徳52", "P29_006": "3", "P29_007": "1", "P29_008": "00", "P29_009": null }, "geometry": { "type": "Point", "coordinates": [ 128.96682683571396, 27.817321576872086 ] } },
{ "type": "Feature", "properties": { "P29_001": "46530", "P29_002": "C146210001600", "P29_003": "16002", "P29_004": "徳之島町立山中学校", "P29_005": "鹿児島県大島郡徳之島町山2177-3", "P29_006": "3", "P29_007": "1", "P29_008": "00", "P29_009": null }, "geometry": { "type": "Point", "coordinates": [ 128.962419996845654, 27.869075000446067 ] } },
{ "type": "Feature", "properties": { "P29_001": "46530", "P29_002": "C146210001619", "P29_003": "16002", "P29_004": "徳之島町立手々中学校", "P29_005": "鹿児島県大島郡徳之島町手々2975", "P29_006": "3", "P29_007": "1", "P29_008": "00", "P29_009": null }, "geometry": { "type": "Point", "coordinates": [ 128.935116227087377, 27.88756379801632 ] } },
{ "type": "Feature", "properties": { "P29_001": "46531", "P29_002": "C146210001628", "P29_003": "16002", "P29_004": "天城町立天城中学校", "P29_005": "鹿児島県大島郡天城町兼久1105", "P29_006": "3", "P29_007": "1", "P29_008": "00", "P29_009": null }, "geometry": { "type": "Point", "coordinates": [ 128.90259933967161, 27.803220117384946 ] } },
{ "type": "Feature", "properties": { "P29_001": "46531", "P29_002": "C146210001637", "P29_003": "16002", "P29_004": "天城町立北中学校", "P29_005": "鹿児島県大島郡天城町浅間408-1", "P29_006": "3", "P29_007": "1", "P29_008": "00", "P29_009": null }, "geometry": { "type": "Point", "coordinates": [ 128.890607965639305, 27.837524035953887 ] } },
{ "type": "Feature", "properties": { "P29_001": "46531", "P29_002": "C146210001646", "P29_003": "16002", "P29_004": "天城町立西阿木名中学校", "P29_005": "鹿児島県大島郡天城町西阿木名262", "P29_006": "3", "P29_007": "1", "P29_008": "00", "P29_009": null }, "geometry": { "type": "Point", "coordinates": [ 128.915951938245001, 27.752522297312044 ] } },
{ "type": "Feature", "properties": { "P29_001": "46532", "P29_002": "C146210001655", "P29_003": "16002", "P29_004": "伊仙町立伊仙中学校", "P29_005": "鹿児島県大島郡伊仙町伊仙2635", "P29_006": "3", "P29_007": "1", "P29_008": "00", "P29_009": null }, "geometry": { "type": "Point", "coordinates": [ 128.933749803267148, 27.675963806232179 ] } },
{ "type": "Feature", "properties": { "P29_001": "46532", "P29_002": "C146210001664", "P29_003": "16002", "P29_004": "伊仙町立面縄中学校", "P29_005": "鹿児島県大島郡伊仙町面縄2196", "P29_006": "3", "P29_007": "1", "P29_008": "00", "P29_009": null }, "geometry": { "type": "Point", "coordinates": [ 128.97102506888595, 27.673789026551972 ] } },
{ "type": "Feature", "properties": { "P29_001": "46532", "P29_002": "C146210001673", "P29_003": "16002", "P29_004": "伊仙町立犬田布中学校", "P29_005": "鹿児島県大島郡伊仙町犬田布327", "P29_006": "3", "P29_007": "1", "P29_008": "00", "P29_009": null }, "geometry": { "type": "Point", "coordinates": [ 128.909127108828841, 27.711929004840584 ] } },
{ "type": "Feature", "properties": { "P29_001": "46533", "P29_002": "C146210001682", "P29_003": "16002", "P29_004": "和泊町立和泊中学校", "P29_005": "鹿児島県大島郡和泊町手々知名130", "P29_006": "3", "P29_007": "1", "P29_008": "00", "P29_009": null }, "geometry": { "type": "Point", "coordinates": [ 128.662543502397597, 27.402037690724917 ] } },
{ "type": "Feature", "properties": { "P29_001": "46533", "P29_002": "C146210001691", "P29_003": "16002", "P29_004": "和泊町立城ケ丘中学校", "P29_005": "鹿児島県大島郡和泊町内城130", "P29_006": "3", "P29_007": "1", "P29_008": "00", "P29_009": null }, "geometry": { "type": "Point", "coordinates": [ 128.61767793763002, 27.382390880445264 ] } },
{ "type": "Feature", "properties": { "P29_001": "46534", "P29_002": "C146210001708", "P29_003": "16002", "P29_004": "知名町立知名中学校", "P29_005": "鹿児島県大島郡知名町瀬利覚536", "P29_006": "3", "P29_007": "1", "P29_008": "00", "P29_009": null }, "geometry": { "type": "Point", "coordinates": [ 128.585465828727848, 27.340388462262833 ] } },
{ "type": "Feature", "properties": { "P29_001": "46534", "P29_002": "C146210001717", "P29_003": "16002", "P29_004": "知名町立田皆中学校", "P29_005": "鹿児島県大島郡知名町田皆1661", "P29_006": "3", "P29_007": "1", "P29_008": "00", "P29_009": null }, "geometry": { "type": "Point", "coordinates": [ 128.543549871393225, 27.386635549099562 ] } },
{ "type": "Feature", "properties": { "P29_001": "46535", "P29_002": "C146210001726", "P29_003": "16002", "P29_004": "与論町立与論中学校", "P29_005": "鹿児島県大島郡与論町朝戸1134", "P29_006": "3", "P29_007": "1", "P29_008": "00", "P29_009": null }, "geometry": { "type": "Point", "coordinates": [ 128.431610225311147, 27.032611381575009 ] } },
{ "type": "Feature", "properties": { "P29_001": "46201", "P29_002": "C146210001735", "P29_003": "16002", "P29_004": "鹿児島市立緑丘中学校", "P29_005": "鹿児島県鹿児島市緑ヶ丘町46-1", "P29_006": "3", "P29_007": "1", "P29_008": "00", "P29_009": null }, "geometry": { "type": "Point", "coordinates": [ 130.543935760778481, 31.656163843461336 ] } },
{ "type": "Feature", "properties": { "P29_001": "46201", "P29_002": "C146210001744", "P29_003": "16002", "P29_004": "鹿児島市立明和中学校", "P29_005": "鹿児島県鹿児島市明和2-2-1", "P29_006": "3", "P29_007": "1", "P29_008": "00", "P29_009": null }, "geometry": { "type": "Point", "coordinates": [ 130.520854043764615, 31.60078566705387 ] } },
{ "type": "Feature", "properties": { "P29_001": "46201", "P29_002": "C146210001753", "P29_003": "16002", "P29_004": "鹿児島市立坂元中学校", "P29_005": "鹿児島県鹿児島市玉里団地3-45-2", "P29_006": "3", "P29_007": "1", "P29_008": "00", "P29_009": null }, "geometry": { "type": "Point", "coordinates": [ 130.547895943235972, 31.622931086682989 ] } },
{ "type": "Feature", "properties": { "P29_001": "46201", "P29_002": "C146210001762", "P29_003": "16002", "P29_004": "鹿児島市立西紫原中学校", "P29_005": "鹿児島県鹿児島市西紫原町26-1", "P29_006": "3", "P29_007": "1", "P29_008": "00", "P29_009": null }, "geometry": { "type": "Point", "coordinates": [ 130.526964708061797, 31.557551655273034 ] } },
{ "type": "Feature", "properties": { "P29_001": "46201", "P29_002": "C146210001771", "P29_003": "16002", "P29_004": "鹿児島市立桜丘中学校", "P29_005": "鹿児島県鹿児島市桜ヶ丘2-34", "P29_006": "3", "P29_007": "1", "P29_008": "00", "P29_009": null }, "geometry": { "type": "Point", "coordinates": [ 130.509969571058292, 31.552859214856159 ] } },
{ "type": "Feature", "properties": { "P29_001": "46201", "P29_002": "C146210001780", "P29_003": "16002", "P29_004": "鹿児島市立東谷山中学校", "P29_005": "鹿児島県鹿児島市魚見町120-2", "P29_006": "3", "P29_007": "1", "P29_008": "00", "P29_009": null }, "geometry": { "type": "Point", "coordinates": [ 130.524933429829588, 31.541526288615767 ] } },
{ "type": "Feature", "properties": { "P29_001": "46215", "P29_002": "C146210001806", "P29_003": "16002", "P29_004": "薩摩川内市立海陽中学校", "P29_005": "鹿児島県薩摩川内市下甑町手打1472", "P29_006": "3", "P29_007": "1", "P29_008": "00", "P29_009": null }, "geometry": { "type": "Point", "coordinates": [ 129.694184207609624, 31.639088996384803 ] } },
{ "type": "Feature", "properties": { "P29_001": "46223", "P29_002": "C146210001815", "P29_003": "16002", "P29_004": "南九州市立知覧中学校", "P29_005": "鹿児島県南九州市知覧町西元4160", "P29_006": "3", "P29_007": "1", "P29_008": "00", "P29_009": null }, "geometry": { "type": "Point", "coordinates": [ 130.422475826353462, 31.346265824240763 ] } },
{ "type": "Feature", "properties": { "P29_001": "46225", "P29_002": "C146210001824", "P29_003": "16002", "P29_004": "姶良市立加治木中学校", "P29_005": "鹿児島県姶良市加治木町反土2162", "P29_006": "3", "P29_007": "1", "P29_008": "00", "P29_009": null }, "geometry": { "type": "Point", "coordinates": [ 130.663777474580399, 31.747044492768421 ] } },
{ "type": "Feature", "properties": { "P29_001": "46201", "P29_002": "C146210001833", "P29_003": "16002", "P29_004": "鹿児島市立星峯中学校", "P29_005": "鹿児島県鹿児島市星ヶ峯4-10-1", "P29_006": "3", "P29_007": "1", "P29_008": "00", "P29_009": null }, "geometry": { "type": "Point", "coordinates": [ 130.491990033985417, 31.578705427127307 ] } },
{ "type": "Feature", "properties": { "P29_001": "46215", "P29_002": "C146210001842", "P29_003": "16002", "P29_004": "薩摩川内市立川内中央中学校", "P29_005": "鹿児島県薩摩川内市平佐町5000", "P29_006": "3", "P29_007": "1", "P29_008": "00", "P29_009": null }, "geometry": { "type": "Point", "coordinates": [ 130.325077425631093, 31.819242556502459 ] } },
{ "type": "Feature", "properties": { "P29_001": "46505", "P29_002": "C146210001851", "P29_003": "16002", "P29_004": "屋久島町立岳南中学校", "P29_005": "鹿児島県熊毛郡屋久島町小島63-23", "P29_006": "3", "P29_007": "1", "P29_008": "00", "P29_009": null }, "geometry": { "type": "Point", "coordinates": [ 130.535306384586249, 30.236622555807198 ] } },
{ "type": "Feature", "properties": { "P29_001": "46201", "P29_002": "C146210001860", "P29_003": "16002", "P29_004": "鹿児島市立吉野東中学校", "P29_005": "鹿児島県鹿児島市吉野町5003", "P29_006": "3", "P29_007": "1", "P29_008": "00", "P29_009": null }, "geometry": { "type": "Point", "coordinates": [ 130.585109343401314, 31.648843721869703 ] } },
{ "type": "Feature", "properties": { "P29_001": "46223", "P29_002": "C146210001879", "P29_003": "16002", "P29_004": "南九州市立川辺中学校", "P29_005": "鹿児島県南九州市川辺町田部田3880", "P29_006": "3", "P29_007": "1", "P29_008": "00", "P29_009": null }, "geometry": { "type": "Point", "coordinates": [ 130.387781485796182, 31.399288322239524 ] } },
{ "type": "Feature", "properties": { "P29_001": "46201", "P29_002": "C146210001888", "P29_003": "16002", "P29_004": "鹿児島市立西陵中学校", "P29_005": "鹿児島県鹿児島市西陵5-13-1", "P29_006": "3", "P29_007": "1", "P29_008": "00", "P29_009": null }, "geometry": { "type": "Point", "coordinates": [ 130.505302205091198, 31.582219205831667 ] } },
{ "type": "Feature", "properties": { "P29_001": "46203", "P29_002": "C146210001897", "P29_003": "16002", "P29_004": "鹿屋市立鹿屋東中学校", "P29_005": "鹿児島県鹿屋市笠之原町2902", "P29_006": "3", "P29_007": "1", "P29_008": "00", "P29_009": null }, "geometry": { "type": "Point", "coordinates": [ 130.880237868511983, 31.397413950730023 ] } },
{ "type": "Feature", "properties": { "P29_001": "46201", "P29_002": "C146210001904", "P29_003": "16002", "P29_004": "鹿児島市立武岡中学校", "P29_005": "鹿児島県鹿児島市武岡5-50-1", "P29_006": "3", "P29_007": "1", "P29_008": "00", "P29_009": null }, "geometry": { "type": "Point", "coordinates": [ 130.508443063575754, 31.599652184588262 ] } },
{ "type": "Feature", "properties": { "P29_001": "46208", "P29_002": "C146210001913", "P29_003": "16002", "P29_004": "出水市立米ノ津中学校桂島分校", "P29_005": "鹿児島県出水市荘3670", "P29_006": "3", "P29_007": "1", "P29_008": "00", "P29_009": null }, "geometry": { "type": "Point", "coordinates": [ 130.262885329143984, 32.149299977327964 ] } },
{ "type": "Feature", "properties": { "P29_001": "46201", "P29_002": "C146210001922", "P29_003": "16002", "P29_004": "鹿児島市立皇徳寺中学校", "P29_005": "鹿児島県鹿児島市皇徳寺台3-35-1", "P29_006": "3", "P29_007": "1", "P29_008": "00", "P29_009": null }, "geometry": { "type": "Point", "coordinates": [ 130.487741133143402, 31.562660033368925 ] } },
{ "type": "Feature", "properties": { "P29_001": "46201", "P29_002": "C146210001931", "P29_003": "16002", "P29_004": "鹿児島市立鹿児島玉龍中学校", "P29_005": "鹿児島県鹿児島市池之上町20-57", "P29_006": "3", "P29_007": "1", "P29_008": "00", "P29_009": null }, "geometry": { "type": "Point", "coordinates": [ 130.561432909895757, 31.610549782346457 ] } },
{ "type": "Feature", "properties": { "P29_001": "46490", "P29_002": "C146210001940", "P29_003": "16002", "P29_004": "錦江町立錦江中学校", "P29_005": "鹿児島県肝属郡錦江町城元940", "P29_006": "3", "P29_007": "1", "P29_008": "00", "P29_009": null }, "geometry": { "type": "Point", "coordinates": [ 130.787590969889266, 31.242218612631607 ] } },
{ "type": "Feature", "properties": { "P29_001": "46218", "P29_002": "C146210001959", "P29_003": "16002", "P29_004": "霧島市立牧之原中学校若駒分校", "P29_005": "鹿児島県霧島市国分上之段2528", "P29_006": "3", "P29_007": "1", "P29_008": "00", "P29_009": null }, "geometry": { "type": "Point", "coordinates": [ 130.842879850368178, 31.680429870842293 ] } },
{ "type": "Feature", "properties": { "P29_001": "46213", "P29_002": "C146210001968", "P29_003": "16002", "P29_004": "西之表市立種子島中学校", "P29_005": "鹿児島県西之表市西之表7376", "P29_006": "3", "P29_007": "1", "P29_008": "00", "P29_009": null }, "geometry": { "type": "Point", "coordinates": [ 130.99794258749273, 30.737225095479506 ] } },
{ "type": "Feature", "properties": { "P29_001": "46215", "P29_002": "C146210001977", "P29_003": "16002", "P29_004": "薩摩川内市立平成中学校", "P29_005": "鹿児島県薩摩川内市城上町610", "P29_006": "3", "P29_007": "1", "P29_008": "00", "P29_009": null }, "geometry": { "type": "Point", "coordinates": [ 130.304517884132423, 31.871564170255876 ] } },
{ "type": "Feature", "properties": { "P29_001": "46491", "P29_002": "C146210001986", "P29_003": "16002", "P29_004": "南大隅町立第一佐多中学校", "P29_005": "鹿児島県肝属郡南大隅町佐多伊座敷3470", "P29_006": "3", "P29_007": "1", "P29_008": "00", "P29_009": null }, "geometry": { "type": "Point", "coordinates": [ 130.699161047814954, 31.089325908505909 ] } },
{ "type": "Feature", "properties": { "P29_001": "46201", "P29_002": "C146210001995", "P29_003": "16002", "P29_004": "鹿児島市立伊敷台中学校", "P29_005": "鹿児島県鹿児島市伊敷台1-3-1", "P29_006": "3", "P29_007": "1", "P29_008": "00", "P29_009": null }, "geometry": { "type": "Point", "coordinates": [ 130.530394304147023, 31.621836311808426 ] } },
{ "type": "Feature", "properties": { "P29_001": "46204", "P29_002": "C146210002002", "P29_003": "16002", "P29_004": "枕崎市立立神中学校", "P29_005": "鹿児島県枕崎市大塚北町54", "P29_006": "3", "P29_007": "1", "P29_008": "00", "P29_009": null }, "geometry": { "type": "Point", "coordinates": [ 130.274676431274145, 31.27457083671144 ] } },
{ "type": "Feature", "properties": { "P29_001": "46502", "P29_002": "C146210002011", "P29_003": "16002", "P29_004": "南種子町立南種子中学校", "P29_005": "鹿児島県熊毛郡南種子町中之下1900", "P29_006": "3", "P29_007": "1", "P29_008": "00", "P29_009": null }, "geometry": { "type": "Point", "coordinates": [ 130.900186004966997, 30.401576539128996 ] } },
{ "type": "Feature", "properties": { "P29_001": "46491", "P29_002": "C146210002020", "P29_003": "16002", "P29_004": "南大隅町立根占中学校", "P29_005": "鹿児島県肝属郡南大隅町根占山本1229-1", "P29_006": "3", "P29_007": "1", "P29_008": "00", "P29_009": null }, "geometry": { "type": "Point", "coordinates": [ 130.775652161697025, 31.202119289084184 ] } },
{ "type": "Feature", "properties": { "P29_001": "46218", "P29_002": "C146210002039", "P29_003": "16002", "P29_004": "霧島市立舞鶴中学校", "P29_005": "鹿児島県霧島市国分福島3-55-1", "P29_006": "3", "P29_007": "1", "P29_008": "00", "P29_009": null }, "geometry": { "type": "Point", "coordinates": [ 130.76605145603142, 31.731862611835961 ] } },
{ "type": "Feature", "properties": { "P29_001": "46501", "P29_002": "C146210002048", "P29_003": "16002", "P29_004": "中種子町立中種子中学校", "P29_005": "鹿児島県熊毛郡中種子町野間5208-1", "P29_006": "3", "P29_007": "1", "P29_008": "00", "P29_009": null }, "geometry": { "type": "Point", "coordinates": [ 130.956679859630952, 30.535003493982096 ] } },
{ "type": "Feature", "properties": { "P29_001": "46217", "P29_002": "C146210002057", "P29_003": "16002", "P29_004": "曽於市立大隅中学校", "P29_005": "鹿児島県曽於市大隅町岩川5146", "P29_006": "3", "P29_007": "1", "P29_008": "00", "P29_009": null }, "geometry": { "type": "Point", "coordinates": [ 130.984826719336638, 31.595070000715612 ] } },
{ "type": "Feature", "properties": { "P29_001": "46214", "P29_002": "C146210002066", "P29_003": "16002", "P29_004": "垂水市立垂水中央中学校", "P29_005": "鹿児島県垂水市南松原町60", "P29_006": "3", "P29_007": "1", "P29_008": "00", "P29_009": null }, "geometry": { "type": "Point", "coordinates": [ 130.699577493648633, 31.487409192711816 ] } },
{ "type": "Feature", "properties": { "P29_001": "46203", "P29_002": "C146210002075", "P29_003": "16002", "P29_004": "鹿屋市立輝北中学校", "P29_005": "鹿児島県鹿屋市輝北町市成2412-1", "P29_006": "3", "P29_007": "1", "P29_008": "00", "P29_009": null }, "geometry": { "type": "Point", "coordinates": [ 130.870322340564798, 31.584036100921747 ] } },
{ "type": "Feature", "properties": { "P29_001": "46505", "P29_002": "C146210002084", "P29_003": "16002", "P29_004": "屋久島町立中央中学校", "P29_005": "鹿児島県熊毛郡屋久島町宮之浦2437-6", "P29_006": "3", "P29_007": "1", "P29_008": "00", "P29_009": null }, "geometry": { "type": "Point", "coordinates": [ 130.574685816532963, 30.423976622590931 ] } },
{ "type": "Feature", "properties": { "P29_001": "46523", "P29_002": "C146210002093", "P29_003": "16002", "P29_004": "大和村立大和中学校", "P29_005": "鹿児島県大島郡大和村思勝370", "P29_006": "3", "P29_007": "1", "P29_008": "00", "P29_009": null }, "geometry": { "type": "Point", "coordinates": [ 129.395218184711126, 28.355819933891581 ] } },
{ "type": "Feature", "properties": { "P29_001": "46529", "P29_002": "C146210002100", "P29_003": "16002", "P29_004": "喜界町立喜界中学校", "P29_005": "鹿児島県大島郡喜界町湾1775", "P29_006": "3", "P29_007": "1", "P29_008": "00", "P29_009": null }, "geometry": { "type": "Point", "coordinates": [ 129.940746155712873, 28.317618134760004 ] } },
{ "type": "Feature", "properties": { "P29_001": "46220", "P29_002": "C146210002119", "P29_003": "16002", "P29_004": "南さつま市立大笠中学校", "P29_005": "鹿児島県南さつま市大浦町24524", "P29_006": "3", "P29_007": "1", "P29_008": "00", "P29_009": null }, "geometry": { "type": "Point", "coordinates": [ 130.227936362298919, 31.382008798648705 ] } },
{ "type": "Feature", "properties": { "P29_001": "46492", "P29_002": "C146210002128", "P29_003": "16002", "P29_004": "鹿児島県立楠隼中学校", "P29_005": "鹿児島県肝属郡肝付町前田5025", "P29_006": "2", "P29_007": "1", "P29_008": "00", "P29_009": null }, "geometry": { "type": "Point", "coordinates": [ 130.929993667447576, 31.346291582007677 ] } },
{ "type": "Feature", "properties": { "P29_001": "46224", "P29_002": "C146210002137", "P29_003": "16002", "P29_004": "伊佐市立大口中央中学校", "P29_005": "鹿児島県伊佐市大口篠原746-1", "P29_006": "3", "P29_007": "1", "P29_008": "00", "P29_009": null }, "geometry": { "type": "Point", "coordinates": [ 130.618511405843378, 32.064988016840104 ] } },
{ "type": "Feature", "properties": { "P29_001": "46304", "P29_002": "C146210002146", "P29_003": "16002", "P29_004": "十島村立諏訪之瀬島中学校", "P29_005": "鹿児島県鹿児島郡十島村諏訪之瀬島90", "P29_006": "3", "P29_007": "1", "P29_008": "00", "P29_009": null }, "geometry": { "type": "Point", "coordinates": [ 129.699468409829308, 29.611463416883542 ] } },
{ "type": "Feature", "properties": { "P29_001": "46304", "P29_002": "C146210002155", "P29_003": "16002", "P29_004": "十島村立小宝島中学校", "P29_005": "鹿児島県鹿児島郡十島村小宝島21-23", "P29_006": "3", "P29_007": "1", "P29_008": "00", "P29_009": null }, "geometry": { "type": "Point", "coordinates": [ 129.328593549194636, 29.222409637354804 ] } },
{ "type": "Feature", "properties": { "P29_001": "46201", "P29_002": "C146310000011", "P29_003": "16002", "P29_004": "ラサール中学校", "P29_005": "鹿児島県鹿児島市小松原2-10-1", "P29_006": "4", "P29_007": "1", "P29_008": "00", "P29_009": null }, "geometry": { "type": "Point", "coordinates": [ 130.527619051736423, 31.530371568116976 ] } },
{ "type": "Feature", "properties": { "P29_001": "46201", "P29_002": "C146310000020", "P29_003": "16002", "P29_004": "鹿児島純心女子中学校", "P29_005": "鹿児島県鹿児島市唐湊4-22-2", "P29_006": "4", "P29_007": "1", "P29_008": "00", "P29_009": null }, "geometry": { "type": "Point", "coordinates": [ 130.538071569597349, 31.564511744754643 ] } },
{ "type": "Feature", "properties": { "P29_001": "46224", "P29_002": "C146310000039", "P29_003": "16002", "P29_004": "大口明光学園中学校", "P29_005": "鹿児島県伊佐市大口里1830", "P29_006": "4", "P29_007": "1", "P29_008": "00", "P29_009": null }, "geometry": { "type": "Point", "coordinates": [ 130.615459794926466, 32.053823888514884 ] } },
{ "type": "Feature", "properties": { "P29_001": "46201", "P29_002": "C146310000048", "P29_003": "16002", "P29_004": "鹿児島修学館中学校", "P29_005": "鹿児島県鹿児島市永吉2-9-1", "P29_006": "4", "P29_007": "1", "P29_008": "00", "P29_009": null }, "geometry": { "type": "Point", "coordinates": [ 130.534647292049783, 31.603223683380318 ] } },
{ "type": "Feature", "properties": { "P29_001": "46215", "P29_002": "C146310000057", "P29_003": "16002", "P29_004": "川島学園れいめい中学校", "P29_005": "鹿児島県薩摩川内市隈之城町2205", "P29_006": "4", "P29_007": "1", "P29_008": "00", "P29_009": null }, "geometry": { "type": "Point", "coordinates": [ 130.303874856743164, 31.792557736064644 ] } },
{ "type": "Feature", "properties": { "P29_001": "46201", "P29_002": "C146310000066", "P29_003": "16002", "P29_004": "池田学園池田中学校", "P29_005": "鹿児島県鹿児島市西別府町1680", "P29_006": "4", "P29_007": "1", "P29_008": "00", "P29_009": null }, "geometry": { "type": "Point", "coordinates": [ 130.483931390111252, 31.600791734364044 ] } },
{ "type": "Feature", "properties": { "P29_001": "46201", "P29_002": "C146310000075", "P29_003": "16002", "P29_004": "志學館中等部", "P29_005": "鹿児島県鹿児島市南郡元町32-1", "P29_006": "4", "P29_007": "1", "P29_008": "00", "P29_009": null }, "geometry": { "type": "Point", "coordinates": [ 130.542928535666618, 31.557622913533748 ] } },
{ "type": "Feature", "properties": { "P29_001": "46216", "P29_002": "C146310000084", "P29_003": "16002", "P29_004": "鹿児島育英館中学校", "P29_005": "鹿児島県日置市伊集院町猪鹿倉550", "P29_006": "4", "P29_007": "1", "P29_008": "00", "P29_009": null }, "geometry": { "type": "Point", "coordinates": [ 130.408413853392545, 31.628031622194541 ] } },
{ "type": "Feature", "properties": { "P29_001": "46219", "P29_002": "C146310000093", "P29_003": "16002", "P29_004": "神村学園中等部", "P29_005": "鹿児島県いちき串木野市別府4460", "P29_006": "4", "P29_007": "1", "P29_008": "00", "P29_009": null }, "geometry": { "type": "Point", "coordinates": [ 130.281314910029067, 31.704769062067811 ] } },
{ "type": "Feature", "properties": { "P29_001": "46218", "P29_002": "C146310000100", "P29_003": "16002", "P29_004": "鹿児島第一中学校", "P29_005": "鹿児島県霧島市国分府中214", "P29_006": "4", "P29_007": "1", "P29_008": "00", "P29_009": null }, "geometry": { "type": "Point", "coordinates": [ 130.769542471241692, 31.749623233464419 ] } }
]
}
