{
"type": "FeatureCollection",
"name": "geo_46_義務教育学校",
"crs": { "type": "name", "properties": { "name": "urn:ogc:def:crs:EPSG::6668" } },
"features": [
{ "type": "Feature", "properties": { "P29_001": "46208", "P29_002": "C246210000012", "P29_003": "16014", "P29_004": "鶴荘学園", "P29_005": "鹿児島県出水市荘1748", "P29_006": "3", "P29_007": "1", "P29_008": "00", "P29_009": null }, "geometry": { "type": "Point", "coordinates": [ 130.280528290552382, 32.086249969642409 ] } },
{ "type": "Feature", "properties": { "P29_001": "46220", "P29_002": "C246210000021", "P29_003": "16014", "P29_004": "坊津学園", "P29_005": "鹿児島県南さつま市坊津町泊8748", "P29_006": "3", "P29_007": "1", "P29_008": "00", "P29_009": null }, "geometry": { "type": "Point", "coordinates": [ 130.230313404396441, 31.286025909777216 ] } },
{ "type": "Feature", "properties": { "P29_001": "46215", "P29_002": "C246210000030", "P29_003": "16014", "P29_004": "東郷学園義務教育学校", "P29_005": "鹿児島県薩摩川内市東郷町斧渕4564", "P29_006": "3", "P29_007": "1", "P29_008": "00", "P29_009": null }, "geometry": { "type": "Point", "coordinates": [ 130.343613645259154, 31.867562690462755 ] } },
{ "type": "Feature", "properties": { "P29_001": "46303", "P29_002": "C246210000049", "P29_003": "16014", "P29_004": "三島硫黄島学園義務教育学校", "P29_005": "鹿児島県鹿児島郡三島村硫黄島80", "P29_006": "3", "P29_007": "1", "P29_008": "00", "P29_009": null }, "geometry": { "type": "Point", "coordinates": [ 130.27919002636267, 30.783946254377739 ] } },
{ "type": "Feature", "properties": { "P29_001": "46303", "P29_002": "C246210000058", "P29_003": "16014", "P29_004": "三島竹島学園義務教育学校", "P29_005": "鹿児島県鹿児島郡三島村竹島43", "P29_006": "3", "P29_007": "1", "P29_008": "00", "P29_009": null }, "geometry": { "type": "Point", "coordinates": [ 130.417153807685054, 30.814476226717364 ] } },
{ "type": "Feature", "properties": { "P29_001": "46303", "P29_002": "C246210000067", "P29_003": "16014", "P29_004": "三島大里学園義務教育学校", "P29_005": "鹿児島県鹿児島郡三島村黒島44", "P29_006": "3", "P29_007": "1", "P29_008": "00", "P29_009": null }, "geometry": { "type": "Point", "coordinates": [ 129.956717161900713, 30.835061999104003 ] } },
{ "type": "Feature", "properties": { "P29_001": "46303", "P29_002": "C246210000076", "P29_003": "16014", "P29_004": "三島片泊学園義務教育学校", "P29_005": "鹿児島県鹿児島郡三島村黒島42", "P29_006": "3", "P29_007": "1", "P29_008": "00", "P29_009": null }, "geometry": { "type": "Point", "coordinates": [ 129.910451512095392, 30.832428354070274 ] } },
{ "type": "Feature", "properties": { "P29_001": "46216", "P29_002": "C246210000085", "P29_003": "16014", "P29_004": "日吉学園", "P29_005": "鹿児島県日置市日吉町日置356", "P29_006": "3", "P29_007": "1", "P29_008": "00", "P29_009": null }, "geometry": { "type": "Point", "coordinates": [ 130.344994919982952, 31.587108932328722 ] } },
{ "type": "Feature", "properties": { "P29_001": "46492", "P29_002": "C246210000094", "P29_003": "16014", "P29_004": "岸良学園", "P29_005": "鹿児島県肝属郡肝付町岸良207-1", "P29_006": "3", "P29_007": "1", "P29_008": "00", "P29_009": null }, "geometry": { "type": "Point", "coordinates": [ 131.006321485190654, 31.228335252606136 ] } },
{ "type": "Feature", "properties": { "P29_001": "46220", "P29_002": "C246210000101", "P29_003": "16014", "P29_004": "南さつま市立金峰学園", "P29_005": "鹿児島県南さつま市金峰町中津野500-1", "P29_006": "3", "P29_007": "1", "P29_008": "00", "P29_009": null }, "geometry": { "type": "Point", "coordinates": [ 130.33842997978067, 31.450286121799344 ] } }
]
}
